bbox,cessation,country_id,deprecated,file_hash,fullname,geom_hash,geom_latitude,geom_longitude,id,inception,iso,iso_country,lastmodified,lbl_latitude,lbl_longitude,locality_id,name,parent_id,path,placetype,region_id,source,superseded_by,supersedes,wof_country
"20.481688,59.909788,21.063007,60.226263",uuuu,-1,uuuu,3c5ee757d4e7e59b4c63ca40d892149f,,71b989d92301ca18264c3c341d51e133,60.090752,20.753145,907198465,uuuu,FI,FI,1642551737,60.065472,20.728697,0,Sottunga,1159321503,907/198/465/907198465.geojson,localadmin,-1,figov,,,FI
"25.8010023716,60.0446972153,26.6563967257,60.6613579613",uuuu,85633143,uuuu,fad2c9494136cae39625cc06579e4304,,adffb5b8dde84f08109e4cd8189bb2c8,60.36659,26.240885,907198469,uuuu,FI,FI,1582312068,60.313799,26.28288,0,Loviisa,1159321525,907/198/469/907198469.geojson,localadmin,85683067,figov,,,FI
"19.1611733816,60.0248726416,19.682896399,60.6115120407",uuuu,-1,uuuu,f1bca692754b8e989d5f36b0e780c16f,,69ae35fea5312dfe1e24445066e4e5e7,60.299116,19.425151,907198473,uuuu,FI,FI,1566594058,60.247127,19.537342,0,Eckero,-1,907/198/473/907198473.geojson,localadmin,-1,figov,,,FI
"19.0832000706,59.956410432,19.8493249404,60.6657874028",uuuu,-1,uuuu,48f205c4c10c643809ab05591b1cca31,,3a129a8a40a2c6aec2538f1997e4dbe0,60.310949,19.446326,907198477,uuuu,FI,FI,1566594008,60.539796,19.438309,0,Hammarland,1159321611,907/198/477/907198477.geojson,localadmin,-1,figov,,,FI
"19.658283,59.595064,20.257942,60.143239",uuuu,-1,uuuu,6b65c9a522ff9322f37c9727e262bda0,,d063345fc1742aeba02730dc4c6bd361,59.8799,19.965467,907198483,uuuu,FI,FI,1636494395,59.849754,19.936087,0,Lemland,1159321611,907/198/483/907198483.geojson,localadmin,-1,figov,,,FI
"19.9406472182,59.4660859578,20.7716241338,60.1510705583",uuuu,-1,uuuu,ba545dbd270c9b0aff70054b20426943,,85e48f2de7d6592212f5f223da81c482,59.818001,20.364907,907198485,uuuu,FI,FI,1566594003,59.836703,20.39333,0,Foglo,1159321503,907/198/485/907198485.geojson,localadmin,-1,figov,,,FI
"19.423645,59.791683,20.133478,60.210749",uuuu,-1,uuuu,1a2b6b88c2f1b7fde64cc47a226eaceb,,8ce150f8256915bece4ce6812dbaedf8,60.017397,19.742662,907198489,uuuu,FI,FI,1642551721,60.004472,19.718401,0,Jomala,1159321611,907/198/489/907198489.geojson,localadmin,-1,figov,,,FI
"20.133478,60.0416,20.34055,60.176697",uuuu,-1,uuuu,43818a7270e7313d6eebc2bfd7aa8edb,,e17f2faf0db31be9e65ed7981f7e302c,60.116576,20.241492,907198491,uuuu,FI,FI,1636494397,60.125152,20.243063,0,Lumparland,-1,907/198/491/907198491.geojson,localadmin,-1,figov,,,FI
"20.2190518698,60.1008892534,20.6357631394,60.4664807299",uuuu,-1,uuuu,de3db9a0ef718422f14f782bde40f1ae,,31ccc8972bf82e104e500f6dc6f1c55c,60.293957,20.421869,907198495,uuuu,FI,FI,1566594067,60.289587,20.436377,0,Vardo,-1,907/198/495/907198495.geojson,localadmin,-1,figov,,,FI
"20.0175922087,60.1432394528,20.3298246381,60.3410564197",uuuu,-1,uuuu,5acda608492071405d0e6fd099758957,,f3b13e76c69810f368c4ef7077f0cd8e,60.231102,20.169455,907198499,uuuu,FI,FI,1566594015,60.221055,20.167796,0,Sund,85667867,907/198/499/907198499.geojson,localadmin,85667867,figov,,,FI
"19.4732471109,60.3084317601,19.9942144415,60.7083439876",uuuu,-1,uuuu,304bfc29c2f8ff43ed8df7f84736f7ff,,3ba3cdc420ea5e26147d793bc9348aeb,60.525079,19.737276,907198503,uuuu,FI,FI,1566593998,60.562004,19.719845,0,Geta,-1,907/198/503/907198503.geojson,localadmin,-1,figov,,,FI
"22.6589236383,59.6109994387,23.2951677695,59.9371668289",uuuu,85633143,uuuu,2f4cc430390115be32022d25c5fd2a54,,cfea928523dae3cd7a5b24c9e96749ad,59.765962,22.999336,907198505,uuuu,FI,FI,1582312045,59.76547,23.005417,0,Hanko,1159321627,907/198/505/907198505.geojson,localadmin,85683067,figov,,,FI
"23.7526574844,59.7516960272,24.3162836407,60.1501172399",uuuu,85633143,uuuu,f707a8066f73b3f4abafbed978901baf,,9c88479b7d7a9f3360d4a73701e03c8a,59.960416,24.05499,907198509,uuuu,FI,FI,1582312062,59.955146,24.049604,0,Inkoo,1159321627,907/198/509/907198509.geojson,localadmin,85683067,figov,,,FI
"24.2720653814,59.7915698748,24.8314125209,60.2977067973",uuuu,85633143,uuuu,3daad87578e85455fe14deedaa0d5ef2,,0b9581533f1d64e01daaf61abe833c44,60.011268,24.495889,907198511,uuuu,FI,FI,1582312058,59.987781,24.500165,0,Kirkkonummi,1159321633,907/198/511/907198511.geojson,localadmin,85683067,figov,,,FI
"24.499302,59.901405,24.9423,60.363901",uuuu,85633143,uuuu,e38b5e8f6c72e30fc67a559621efe6b7,,abce14323052347bc092daa5d2b985fd,60.164108,24.713587,907198517,uuuu,FI,FI,1617129939,60.135897,24.716896,0,Espoo,1159321633,907/198/517/907198517.geojson,localadmin,85683067,figov,,,FI
"25.102188639,59.9370983061,25.5269179793,60.5062338474",uuuu,85633143,uuuu,5049a9682f76955ed9798d3f77108b66,,ed466feed235f5c463f792d5612b0ea1,60.22465,25.286064,907198521,uuuu,FI,FI,1582312056,60.250776,25.342228,0,Sipoo,1159321633,907/198/521/907198521.geojson,localadmin,85683067,figov,,,FI
"25.329288,59.928196,26.271298,60.550998",uuuu,85633143,uuuu,6c2033be845679fa2d8a1cf779854819,,0d3e216c74d58d18c9be75e594fa5e40,60.185899,25.727853,907198525,uuuu,FI,FI,1642551823,60.163154,25.7275,0,Porvoo,1159321593,907/198/525/907198525.geojson,localadmin,85683067,figov,,,FI
"19.7417459608,60.1805204001,20.0267853017,60.4509136733",uuuu,-1,uuuu,d2427bf01cb3b13963f568e92db15b6e,,6e2728f02bc097604e71219fbf364b56,60.270384,19.902272,907198529,uuuu,FI,FI,1566594028,60.259693,19.886349,0,Finstrom,85667835,907/198/529/907198529.geojson,localadmin,85667835,figov,,,FI
"19.7978546389,60.2298915798,20.5640371886,60.7620023568",uuuu,-1,uuuu,40f8771279eb800cfed5031549d41003,,a3fbece396a74369ed869ed43ad61d8a,60.521499,20.099652,907198535,uuuu,FI,FI,1566593999,60.563327,20.09563,0,Saltvik,-1,907/198/535/907198535.geojson,localadmin,-1,figov,,,FI
"23.97132673,60.4703991717,24.4649044693,60.6445215747",uuuu,85633143,uuuu,c16e9d86d955d829fa22158dd357d840,,df146310f0b75857e79c2d834f9de54b,60.556943,24.238146,907198539,uuuu,FI,FI,1582312059,60.554938,24.196961,0,Karkkila,1159321633,907/198/539/907198539.geojson,localadmin,85683067,figov,,,FI
"25.4142722292,60.4699110953,25.8232270824,60.6141335279",uuuu,85633143,uuuu,c687693508ccf4bdfa2054b34237cd4a,,02c0b22da5852d10a2ae40fe881cf7d4,60.542451,25.61421,907198543,uuuu,FI,FI,1582312057,60.541697,25.618151,0,Askola,1159321593,907/198/543/907198543.geojson,localadmin,85683067,figov,,,FI
"25.204082063,60.4007405216,25.5101962474,60.5543004939",uuuu,85633143,uuuu,d2670cc33589ba2f14dd4855d613b70a,,77ea467d888ce21a1832ef629b767e1b,60.482344,25.359441,907198545,uuuu,FI,FI,1582312058,60.484602,25.36981,0,Pornainen,1159321633,907/198/545/907198545.geojson,localadmin,85683067,figov,,,FI
"23.1546153688,60.4673262878,23.9205491095,60.7741682465",uuuu,85633143,uuuu,f24bf67869e67d55d601f8c5e318b2ae,,f806934255b8aab048d8a0db37dfd2b8,60.61445,23.555172,907198549,uuuu,FI,FI,1582312072,60.591081,23.613235,0,Somero,1159321585,907/198/549/907198549.geojson,localadmin,85683073,figov,,,FI
"20.2018034418,60.1239329303,21.1513411135,60.8766366924",uuuu,-1,uuuu,e3e69ee74b641b4e00f56104b7c2e650,,5a1f2d9de8aad231884bbe99c0093767,60.556446,20.770643,907198555,uuuu,FI,FI,1566594032,60.556615,20.896459,0,Brando,1159321503,907/198/555/907198555.geojson,localadmin,-1,figov,,,FI
"25.0453432655,60.5016310838,25.5254231513,60.8408511915",uuuu,85633143,uuuu,fe56d43ecbbed7eae78cfb3e24273ff6,,434565185fde3a3ec6e19792ef8b093f,60.661042,25.279125,907198557,uuuu,FI,FI,1582312048,60.649391,25.298499,0,Mantsala,1159321633,907/198/557/907198557.geojson,localadmin,85683067,figov,,,FI
"24.7133101254,60.6593013884,25.1930665884,60.9278385965",uuuu,85633143,uuuu,e1f81d657c03d076711d86d14dbd14a9,,dbc82b86c9413c3c215c50f8c3f0d05a,60.782189,24.960681,907198561,uuuu,FI,FI,1582312046,60.765918,24.977088,0,Hausjarvi,1159321541,907/198/561/907198561.geojson,localadmin,85683077,figov,,,FI
"25.0785719292,60.7519551589,25.4496067445,60.9816768585",uuuu,85633143,uuuu,5ebc23a90dc88954c8e98b3118a61f13,,eb7c349bf77cfc19fc97535097ed2270,60.857873,25.268141,907198567,uuuu,FI,FI,1582312044,60.855295,25.270952,0,Karkola,1159321483,907/198/567/907198567.geojson,localadmin,85683091,figov,,,FI
"24.0467482465,60.5524914803,24.6909498293,60.8203496103",uuuu,85633143,uuuu,ecc8665df0ff2529dda0830ced521211,,15ac6a7858630073d6fa727ffa9584a9,60.691121,24.338978,907198573,uuuu,FI,FI,1582312058,60.691361,24.300778,0,Loppi,1159321541,907/198/573/907198573.geojson,localadmin,85683077,figov,,,FI
"25.3949950121,60.6714762655,26.2238442572,60.9345586578",uuuu,85633143,uuuu,8fa1b9b40872d958723be782579c7e92,,1bee2d9809c6f0e406f1f41c6b512967,60.800278,25.821406,907198577,uuuu,FI,FI,1582312077,60.801453,25.788066,0,Orimattila,1159321483,907/198/577/907198577.geojson,localadmin,85683091,figov,,,FI
"23.4983066944,60.6376627449,24.0632433773,60.9739891896",uuuu,85633143,uuuu,a502277fa22962aad430ec7c8417d204,,c90ef975dbe1abb6d6558579332b1c0d,60.785844,23.832405,907198581,uuuu,FI,FI,1582312057,60.796421,23.837799,0,Tammela,1159321511,907/198/581/907198581.geojson,localadmin,85683077,figov,,,FI
"25.0075357612,60.8543589049,25.8221945308,61.1507073194",uuuu,85633143,uuuu,57d88b958f7ef94eff829798fbc39292,,e1f9852f52dca4cb9d6bbcd84f1ca68e,61.006743,25.389559,907198585,uuuu,FI,FI,1582312073,60.98896,25.423575,0,Hollola,1159321483,907/198/585/907198585.geojson,localadmin,85683091,figov,,,FI
"24.1254914142,60.2461982126,24.6495309473,60.5858011888",uuuu,85633143,uuuu,f5d340b11636a84c2bbc207fede06bd0,,c7367f87bd11e83ef48666006150961c,60.408445,24.396762,907198595,uuuu,FI,FI,1582312046,60.395098,24.418376,0,Vihti,1159321633,907/198/595/907198595.geojson,localadmin,85683067,figov,,,FI
"24.5248386769,60.3417833636,24.9754575197,60.5888669187",uuuu,85633143,uuuu,12db8f5d55782d8ff091433fca50881b,,15644226d9648f4e731cd388b958727b,60.461864,24.756265,907198599,uuuu,FI,FI,1582312059,60.445065,24.752867,0,Nurmijarvi,1159321633,907/198/599/907198599.geojson,localadmin,85683067,figov,,,FI
"24.5629361862,60.5081276193,25.1124618017,60.684992121",uuuu,85633143,uuuu,7e4af3ecce8289ff5b7ca90d99c085d8,,c6c87e8b009f7ffa85356162c51d8f71,60.609007,24.820403,907198603,uuuu,FI,FI,1582312054,60.612482,24.839081,0,Hyvinkaa,1159321633,907/198/603/907198603.geojson,localadmin,85683067,figov,,,FI
"25.904959057,60.4996028165,26.3802015907,60.7623454028",uuuu,85633143,uuuu,f96ae80694ad5c4d548f749c90b7be68,,050de6496f5bdcde9cf3105b338b884a,60.637137,26.1985,907198607,uuuu,FI,FI,1582312071,60.643813,26.257862,0,Lapinjarvi,1159321525,907/198/607/907198607.geojson,localadmin,85683067,figov,,,FI
"20.3775434328,60.4306845727,21.5437369425,60.9018072212",uuuu,85633143,uuuu,49e3679d3b4447176a83713ce074557e,,3a5f9cee385ba4d8d1e2d52b92df056e,60.66071,21.064942,907198611,uuuu,FI,FI,1582312053,60.582769,21.260226,0,Kustavi,1159321637,907/198/611/907198611.geojson,localadmin,85683073,figov,,,FI
"20.4375714384,60.6167483372,21.7582826031,61.126905931",uuuu,85633143,uuuu,833336818ee221d88f0961a6ff9e1616,,453683c6aff2c8f07a5a3a579751582f,60.882614,21.097273,907198615,uuuu,FI,FI,1582312067,60.902973,21.10691,0,Uusikaupunki,1159321637,907/198/615/907198615.geojson,localadmin,85683073,figov,,,FI
"25.9919257035,60.7478438756,26.5449681031,61.155485463",uuuu,85633143,uuuu,dcd6821e964b1f8c192994f06337cedc,,38b82d1eb118e479f61363466d4da2fa,60.935874,26.28021,907198619,uuuu,FI,FI,1582312051,60.895079,26.277185,0,Iitti,1159321557,907/198/619/907198619.geojson,localadmin,85683081,figov,,,FI
"25.0729006244,60.3590742471,25.1635893012,60.4429878069",uuuu,85633143,uuuu,0502d600690d6654381e60d603874609,,86f4ebd0bcf9d4c432502095bb33197a,60.399277,25.118714,907198627,uuuu,FI,FI,1582312053,60.398886,25.115053,0,Kerava,1159321633,907/198/627/907198627.geojson,localadmin,85683067,figov,,,FI
"24.8661902737,60.3324491467,25.1535081244,60.5806395788",uuuu,85633143,uuuu,a896b876bfa7c8d8739bb03e211a2364,,50cc3dcef6443b943274acb7cbbacbb5,60.451974,25.002058,907198631,uuuu,FI,FI,1582312071,60.423853,24.990165,0,Tuusula,1159321633,907/198/631/907198631.geojson,localadmin,85683067,figov,,,FI
"21.3656174486,60.4664106811,21.7830764666,60.6405905112",uuuu,85633143,uuuu,a1d8960f8e1599071906529603c49d7c,,97cc1efa4cfacb84d03d1827097dc29b,60.559079,21.584791,907198635,uuuu,FI,FI,1582312054,60.543959,21.584793,0,Taivassalo,1159321637,907/198/635/907198635.geojson,localadmin,85683073,figov,,,FI
"25.0385338914,60.4429087175,25.1693004514,60.5167309519",uuuu,85633143,uuuu,2c7495a639685f039df041500317c299,,8ff2f87c89211ada05a80e6e1a3ac08a,60.48051,25.100428,907198639,uuuu,FI,FI,1582312069,60.474412,25.095144,0,Jarvenpaa,1159321633,907/198/639/907198639.geojson,localadmin,85683067,figov,,,FI
"21.5060044564,60.5712574848,21.8153738309,60.7592913476",uuuu,85633143,uuuu,a0de74277821a5e0d4ed252663349a22,,8fa0fb9de3b35c5fdf5ec26a491d4012,60.673933,21.683475,907198643,uuuu,FI,FI,1582312050,60.679719,21.683425,0,Vehmaa,1159321637,907/198/643/907198643.geojson,localadmin,85683073,figov,,,FI
"25.5403067224,60.8866488315,26.1689823974,61.1026662834",uuuu,85633143,uuuu,4ad492e498d97ca4c7a3d709b7adf91e,,f6efdd279cf53175fe991d28dfd2b897,60.9898,25.864621,907198647,uuuu,FI,FI,1582312065,60.988992,25.889871,0,Lahti,1159321483,907/198/647/907198647.geojson,localadmin,85683091,figov,,,FI
"26.4478395201,60.1713286325,26.8753364588,60.652367518",uuuu,85633143,uuuu,7ce988512cadb72b994db5cc5b1e0007,,fd70b6c951ff51fb8bee3c8dbd14fb67,60.408043,26.68235,907198651,uuuu,FI,FI,1582312053,60.418391,26.699637,0,Pyhtaa,1159321573,907/198/651/907198651.geojson,localadmin,85683081,figov,,,FI
"23.5863109041,60.129492556,24.3056956351,60.6538463308",uuuu,85633143,uuuu,87e9d32a2c6201c1e9e58be26d043325,,e26b995f0fc9654607994ad922846460,60.360513,23.943999,907198655,uuuu,FI,FI,1582312068,60.35341,23.949417,0,Lohja,1159321633,907/198/655/907198655.geojson,localadmin,85683067,figov,,,FI
"25.4252885897,60.5798598972,25.7467504798,60.7184210893",uuuu,85633143,uuuu,49fdb0882047591ca2065832dce7d6ea,,5a3117898f8be27d37874878092614d7,60.652631,25.582815,907198663,uuuu,FI,FI,1582312069,60.649162,25.513515,0,Pukkila,1159321593,907/198/663/907198663.geojson,localadmin,85683067,figov,,,FI
"20.7731388539,60.9963322265,22.0707153429,61.2848720274",uuuu,85633143,uuuu,b916a6b73258b689fd717f04135b43c8,,c59eff77f6aee755af80449c7bce02d0,61.141909,21.3764,907198665,uuuu,FI,FI,1582312070,61.158301,21.38616,0,Rauma,1159321607,907/198/665/907198665.geojson,localadmin,85683095,figov,,,FI
"20.8120814968,61.1381352141,21.9459419575,61.352649806",uuuu,85633143,uuuu,f2f827c7ee4250f69927eb703a3e4bd1,,d3b1d827710c56766fdc073916300814,61.260836,21.470857,907198669,uuuu,FI,FI,1582312053,61.217691,21.715519,0,Eurajoki,1159321565,907/198/669/907198669.geojson,localadmin,85683095,figov,,,FI
"21.4809147797,60.7384624874,22.1284673345,61.0341822643",uuuu,85633143,uuuu,9040a22eda0963ac524cf60e024fa4e9,,0addff890eb9f3d92cd6852732f968a7,60.894397,21.773859,907198671,uuuu,FI,FI,1582312065,60.901338,21.795965,0,Laitila,1159321637,907/198/671/907198671.geojson,localadmin,85683073,figov,,,FI
"20.771455478,60.8708781471,21.6661380697,61.1334795868",uuuu,85633143,uuuu,1ab735730803c401b3a3da43cb2bac3f,,798539e633fb4966d532cf089eb58624,61.029516,21.323215,907198675,uuuu,FI,FI,1582312049,61.054585,21.31654,0,Pyharanta,1159321637,907/198/675/907198675.geojson,localadmin,85683073,figov,,,FI
"25.6596491478,60.5487405276,26.0147786155,60.735870732",uuuu,85633143,uuuu,13cdb0878173054ee67519a342e512b2,,dc28f7f813804e07efeb15cffa5ea770,60.642082,25.842071,907198681,uuuu,FI,FI,1582312049,60.640889,25.839379,0,Myrskyla,1159321593,907/198/681/907198681.geojson,localadmin,85683067,figov,,,FI
"26.7411326172,60.2002014786,27.4664491387,60.6755818444",uuuu,85633143,uuuu,0bd720ceaf3ccb1bd0af19b526068de6,,793b69be4cc8c53b6060799001e52714,60.380818,27.035796,907198683,uuuu,FI,FI,1582312067,60.342293,27.000064,0,Kotka,1159321573,907/198/683/907198683.geojson,localadmin,85683081,figov,,,FI
"25.8011015575,61.070917716,26.5136626338,61.425830871",uuuu,85633143,uuuu,89113b2e810c2b0837eccfa17a1f0066,,5ad30eea2f950fa7894601ca1e5acc24,61.257922,26.132695,907198689,uuuu,FI,FI,1582312052,61.267539,26.194945,0,Heinola,1159321483,907/198/689/907198689.geojson,localadmin,85683091,figov,,,FI
"25.1997539213,61.0962904429,25.9273278362,61.364627985",uuuu,85633143,uuuu,c1f736daee04107359acd68ceb91c5e1,,bae21c35d7e5dc72ba0e560d2a2c3d4d,61.21159,25.587163,907198691,uuuu,FI,FI,1582312069,61.226785,25.623477,0,Asikkala,1159321483,907/198/691/907198691.geojson,localadmin,85683091,figov,,,FI
"25.4970411192,61.6735905757,25.9212754088,61.8923225746",uuuu,85633143,uuuu,e508a10150c19d9af074d40c5598d6fa,,e9116abecafdf54213185b9a72d6bfb5,61.781215,25.69593,907198699,uuuu,FI,FI,1582312068,61.784249,25.695924,0,Luhanka,1159321619,907/198/699/907198699.geojson,localadmin,85683117,figov,,,FI
"25.4374271246,61.3106213166,26.1877349566,61.718380652",uuuu,85633143,uuuu,7afbdaaeb28331091d1e70ea62ae8b2c,,857b5d05860d82a49a3a8aaee8ab9114,61.498464,25.721742,907198701,uuuu,FI,FI,1582312045,61.511959,25.68434,0,Sysma,1159321483,907/198/701/907198701.geojson,localadmin,85683091,figov,,,FI
"21.71324759,61.2919110784,22.1661258715,61.420976109",uuuu,85633143,uuuu,e6f5ce12b0e7e9f0482d0a31460535a1,,d3684c586b1412cb53a672379267a5ac,61.359192,21.948573,907198705,uuuu,FI,FI,1582312059,61.348808,21.945169,0,Nakkila,1159321565,907/198/705/907198705.geojson,localadmin,85683095,figov,,,FI
"24.0082628767,60.0224955653,24.3617682425,60.2946454689",uuuu,85633143,uuuu,f247b6076fc30d232e3777e4ce5a8447,,5fd8ee02d5ce1bdcc85171870b60035b,60.169033,24.220675,907198709,uuuu,FI,FI,1582312048,60.18775,24.223276,0,Siuntio,1159321633,907/198/709/907198709.geojson,localadmin,85683067,figov,,,FI
"24.8554903367,61.2399650556,25.5451589633,61.4869061838",uuuu,85633143,uuuu,eb9875f806a2b00b1ade8e363a52dc47,,03f381a01767d2f776a25240bc693729,61.36818,25.199747,907198715,uuuu,FI,FI,1582312057,61.359149,25.205102,0,Padasjoki,1159321483,907/198/715/907198715.geojson,localadmin,85683091,figov,,,FI
"27.3565695032,60.3449234341,27.8887419057,60.6608501248",uuuu,85633143,uuuu,bec7884d2bf687bd9177f75cd8b93591,,648dc0cb6a912de7e1563cfafb8e186e,60.528208,27.607369,907198719,uuuu,FI,FI,1582312074,60.520638,27.611431,0,Virolahti,1159321573,907/198/719/907198719.geojson,localadmin,85683081,figov,,,FI
"26.3158160667,61.1513019339,27.387824736,61.6036579599",uuuu,85633143,uuuu,2dfbe8befb4e3f00423f21d00785d5e6,,9933f5a7f58e054df476f4b98a913331,61.347456,26.875602,907198721,uuuu,FI,FI,1582312074,61.396926,26.738301,0,Mantyharju,1159321539,907/198/721/907198721.geojson,localadmin,85683109,figov,,,FI
"29.4072677793,61.7220728045,30.4830867015,62.2577529851",uuuu,85633143,uuuu,d6ec0fa67a7728646c67e01904ac943a,,575c7e93cd12173ca89c15206168d2c9,62.028971,29.919394,907198727,uuuu,FI,FI,1582312078,61.987709,29.866515,0,Kitee,1159321517,907/198/727/907198727.geojson,localadmin,85683133,figov,,,FI
"23.2207491576,61.1995966763,23.7371325668,61.3968254877",uuuu,85633143,uuuu,4bf4fc430166f7f67ecc207827d88ef3,,d20294ff96b6f03a06cd2c8f74ce4da5,61.284347,23.485718,907198735,uuuu,FI,FI,1582312060,61.27467,23.48569,0,Vesilahti,1159321521,907/198/735/907198735.geojson,localadmin,85683099,figov,,,FI
"27.4218373213,60.6010813845,27.9912828113,60.8426400374",uuuu,85633143,uuuu,1b0bd5b686ed90d1b4d798963a3b6033,,522e3f79c5b6ec7c9e68a604bef7c52a,60.709963,27.661706,907198737,uuuu,FI,FI,1582312046,60.71603,27.666036,0,Miehikkala,1159321573,907/198/737/907198737.geojson,localadmin,85683081,figov,,,FI
"25.770850203,61.392893831,26.3480821695,61.8014078798",uuuu,85633143,uuuu,d5f510b886f715c792cf5cd50dac87f9,,601a7b32dde8ae924dd9342731ee2783,61.584984,26.04912,907198739,uuuu,FI,FI,1582312045,61.573829,26.044624,0,Hartola,1159321483,907/198/739/907198739.geojson,localadmin,85683091,figov,,,FI
"26.2348832017,61.3398318282,26.6557458662,61.6578052536",uuuu,85633143,uuuu,9e28156976e81612eec352338134be76,,85364f96795160afca9520da262b477d,61.499622,26.43631,907198743,uuuu,FI,FI,1582312072,61.508156,26.45694,0,Pertunmaa,1159321539,907/198/743/907198743.geojson,localadmin,85683109,figov,,,FI
"25.8439301437,61.6084494151,26.5337514675,62.0432189989",uuuu,85633143,uuuu,90aff8c29940fd95934c76aea842a472,,861ace2184dfe9688468b378d7a2e868,61.829406,26.189024,907198751,uuuu,FI,FI,1582312060,61.823822,26.184344,0,Joutsa,1159321619,907/198/751/907198751.geojson,localadmin,85683117,figov,,,FI
"26.3671813048,61.5034263865,27.0247970111,61.8659238501",uuuu,85633143,uuuu,04fe94707e1ea4b354f386fceeb893fe,,3ee02c3d149ee7985f95828801120fd5,61.694069,26.724501,907198755,uuuu,FI,FI,1582312044,61.700843,26.746994,0,Hirvensalmi,1159321539,907/198/755/907198755.geojson,localadmin,85683109,figov,,,FI
"27.6743989717,61.3503928996,28.8178658839,61.7169412101",uuuu,85633143,uuuu,e2c93864f518b455c37a156a29a1982d,,9561cc7df95e16b2870d9f45c3410731,61.51077,28.193846,907198757,uuuu,FI,FI,1582312062,61.530635,28.23292,0,Puumala,1159321539,907/198/757/907198757.geojson,localadmin,85683109,figov,,,FI
"27.1766944494,61.0176916813,27.9311609187,61.3620783985",uuuu,85633143,uuuu,ebb636f94452fa8e97a6047b61253467,,8abc52b5fc4afd531410e46aecb106e1,61.184181,27.564346,907198759,uuuu,FI,FI,1582312063,61.141941,27.532989,0,Savitaipale,1159321547,907/198/759/907198759.geojson,localadmin,85683103,figov,,,FI
"27.3712277307,61.5455955333,28.2277848582,62.0652775286",uuuu,85633143,uuuu,206bf3e2a0bd57dec44cccbe6ad73823,,608c47589fb44db198ec8aa37aac44dc,61.840826,27.809106,907198761,uuuu,FI,FI,1582312063,61.840639,27.808668,0,Juva,1159321615,907/198/761/907198761.geojson,localadmin,85683109,figov,,,FI
"26.827167,61.208955,27.900382,62.199156",uuuu,85633143,uuuu,dcaa82c7bad718cc180d7fe9e313a06a,,dc104a65939a7fe85b358385c72909a5,61.676897,27.307015,907198765,uuuu,FI,FI,1636494395,61.635505,27.298839,0,Mikkeli,1159321539,907/198/765/907198765.geojson,localadmin,85683109,figov,,,FI
"26.2207225444,61.788659388,27.1291678286,62.3077263526",uuuu,85633143,uuuu,48c6c3f943c74085c4850580b5485d05,,a335f73db7d61561a31cedfb2cdf15aa,62.033294,26.622181,907198773,uuuu,FI,FI,1582312075,62.035682,26.615319,0,Kangasniemi,1159321539,907/198/773/907198773.geojson,localadmin,85683109,figov,,,FI
"27.7474940403,61.0615933163,28.4091930902,61.379686546",uuuu,85633143,uuuu,a8bb94456881262c5696ef1457c6ebb9,,c405792ed4aca50ba673282d9d70c3f4,61.232836,28.091962,907198779,uuuu,FI,FI,1582312058,61.234771,28.085872,0,Taipalsaari,1159321547,907/198/779/907198779.geojson,localadmin,85683103,figov,,,FI
"28.088783276,61.5273051997,28.9560501795,61.9453100775",uuuu,85633143,uuuu,9adfd2438511dab09a105aa56cb441e9,,9a69178a245c380027300dd69d21f957,61.745833,28.424238,907198787,uuuu,FI,FI,1582312076,61.801226,28.315872,0,Sulkava,1159321493,907/198/787/907198787.geojson,localadmin,85683109,figov,,,FI
"28.2521979392,61.188489459,29.2615705592,61.560064411",uuuu,85633143,uuuu,8dd48051a9519d30b559caa799769ffb,,7ec838b2290257151b46418eb760e42b,61.37907,28.756589,907198791,uuuu,FI,FI,1582312046,61.36262,28.748838,0,Ruokolahti,1159321507,907/198/791/907198791.geojson,localadmin,85683103,figov,,,FI
"20.829158418,61.6999238661,21.7521075293,62.0245911947",uuuu,85633143,uuuu,b06dfc4864548a348041bc217280f112,,27bfe528dff8f208dbe9812464bfa549,61.851673,21.313972,907198797,uuuu,FI,FI,1582312043,61.838906,21.322604,0,Merikarvia,1159321565,907/198/797/907198797.geojson,localadmin,85683095,figov,,,FI
"24.7838908293,61.4507025035,25.5352209606,61.7869493695",uuuu,85633143,uuuu,57ed32f06b935c1c5285e09de7e906e7,,058ac0f95bc7de8abd32832fd0c68f54,61.61191,25.182457,907198799,uuuu,FI,FI,1582312043,61.604186,25.189661,0,Kuhmoinen,1159321587,907/198/799/907198799.geojson,localadmin,85683117,figov,,,FI
"29.0192386493,61.2104348386,29.4487879823,61.5202133713",uuuu,85633143,uuuu,79487b0a400431c639c160538319d86c,,d4d9c68b30590b7605edf87446131417,61.375439,29.213387,907198805,uuuu,FI,FI,1582312056,61.366304,29.216622,0,Rautjarvi,1159321507,907/198/805/907198805.geojson,localadmin,85683103,figov,,,FI
"21.6789743619,61.7465368398,22.175435158,62.0158624702",uuuu,85633143,uuuu,2adc9eab6a611bb420419ae31f45a68d,,bdda03d167b67dcc632af2be9b2db740,61.867761,21.89384,907198809,uuuu,FI,FI,1582312069,61.878008,21.889179,0,Siikainen,1159321519,907/198/809/907198809.geojson,localadmin,85683095,figov,,,FI
"25.7679891073,61.9965963759,26.3316735247,62.2358638766",uuuu,85633143,uuuu,204326403ae32be478926cf8d91604da,,0fb82709ec338aed5b2a53c9838b3904,62.109791,26.074815,907198813,uuuu,FI,FI,1582312067,62.112368,26.117277,0,Toivakka,1159321625,907/198/813/907198813.geojson,localadmin,85683117,figov,,,FI
"26.1957035334,62.1928380325,26.7803033873,62.5781539963",uuuu,85633143,uuuu,2523211527709f9b9a195d1a8524c3b5,,8bb262151c45dc7b842248ed0cddc122,62.379426,26.452491,907198817,uuuu,FI,FI,1582312052,62.38256,26.447937,0,Hankasalmi,1159321625,907/198/817/907198817.geojson,localadmin,85683117,figov,,,FI
"21.7280521227,61.6150117236,22.3826773953,61.782659356",uuuu,85633143,uuuu,82b4aeeb51d03b005bcf8d20d6e4c240,,a3337d4bb58dce07ce2f33993fb6cb02,61.704619,22.049385,907198823,uuuu,FI,FI,1582312065,61.701486,22.098978,0,Pomarkku,1159321565,907/198/823/907198823.geojson,localadmin,85683095,figov,,,FI
"20.728120034,61.9216684732,21.7662068865,62.4242987384",uuuu,85633143,uuuu,a5825f8e6792bffd76e8db957bef2fcb,,ea64a7cabee30d25558caa86a462582b,62.132268,21.247851,907198827,uuuu,FI,FI,1582312049,62.107218,21.255646,0,Kristiinankaupunki,1159321495,907/198/827/907198827.geojson,localadmin,85683119,figov,,,FI
"23.1953659522,60.8703644275,23.5025598598,61.0208919483",uuuu,85633143,uuuu,ab42a760a5ffc823a6c9a7e21d91f0ed,,0370dacfbf9ee637808b7dd21d8d2860,60.944296,23.350126,907198829,uuuu,FI,FI,1582312050,60.928549,23.360582,0,Humppila,1159321511,907/198/829/907198829.geojson,localadmin,85683077,figov,,1125373085,FI
"23.1356381342,60.7110753932,23.408623999,60.8924290861",uuuu,85633143,uuuu,575195f74792d7ee920a365ecfcf86c3,,5ce2b50eb6fecf598fb92ae9b437d881,60.804345,23.26748,907198833,uuuu,FI,FI,1582312055,60.794862,23.283667,0,Ypaja,1159321511,907/198/833/907198833.geojson,localadmin,85683077,figov,,,FI
"22.915072796,61.0012198067,23.3833601625,61.2237346214",uuuu,85633143,uuuu,66af179df5dbce32c8b9de985fb4f498,,9aaff3fe7f2e7de352d34e56201723e3,61.115973,23.128044,907198835,uuuu,FI,FI,1582312053,61.117191,23.128003,0,Punkalaidun,1159321613,907/198/835/907198835.geojson,localadmin,85683099,figov,,,FI
"23.2272982231,60.9397547986,23.8785160954,61.2399725421",uuuu,85633143,uuuu,6d6034ac700fb689a35f78e7cd022214,,2f9b5973f7b294c4f9886fe7feace4e3,61.081543,23.49539,907198841,uuuu,FI,FI,1582312064,61.077963,23.463478,0,Urjala,1159321621,907/198/841/907198841.geojson,localadmin,85683099,figov,,,FI
"26.826603556,62.4423412017,27.5394847873,62.8499457843",uuuu,85633143,uuuu,554f510799f5c7b3adad6f326b88fff2,,02e8404d399b55879dffd9d5bd4d2e87,62.619782,27.155351,907198847,uuuu,FI,FI,1582312066,62.617248,27.155103,0,Suonenjoki,1159321623,907/198/847/907198847.geojson,localadmin,85683131,figov,,,FI
"29.2364229703,61.4244737745,30.143955961,61.8643164367",uuuu,85633143,uuuu,a6efed1858eb7f0fc089ee5fa6918b27,,f77a7809a2b95b81334d7bceefbad8f9,61.638532,29.633359,907198853,uuuu,FI,FI,1582312069,61.624783,29.62675,0,Parikkala,1159321507,907/198/853/907198853.geojson,localadmin,85683103,figov,,,FI
"28.6327064259,62.570167479,29.3039567621,62.8484795068",uuuu,85633143,uuuu,fef56dd2bc6f3567b5c170ea6f12be47,,6d48e05395b21de85cb8fe0dc2f3b321,62.721838,28.953471,907198859,uuuu,FI,FI,1582312053,62.688012,28.902672,0,Outokumpu,1159321551,907/198/859/907198859.geojson,localadmin,85683133,figov,,,FI
"28.9413357096,62.3597484209,29.7633226755,62.7223470469",uuuu,85633143,uuuu,cf0a36290564b65bce2fcceadde0ac61,,b1cca8d3376340e580d5b49c110f7d49,62.542094,29.3828,907198863,uuuu,FI,FI,1582312071,62.539247,29.382861,0,Liperi,1159321551,907/198/863/907198863.geojson,localadmin,85683133,figov,,,FI
"28.3702149,61.5336979001,29.6968261,62.4177571",uuuu,85633143,uuuu,05a1937ba560493ef22962503ebc463a,,edc8d3539af8919d0b6fe933a385134c,61.915397,29.086844,907198867,uuuu,FI,FI,1639612739,61.776643,29.055924,0,Savonlinna,1159321493,907/198/867/907198867.geojson,localadmin,85683109,figov,,,FI
"21.6254593122,61.9797595844,22.1987142844,62.2975108862",uuuu,85633143,uuuu,414db24983fc10370868b25d91ac9325,,1cbebda1d39c5b164af4d53897f4ed00,62.117954,21.901995,907198871,uuuu,FI,FI,1582312066,62.120176,21.896535,0,Isojoki,1159321543,907/198/871/907198871.geojson,localadmin,85683113,figov,,,FI
"21.9746863706,61.8960962595,22.4498474855,62.1424481067",uuuu,85633143,uuuu,ec735644c9216aeef64aac03f008d2ed,,d14eb6dab5ccb45f487fe9d4c87f9dc9,62.012649,22.223565,907198873,uuuu,FI,FI,1582312051,62.005461,22.207485,0,Honkajoki,1159321519,907/198/873/907198873.geojson,localadmin,85683095,figov,,,FI
"27.493724566,61.9877591306,28.0920590657,62.3747594761",uuuu,85633143,uuuu,e23ce90191f695061b42b3cf604bdaf8,,a4dbde1aad173fd4cf93159ee3b95001,62.172862,27.787102,907198879,uuuu,FI,FI,1582312064,62.153569,27.782425,0,Joroinen,1159321615,907/198/879/907198879.geojson,localadmin,85683109,figov,,,FI
"27.8613216993,61.9138453565,28.7393142318,62.2454760307",uuuu,85633143,uuuu,cba6099b7634b404dccebb9ef4b445af,,6cca1bcd5cdaf8aad740f5fcc6438737,62.059492,28.288443,907198885,uuuu,FI,FI,1582312066,62.06045,28.295411,0,Rantasalmi,1159321493,907/198/885/907198885.geojson,localadmin,85683109,figov,,,FI
"27.7104399779,60.6666580609,28.776648522,61.2846869295",uuuu,85633143,uuuu,58addaaf1927de6c030692584e14de5b,,dd1667cee410d9206b5775f8e3128c44,60.980459,28.261483,907198887,uuuu,FI,FI,1582312050,60.96719,28.25356,0,Lappeenranta,1159321547,907/198/887/907198887.geojson,localadmin,85683103,figov,,,FI
"29.2959653346,62.146116799,30.0352044906,62.4074390525",uuuu,85633143,uuuu,721dcb99c8f7442dd327538ca8bd3b4c,,0e3d55c3efb3c5abe351e3040f891557,62.296108,29.673645,907198891,uuuu,FI,FI,1582312069,62.281065,29.710633,0,Raakkyla,1159321517,907/198/891/907198891.geojson,localadmin,85683133,figov,,,FI
"26.446560233,62.4239986534,27.0101423193,62.849158717",uuuu,85633143,uuuu,cafe165f4116fd8f4fd66b93a598b262,,183b452b2a32429565ebef42c9a349aa,62.642909,26.716185,907198897,uuuu,FI,FI,1582312072,62.667046,26.719954,0,Rautalampi,1159321623,907/198/897/907198897.geojson,localadmin,85683131,figov,,,FI
"27.4067629758,62.2846033967,28.545461557,62.7058392858",uuuu,85633143,uuuu,663ef91773c93dc44590bed093ce8938,,91bbb1f54496b73d713bde9b6c7a44c3,62.517788,27.926459,907198899,uuuu,FI,FI,1582312070,62.528926,27.926534,0,Leppavirta,1159321629,907/198/899/907198899.geojson,localadmin,85683131,figov,,,FI
"21.8029888969,61.3845954397,22.4341601321,61.5732505081",uuuu,85633143,uuuu,93ea8eeba0b9eff2b412dfa031c88243,,ddc1f3fb7e480bbfb8371a8937a510ae,61.481685,22.113619,907198905,uuuu,FI,FI,1582312062,61.494832,22.107705,0,Ulvila,1159321565,907/198/905/907198905.geojson,localadmin,85683095,figov,,,FI
"21.770638867,60.5576460563,22.4150036643,60.9042053838",uuuu,85633143,uuuu,025c0abe347a43ff383210ba8ec5fe0e,,1199613c80bab4d6d2bd3e3476d0211f,60.740102,22.026144,907198907,uuuu,FI,FI,1582312043,60.756592,22.021205,0,Mynamaki,1159321603,907/198/907/907198907.geojson,localadmin,85683073,figov,,,FI
"22.066137,60.333516,22.458163,60.737293",uuuu,85633143,uuuu,837290dddf60208a2ef1373d6a881b09,,d3a166de3dea63fa33c00cffe3b8ffc1,60.470951,22.264367,907198909,uuuu,FI,FI,1617130925,60.398438,22.185785,0,Turku,1159321603,907/198/909/907198909.geojson,localadmin,85683073,figov,,,FI
"21.5058703402,60.2600004045,22.1078421809,60.5636739857",uuuu,85633143,uuuu,6ad8db8dba1b0b3fce681f9b2f28633d,,0c04e57381a6d5ed29fa6d21f2bc724d,60.402822,21.828496,907198913,uuuu,FI,FI,1582312058,60.406027,21.873892,0,Naantali,1159321603,907/198/913/907198913.geojson,localadmin,85683073,figov,,,FI
"21.8440945905,60.8720057423,22.2636319124,61.3087891267",uuuu,85633143,uuuu,18b5eacc8fb0f8fa45ba1425f9a79a87,,58771aff80b4294ea7a03522b8dd77a8,61.090133,22.069049,907198915,uuuu,FI,FI,1582312056,61.123042,22.121295,0,Eura,1159321607,907/198/915/907198915.geojson,localadmin,85683095,figov,,,FI
"21.7773100415,60.4795634891,22.4150036643,60.7372929019",uuuu,85633143,uuuu,4f53745998a15ef0eb6857812b5b658e,,9b5d2d01501285769be28f9c34aa2a59,60.55834,22.005554,907198919,uuuu,FI,FI,1582312076,60.547563,21.955255,0,Masku,1159321603,907/198/919/907198919.geojson,localadmin,85683073,figov,,,FI
"22.1603136299,60.6267482366,22.9422832123,60.9558288562",uuuu,85633143,uuuu,86e02db2d7b956f80fc1af9f02a8bb75,,5e04de318bc30cbc101359cf012edebb,60.787692,22.547637,907198921,uuuu,FI,FI,1582312077,60.767496,22.541803,0,Poytya,1159321505,907/198/921/907198921.geojson,localadmin,85683073,figov,,,FI
"22.5224658612,60.8132460768,22.8169714932,60.9901992239",uuuu,85633143,uuuu,d5f57b3640a68c73a819d0211dcd34e5,,5aa0b34816672b2fa3d23f573d41b1ba,60.881223,22.670455,907198923,uuuu,FI,FI,1582312057,60.867514,22.682008,0,Oripaa,1159321505,907/198/923/907198923.geojson,localadmin,85683073,figov,,,FI
"22.141903593,60.9160125279,22.7015445018,61.2519406251",uuuu,85633143,uuuu,ecf30c82e5bd8d4bb17956b389a1bad4,,1cd7d4a14649ec05e56b1136fbc3e5d1,61.065828,22.381133,907198925,uuuu,FI,FI,1582312058,61.064074,22.381224,0,Sakyla,1159321607,907/198/925/907198925.geojson,localadmin,85683095,figov,,,FI
"22.003643392,61.2651153212,22.2720240266,61.4319682172",uuuu,85633143,uuuu,d3d2ee7e7174f6c6311afdf329f30bb3,,2b113eeb3847eb76b78f7cd8a825baeb,61.336292,22.146344,907198927,uuuu,FI,FI,1582312074,61.349858,22.170765,0,Harjavalta,1159321565,907/198/927/907198927.geojson,localadmin,85683095,figov,,,FI
"22.4803413545,60.9825861877,23.0062343098,61.3020128131",uuuu,85633143,uuuu,71e2dafb0acf730fa54e7e575e097ee1,,f758f4dc8ef08f9e58a8e7db4caabf4c,61.132228,22.724183,907198933,uuuu,FI,FI,1582312063,61.116899,22.698165,0,Huittinen,1159321565,907/198/933/907198933.geojson,localadmin,85683095,figov,,,FI
"22.1141121801,61.1706232585,22.6099699189,61.488922542",uuuu,85633143,uuuu,57c140be191987a6efe41569bb10233f,,c8c1756392f4aa342b0d14bfed1577f3,61.318326,22.396079,907198937,uuuu,FI,FI,1582312048,61.322602,22.399742,0,Kokemaki,1159321565,907/198/937/907198937.geojson,localadmin,85683095,figov,,,FI
"22.4398455292,60.2100594187,22.8804460883,60.3930789269",uuuu,85633143,uuuu,4ea9d5b477ec2d3029b46976328222fb,,5e587b1c4191e720c20384ba9767a2c5,60.299559,22.665577,907198941,uuuu,FI,FI,1582312056,60.30317,22.661396,0,Sauvo,1159321603,907/198/941/907198941.geojson,localadmin,85683073,figov,,,FI
"22.7909832536,59.9952092374,23.7959721227,60.5956768601",uuuu,85633143,uuuu,de32e95c5cffb5bbef33c77736eb9507,,94851143d7baaf6f22e46f6d9e6dac31,60.338561,23.24007,907198943,uuuu,FI,FI,1582312077,60.362868,23.149142,0,Salo,1159321585,907/198/943/907198943.geojson,localadmin,85683073,figov,,,FI
"23.2763346228,60.7397738011,23.5646684937,60.9476177989",uuuu,85633143,uuuu,bd0d633fc23e74929311bb477df66402,,ebbad805f7947945ac228363744b3e5a,60.837094,23.459915,907198951,uuuu,FI,FI,1582312062,60.825409,23.47406,0,Jokioinen,1159321511,907/198/951/907198951.geojson,localadmin,85683077,figov,,,FI
"27.1210694294,60.7953316023,27.9332457558,61.1064860589",uuuu,85633143,uuuu,e00813ce63828b4e2a439fffbcd2676a,,dc2e9605c6694050112072b0e9e94d9b,60.939711,27.528077,907198953,uuuu,FI,FI,1582312045,60.910925,27.527869,0,Luumaki,1159321547,907/198/953/907198953.geojson,localadmin,85683103,figov,,,FI
"21.9239285765,60.5642296263,22.4150036643,60.7474680562",uuuu,85633143,uuuu,3479c11374546a916a3284e870339214,,56adcc2bbd4a8a1b4cccd468fbf8bea1,60.654013,22.165207,907198955,uuuu,FI,FI,1582312049,60.648927,22.150502,0,Nousiainen,1159321603,907/198/955/907198955.geojson,localadmin,85683073,figov,,,FI
"22.0673872822,60.4478646898,22.2494038187,60.53085155",uuuu,85633143,uuuu,94df76c40589afb423f2ab7863ecb716,,0ba441531d505de930573c07bcc88803,60.490791,22.145568,907198957,uuuu,FI,FI,1582312059,60.496969,22.145553,0,Raisio,1159321603,907/198/957/907198957.geojson,localadmin,85683073,figov,,,FI
"27.5727886563,60.9937523697,27.9911687894,61.1697172013",uuuu,85633143,uuuu,abe6a1d8150a3ceb24728b68518312bd,,64ee0f98885852b27d3e7982418df500,61.074174,27.797145,907198959,uuuu,FI,FI,1582312059,61.078381,27.79703,0,Lemi,1159321547,907/198/959/907198959.geojson,localadmin,85683103,figov,,,FI
"22.568686435,60.6988079991,23.2995858448,61.1014353236",uuuu,85633143,uuuu,7d6b3302099a901e0afaa0b216556257,,c49458c5cea079e53b24bb21ee9af228,60.897909,22.96373,907198963,uuuu,FI,FI,1582312048,60.878827,22.958137,0,Loimaa,1159321505,907/198/963/907198963.geojson,localadmin,85683073,figov,,,FI
"26.2353927536,60.5750064462,27.4283596989,61.292578649",uuuu,85633143,uuuu,6499f4101b1a333549d0c3f4e0a694fc,,f7dfa6ef0361cea4cac7eb4935b151f6,60.939816,26.773035,907198969,uuuu,FI,FI,1582312061,60.944357,26.781989,0,Kouvola,1159321557,907/198/969/907198969.geojson,localadmin,85683081,figov,,,FI
"28.6685686665,61.0792549913,29.0219658354,61.2843543063",uuuu,85633143,uuuu,5398c0faabf19e3e189ce9a195047b20,,7a87b56617dda0a4b1e0242cc758a9e2,61.186654,28.839007,907198977,uuuu,FI,FI,1582312056,61.185368,28.838984,0,Imatra,1159321507,907/198/977/907198977.geojson,localadmin,85683103,figov,,,FI
"22.1438372195,60.5037981202,22.4150036643,60.7372929019",uuuu,85633143,uuuu,c2862190919037631417269aeb11118e,,3f8ba09783e5992f0a1a8595baaf4957,60.605047,22.289988,907198981,uuuu,FI,FI,1582312078,60.621789,22.299236,0,Rusko,1159321603,907/198/981/907198981.geojson,localadmin,85683073,figov,,,FI
"20.3101780112,62.8939892965,22.0588536328,63.6289814759",uuuu,85633143,uuuu,aec446c635f6c64345d9eddb58bba3c9,,5c77db178357ef9feebd409a37aa1ab0,63.302382,21.24715,907198985,uuuu,FI,FI,1582312058,63.367386,21.260508,0,Mustasaari,1159321501,907/198/985/907198985.geojson,localadmin,85683119,figov,,,FI
"21.7720610005,62.7515742078,22.2916144905,63.0487646104",uuuu,85633143,uuuu,03c474e01b89ecb88847d6bdd28b5400,,b31acdc3e25584aae2dcaae14c99bf20,62.882143,22.02717,907198989,uuuu,FI,FI,1582312075,62.8801,22.047981,0,Laihia,1159321589,907/198/989/907198989.geojson,localadmin,85683119,figov,,,FI
"22.2742159498,60.3450950055,22.6094302421,60.4980483605",uuuu,85633143,uuuu,6dee83b5ea4887e7200b9b412678d84d,,cbc3daf07d535b4c3121c8df6e09c86e,60.412283,22.465437,907198993,uuuu,FI,FI,1582312060,60.403859,22.481993,0,Kaarina,1159321603,907/198/993/907198993.geojson,localadmin,85683073,figov,,,FI
"23.6565113093,63.7562556751,24.2474522594,64.0919295122",uuuu,85633143,uuuu,656957db5fc496c1b8ce396713bb1138,,9fe96c328aaabf7b0436c2e7f522b0e1,63.925645,23.968318,907198997,uuuu,FI,FI,1582312048,63.933868,24.02168,0,Kannus,1159321609,907/198/997/907198997.geojson,localadmin,85683125,figov,,,FI
"23.1366684553,61.3276095759,23.6131380485,61.5722521079",uuuu,85633143,uuuu,2742d28defc1910465f4653a163d583a,,e1f187dde2bc2347ce4f4082b96550af,61.452595,23.369484,907198999,uuuu,FI,FI,1582312049,61.435292,23.333421,0,Nokia,1159321521,907/198/999/907198999.geojson,localadmin,85683099,figov,,,FI
"22.1501515777,62.5971153476,22.877516374,62.8759060146",uuuu,85633143,uuuu,f690bbd91aaaf02162a64fd3524461e7,,80b7b97fed74afbfa6a3c06d4bf4ecf9,62.729801,22.554156,907199003,uuuu,FI,FI,1582312132,62.729399,22.554181,0,Ilmajoki,1159321561,907/199/003/907199003.geojson,localadmin,85683113,figov,,,FI
"21.6568059508,62.2690057787,23.1445182276,62.8654963924",uuuu,85633143,uuuu,9078209685952e9874dc424bd6062545,,e15aafb7d72794d629bf68ec22a178d9,62.548713,22.466382,907199007,uuuu,FI,FI,1582312104,62.45071,22.787289,0,Kurikka,1159321561,907/199/007/907199007.geojson,localadmin,85683113,figov,,,FI
"22.3532096905,60.447065229,22.8546839606,60.640907194",uuuu,85633143,uuuu,e12974e801d66944ffd7fb0d1fde9e2b,,dcda2a96e2b2ec76cca7fda48f95bc52,60.552536,22.574699,907199011,uuuu,FI,FI,1582312128,60.528205,22.516144,0,Lieto,1159321603,907/199/011/907199011.geojson,localadmin,85683073,figov,,,FI
"26.6619701727,62.0058620948,27.6930796358,62.5300176131",uuuu,85633143,uuuu,14566b302bef1348cdb52cc3097daf43,,d188d1497852714eaa2f22752f1915a2,62.292105,27.202321,907199013,uuuu,FI,FI,1582312097,62.281931,27.315367,0,Pieksamaki,1159321615,907/199/013/907199013.geojson,localadmin,85683109,figov,,,FI
"28.6366549,61.9961239001,29.1323830999,62.2745371",uuuu,85633143,uuuu,93629d3d5efb6ce5719df10efeb0f12b,,935ede11a1aad2c4b830726e328f256b,62.124946,28.889432,907199021,uuuu,FI,FI,1639613287,62.107428,28.927055,0,Enonkoski,1159321493,907/199/021/907199021.geojson,localadmin,85683109,figov,,,FI
"28.1434833889,62.1452960941,29.1838888474,62.6570216811",uuuu,85633143,uuuu,7de363a9932f4f4fb4dc43cfa6d4ddab,,eb4a1a80044347774f9dc8de4c341a75,62.433857,28.721125,907199027,uuuu,FI,FI,1582312125,62.439721,28.682299,0,Heinavesi,1159321493,907/199/027/907199027.geojson,localadmin,85683109,figov,,,FI
"20.3001811247,62.6561838868,21.4129391666,62.9395290302",uuuu,85633143,uuuu,62fb32230b4bb1d8ee9d281a9b7fa2e7,,84495789958684c63a2fba77051e4f8c,62.806283,20.847086,907199033,uuuu,FI,FI,1582312135,62.805105,20.846483,0,Korsnas,1159321501,907/199/033/907199033.geojson,localadmin,85683119,figov,,,FI
"20.6917192805,62.2478014006,21.2723123725,62.3969452402",uuuu,85633143,uuuu,708c01927aa9fa79012a9b225db475cc,,36cdf2b7ea6d336d964c0f02fed4deb4,62.303364,20.993878,907199039,uuuu,FI,FI,1582312109,62.296919,20.99324,0,Kaskinen,1159321495,907/199/039/907199039.geojson,localadmin,85683119,figov,,,FI
"20.1658189049,62.7356640951,21.7851316576,63.2676447036",uuuu,85633143,uuuu,1ece50c1995e454d7994a655ba70d2aa,,bffd96dd0c6ae8010c437f36d614c13d,63.008992,20.916401,907199043,uuuu,FI,FI,1582312129,63.0625,20.658996,0,Maalahti,1159321501,907/199/043/907199043.geojson,localadmin,85683119,figov,,,FI
"21.5994740684,63.2820480483,22.9806989104,63.7599452311",uuuu,85633143,uuuu,eb13bbfd9b61690d37234d0009eda2ed,,c5fd7d5f90ba537bc49d022b522db3e8,63.522532,22.304208,907199045,uuuu,FI,FI,1582312123,63.517713,22.294268,0,Uusikaarlepyy,1159321639,907/199/045/907199045.geojson,localadmin,85683119,figov,,,FI
"22.287877,63.49911,24.49271,64.178969",uuuu,85633143,uuuu,37ea79c87ee361ea201a0c3eb43db8cf,,122959aba41fc03cf5bab28165c1379b,63.905859,23.306553,907199049,uuuu,FI,FI,1636494398,63.929535,23.213868,0,Kokkola,1159321609,907/199/049/907199049.geojson,localadmin,85683125,figov,,,FI
"28.1630932313,62.5800920722,28.7476924575,62.9644440182",uuuu,85633143,uuuu,c3dd531f9b6eb38170d7d485bb97b380,,49b1850c424570f1c48d66580204bc9e,62.777429,28.479543,907199053,uuuu,FI,FI,1582312104,62.787967,28.483995,0,Tuusniemi,1159321579,907/199/053/907199053.geojson,localadmin,85683131,figov,,,FI
"22.4150036643,60.5658761434,22.687587563,60.7372929019",uuuu,85633143,uuuu,39183c03ff784cdc8394e354fdc4a8bb,,856b4fbbb5fc2484c62470df67be218d,60.636566,22.545693,907199059,uuuu,FI,FI,1582312134,60.62435,22.543286,0,Aura,1159321505,907/199/059/907199059.geojson,localadmin,85683073,figov,,1125384229,FI
"23.797652474,61.1019294578,24.2971229313,61.3438249319",uuuu,85633143,uuuu,d3bf184d516a3285558a7efb53954b6e,,a08e7c35eec781acd88f738ad9f87dd2,61.217833,24.056038,907199063,uuuu,FI,FI,1582312107,61.213843,24.039069,0,Valkeakoski,1159321621,907/199/063/907199063.geojson,localadmin,85683099,figov,,,FI
"21.5234890051,62.2127711059,21.9389813363,62.4221991273",uuuu,85633143,uuuu,0d86b353bf94c590ac99de7ca4715301,,d5442ddfb1504434ba1a8240ede8207a,62.325426,21.74102,907199065,uuuu,FI,FI,1582312103,62.319486,21.744142,0,Karijoki,1159321543,907/199/065/907199065.geojson,localadmin,85683113,figov,,,FI
"21.9787385954,63.6104149904,22.8234405936,63.8329906136",uuuu,85633143,uuuu,a60235852c09a22e6a82abedef863353,,f6d64279e8572c098e779ed2d703e606,63.717466,22.393098,907199069,uuuu,FI,FI,1582312137,63.714224,22.386115,0,Pietarsaari,1159321639,907/199/069/907199069.geojson,localadmin,85683119,figov,,,FI
"22.1379090707,62.7911419026,22.6941827088,63.1029833701",uuuu,85633143,uuuu,025e84f9545c6dc620e66c0c2a966ba4,,0bdd1e312d5397a5a53d39b3ceb085a0,62.975597,22.34211,907199075,uuuu,FI,FI,1582312128,62.957165,22.314928,0,Isokyro,1159321589,907/199/075/907199075.geojson,localadmin,85683119,figov,,,FI
"23.9919641296,62.6755518047,24.5195919483,63.0132736314",uuuu,85633143,uuuu,c0bbfcc91218145d56dc30b304c0e028,,d1e53f8f94883e2af6b515972b8df45c,62.840766,24.235977,907199079,uuuu,FI,FI,1582312091,62.870958,24.235428,0,Soini,1159321567,907/199/079/907199079.geojson,localadmin,85683113,figov,,,FI
"24.33590944,62.710430464,25.3024434968,63.0463319953",uuuu,85633143,uuuu,785d3de1f9040581bbc569142edb52cc,,ddd15e198f457de253bdcc3e474260e3,62.885657,24.773272,907199083,uuuu,FI,FI,1582312096,62.901237,24.780618,0,Karstula,1159321515,907/199/083/907199083.geojson,localadmin,85683117,figov,,,FI
"23.8352362231,62.3633263712,24.5843158868,62.7640274943",uuuu,85633143,uuuu,71d5f6b700689fd8f59aeacf59f0dceb,,50b3cece864bf1ea3d5fe85becc7a753,62.574292,24.198926,907199089,uuuu,FI,FI,1582312122,62.590051,24.192956,0,Ahtari,1159321555,907/199/089/907199089.geojson,localadmin,85683113,figov,,,FI
"24.5036392202,62.3158954369,25.2519130863,62.665662886",uuuu,85633143,uuuu,7e44c440ee38e77a0a7bc8edafffba57,,34cfae9e9ae0f1394b74ea5b71bc2559,62.477375,24.862316,907199095,uuuu,FI,FI,1582312133,62.461155,24.893388,0,Multia,1159321499,907/199/095/907199095.geojson,localadmin,85683117,figov,,,FI
"24.5246440053,61.6306526567,25.5962234983,62.2108012362",uuuu,85633143,uuuu,487ed193478a5db54cb0fc36e76d9e6e,,e9ce7723c010901cf875eda0db993f90,61.919639,25.057391,907199101,uuuu,FI,FI,1582312121,61.970777,25.065541,0,Jamsa,1159321587,907/199/101/907199101.geojson,localadmin,85683117,figov,,,FI
"23.4579119636,62.7300826367,24.3573458061,63.1585733352",uuuu,85633143,uuuu,24675064f0598382c293928a9867aeba,,579f2acbaf2f31673c75447a5cd6bf1a,62.96927,23.908881,907199105,uuuu,FI,FI,1582312086,62.934362,23.840478,0,Alajarvi,1159321567,907/199/105/907199105.geojson,localadmin,85683113,figov,,,FI
"24.2155574411,62.9312154236,24.8816579419,63.1574805919",uuuu,85633143,uuuu,aaa3bd1b6e514ca8943271760b6d6c3a,,c8faf129d467b7a747083e51db034d47,63.056277,24.555601,907199107,uuuu,FI,FI,1582312117,63.057013,24.522843,0,Kyyjarvi,1159321515,907/199/107/907199107.geojson,localadmin,85683117,figov,,,FI
"24.052027817,63.1164295097,24.8036026433,63.392232652",uuuu,85633143,uuuu,f02a7cd268e4d5bde745434f7db31d11,,34418580e2a00c7be3176d0bf569ed1c,63.256451,24.460297,907199111,uuuu,FI,FI,1582312111,63.257455,24.460343,0,Perho,1159321595,907/199/111/907199111.geojson,localadmin,85683125,figov,,,FI
"24.3986976492,60.7445692871,24.9929680668,61.0323149164",uuuu,85633143,uuuu,cd3f422ec86304943200addf0f063f87,,5a239abe14734ec688f5ac616cd1c5be,60.891367,24.685736,907199113,uuuu,FI,FI,1582312143,60.90119,24.665808,0,Janakkala,1159321513,907/199/113/907199113.geojson,localadmin,85683077,figov,,,FI
"22.3736883891,61.9981058567,22.8616264353,62.3111035193",uuuu,85633143,uuuu,ade5c3ceeff2c7485d06c5d998effc57,,9cdc10a1456ad0decbfdc160496aba33,62.151589,22.615892,907199119,uuuu,FI,FI,1582312113,62.172045,22.644925,0,Karvia,1159321519,907/199/119/907199119.geojson,localadmin,85683095,figov,,1125385545,FI
"21.868986212,62.1021355962,22.6632539811,62.5508432803",uuuu,85633143,uuuu,267a5ddac102e68103d0613e6f993dda,,f474c7303cd654a572a1d5a335220138,62.340302,22.25746,907199121,uuuu,FI,FI,1582312113,62.338333,22.2515,0,Kauhajoki,1159321543,907/199/121/907199121.geojson,localadmin,85683113,figov,,,FI
"22.5207497582,61.8958701905,23.3661961669,62.2889089402",uuuu,85633143,uuuu,12e15e0fd43daf209331b2343953e595,,ece1f81a4aad37685af86d3c45fdc7b5,62.049788,22.978918,907199125,uuuu,FI,FI,1582312143,62.08677,22.950187,0,Parkano,1159321533,907/199/125/907199125.geojson,localadmin,85683099,figov,,,FI
"22.8240685249,61.5159420124,23.5004825347,61.7372596623",uuuu,85633143,uuuu,aff7db6a9216a2ea81b939af2e3bff73,,0b045248244be480ccb31b6cceb9bd39,61.623524,23.178787,907199131,uuuu,FI,FI,1582312116,61.648927,23.127579,0,Hameenkyro,1159321521,907/199/131/907199131.geojson,localadmin,85683099,figov,,,FI
"25.0818715539,63.2456308117,26.1767119202,63.6122932286",uuuu,85633143,uuuu,3a423e76acf0503f0e70f9862b6cf6b7,,d63c0690dd0456afaeb07cac3fde9f7d,63.409838,25.584149,907199135,uuuu,FI,FI,1582312082,63.393311,25.592424,0,Pihtipudas,1159321515,907/199/135/907199135.geojson,localadmin,85683117,figov,,,FI
"24.7729209672,63.2315597624,25.333469424,63.4671681862",uuuu,85633143,uuuu,6d45e0aaaebdaa924631e00e40a8bc9e,,42f3a7d1c21e1076759de8f10e65f62c,63.333475,25.029321,907199139,uuuu,FI,FI,1582312121,63.345074,25.029327,0,Kinnula,1159321515,907/199/139/907199139.geojson,localadmin,85683117,figov,,,FI
"24.5210329184,63.4580731617,25.3601829359,63.7655798887",uuuu,85633143,uuuu,6deed700c97f1d2ce23e595c73a944ef,,b4622a0edf2bd702a60c1e33bd723620,63.622874,24.978436,907199141,uuuu,FI,FI,1582312140,63.606463,25.027476,0,Reisjarvi,1159321591,907/199/141/907199141.geojson,localadmin,85683143,figov,,,FI
"24.7316112245,63.0078792512,25.3792023846,63.2786542066",uuuu,85633143,uuuu,fa15b70ba1c8a2752082454092a79bde,,0e38c7f31204343f3887028eb2907a05,63.153486,25.053606,907199147,uuuu,FI,FI,1582312144,63.139341,25.027528,0,Kivijarvi,1159321515,907/199/147/907199147.geojson,localadmin,85683117,figov,,,FI
"21.0276273273,62.9594091281,22.2423225711,63.1788539831",uuuu,85633143,uuuu,c9c1c932e348a998dcac195dd825dfb7,,7463308fc897ff269784f911f7ca00d1,63.078746,21.659993,907199149,uuuu,FI,FI,1582312144,63.084086,21.502622,0,Vaasa,1159321501,907/199/149/907199149.geojson,localadmin,85683119,figov,,,FI
"25.3480441826,63.4291308523,26.2919656874,63.9263763852",uuuu,85633143,uuuu,c9ec17e111c37cbf9ef5c2851e69d64b,,3384f0eb60fe15ef23ac349fbb0c915c,63.660319,25.920425,907199151,uuuu,FI,FI,1582312090,63.649712,25.967392,0,Pyhajarvi,1159321591,907/199/151/907199151.geojson,localadmin,85683143,figov,,,FI
"22.9943621714,62.0826650989,23.4240020886,62.3341666993",uuuu,85633143,uuuu,69cb82de03f5b66a655314ef468badfe,,5bbbffdbc31ae3172ea06adb1be39083,62.206706,23.193376,907199155,uuuu,FI,FI,1582312120,62.207443,23.197436,0,Kihnio,1159321533,907/199/155/907199155.geojson,localadmin,85683099,figov,,,FI
"23.1612262313,62.3677505801,23.9993677934,62.8089345388",uuuu,85633143,uuuu,6b90880360de6c60da7a81e11d1769dc,,6650831803e0d5e7635318a8425e2f6d,62.583234,23.599328,907199157,uuuu,FI,FI,1582312086,62.567694,23.673265,0,Alavus,1159321555,907/199/157/907199157.geojson,localadmin,85683113,figov,,,FI
"22.5394019913,63.3473025345,23.3904624548,63.8261377525",uuuu,85633143,uuuu,ddfeb72fe92f711015ace7769808c4f3,,319b2eee0af94a95587e49fb98eeb6fa,63.540416,22.988702,907199161,uuuu,FI,FI,1582312086,63.520304,23.027282,0,Pedersoren kunta,1159321639,907/199/161/907199161.geojson,localadmin,85683119,figov,,,FI
"22.0965031622,63.4730194063,23.4057586753,64.0093819127",uuuu,85633143,uuuu,61ad7af056734bb4f80ed6f2a7f5eb29,,2f33ec4d8d58b9173f8b21d1cfc11e94,63.849281,22.531343,907199167,uuuu,FI,FI,1582312089,63.861147,22.490711,0,Luoto,1159321639,907/199/167/907199167.geojson,localadmin,85683119,figov,,,FI
"23.2067800368,62.0740403498,24.2352696975,62.4943339008",uuuu,85633143,uuuu,31e8744f9370f85af2016d2d5b73d64b,,79a4ad2aad0badb207b7274bb74797b9,62.272565,23.703014,907199171,uuuu,FI,FI,1582312144,62.246328,23.668187,0,Virrat,1159321485,907/199/171/907199171.geojson,localadmin,85683099,figov,,,FI
"24.4085424836,63.3586841161,25.0363155553,63.6532376364",uuuu,85633143,uuuu,8ca9fc1853d47ee153b239d029d1d94a,,1bfa86f8e6441e8cb7e52163899f235d,63.499793,24.697492,907199175,uuuu,FI,FI,1582312112,63.499436,24.697556,0,Lestijarvi,1159321595,907/199/175/907199175.geojson,localadmin,85683125,figov,,,FI
"24.013003209,62.0231917496,25.071853965,62.5296847628",uuuu,85633143,uuuu,2f8a441b9c04b2922d425f338b423951,,f1cd305fd71c701f737682fa4541e877,62.292033,24.536516,907199179,uuuu,FI,FI,1582312142,62.33839,24.456652,0,Keuruu,1159321499,907/199/179/907199179.geojson,localadmin,85683117,figov,,,FI
"23.8901924845,61.3157813274,24.9704799176,61.6271912908",uuuu,85633143,uuuu,eb49ef1d31cfb672a8131dd7377df14f,,a8b494358f894d6f0290082e5b570b39,61.480662,24.315779,907199185,uuuu,FI,FI,1582312144,61.493324,24.127972,0,Kangasala,1159321521,907/199/185/907199185.geojson,localadmin,85683099,figov,,,FI
"24.0791391358,61.2332825958,24.915136182,61.4910067085",uuuu,85633143,uuuu,53a4465baaea153411d753652d2a2399,,45b859e1eee75b869f8d66a34a20d462,61.350925,24.525528,907199187,uuuu,FI,FI,1582312109,61.336582,24.380081,0,Palkane,1159321521,907/199/187/907199187.geojson,localadmin,85683099,figov,,,FI
"25.1247457096,62.3770571907,25.6951507051,62.5569066566",uuuu,85633143,uuuu,619623a620d6230b49559fc1de21144f,,9e9b12feab52c3f06f68f4b338415a99,62.472029,25.411253,907199197,uuuu,FI,FI,1582312120,62.458978,25.43452,0,Uurainen,1159321625,907/199/197/907199197.geojson,localadmin,85683117,figov,,,FI
"25.5791332737,62.1812785182,26.3309635285,62.5835858218",uuuu,85633143,uuuu,433e8ed76c9fe407fd5d93d822202bae,,dc942e35938fb541622a0e706df6a29a,62.391429,26.005924,907199203,uuuu,FI,FI,1582312106,62.422779,26.011587,0,Laukaa,1159321625,907/199/203/907199203.geojson,localadmin,85683117,figov,,,FI
"25.4739744472,62.4804379177,26.2337642557,62.9207753152",uuuu,85633143,uuuu,ca0c8a7a873d710e16e461e8acb1d051,,947d1e43277809d3987a6eee78b70761,62.704483,25.826888,907199205,uuuu,FI,FI,1582312108,62.713392,25.857621,0,Aanekoski,1159321553,907/199/205/907199205.geojson,localadmin,85683117,figov,,,FI
"22.5746262917,60.3643338638,22.8759136788,60.5480505263",uuuu,85633143,uuuu,c721100f57f2402e472d594594afdcce,,9db76307b71484d31b3ee33e3e629eb5,60.453381,22.722265,907199209,uuuu,FI,FI,1582312133,60.460842,22.710094,0,Paimio,1159321603,907/199/209/907199209.geojson,localadmin,85683073,figov,,1125376175,FI
"24.5042385617,62.5208332223,25.6966011188,62.9095599099",uuuu,85633143,uuuu,f433680a986d0b380666d0b7f5f48c85,,0f6fb1a0da768404491dc66803f38a9c,62.702362,25.132313,907199213,uuuu,FI,FI,1582312130,62.709257,25.091621,0,Saarijarvi,1159321515,907/199/213/907199213.geojson,localadmin,85683117,figov,,,FI
"24.9688081356,62.1523621644,25.4890675552,62.4270134071",uuuu,85633143,uuuu,bfffbb502dd547a0214cc622e754649f,,62ea6ecf6a77cb42cac48e1a026a3500,62.290287,25.219935,907199215,uuuu,FI,FI,1582312125,62.290586,25.1939,0,Petajavesi,1159321625,907/199/215/907199215.geojson,localadmin,85683117,figov,,,FI
"24.005962719,60.8574315587,24.6243964589,61.2401163151",uuuu,85633143,uuuu,815522d94713bf31e91bf29359d44d5e,,65d5921963d1de0441738aa67ed29e2a,61.044191,24.286468,907199219,uuuu,FI,FI,1582312098,61.099971,24.33775,0,Hattula,1159321513,907/199/219/907199219.geojson,localadmin,85683077,figov,,,FI
"25.3093176241,62.8683080342,26.3342741338,63.2898306724",uuuu,85633143,uuuu,05e77a8f12bc048792c5e196b0e6b422,,0e67346c037912a949b919410f0a96dd,63.10198,25.821369,907199223,uuuu,FI,FI,1582312127,63.090508,25.811649,0,Viitasaari,1159321515,907/199/223/907199223.geojson,localadmin,85683117,figov,,,FI
"25.0435135925,62.8184639411,25.7074841326,63.0992692231",uuuu,85633143,uuuu,de9208715e344c76e8a67bea12e6be97,,ea9bf58e631837098dec43cffb632250,62.968735,25.340264,907199227,uuuu,FI,FI,1582312090,62.967518,25.335293,0,Kannonkoski,1159321515,907/199/227/907199227.geojson,localadmin,85683117,figov,,,FI
"23.5423,61.427368,24.118517,61.836614",uuuu,85633143,uuuu,7d6de34e88bdad7750ca6876ddc1c21d,,91c5f86abf02b3d3a1fca7fdcdb695f8,61.629284,23.88145,907199231,uuuu,FI,FI,1617131325,61.626087,23.881535,0,Tampere,1159321521,907/199/231/907199231.geojson,localadmin,85683099,figov,,1125364137,FI
"22.5528420943,62.9995617045,23.471768668,63.3989614269",uuuu,85633143,uuuu,1831d963245c02e70e75a80838e2bfde,,0380101d50c43c7ea2274593146cb609,63.196586,23.027307,907199237,uuuu,FI,FI,1582312135,63.198926,23.064518,0,Kauhava,1159321561,907/199/237/907199237.geojson,localadmin,85683113,figov,,1125385543,FI
"22.7841525644,62.7747093778,23.5405399708,63.1062195791",uuuu,85633143,uuuu,f36d56b4a232f35a28eaf0ee153e9114,,e931f3615e9a28fbb4f0e96e74f0dd4a,62.945374,23.149779,907199241,uuuu,FI,FI,1582312123,62.927884,23.186575,0,Lapua,1159321561,907/199/241/907199241.geojson,localadmin,85683113,figov,,,FI
"23.7567567119,60.7539797253,25.26966276,61.3248813271",uuuu,85633143,uuuu,a805d180a947c0d44fd9dfafd69c50b1,,5f3b53f5cb4676e5ce638aae44df2fe6,61.074795,24.57669,907199245,uuuu,FI,FI,1582312094,61.152282,24.702818,0,Hameenlinna,1159321513,907/199/245/907199245.geojson,localadmin,85683077,figov,,,FI
"23.2803136704,62.9790899404,23.8624866055,63.3789428265",uuuu,85633143,uuuu,8d1ae3cd9397ff5ae5d2cd40ad644ee7,,c2a345f77badc8246f7cf6cba8a2fe2c,63.190419,23.597421,907199255,uuuu,FI,FI,1582312137,63.183523,23.591944,0,Lappajarvi,1159321567,907/199/255/907199255.geojson,localadmin,85683113,figov,,,FI
"25.4705999867,62.0635541899,25.7952417668,62.2428266457",uuuu,85633143,uuuu,cd147cc915b49e9dfa3974896315a943,,4aec19149fc6f54a2b0b4e82be2acffc,62.139976,25.618551,907199257,uuuu,FI,FI,1582312102,62.130584,25.629616,0,Muurame,1159321625,907/199/257/907199257.geojson,localadmin,85683117,figov,,,FI
"22.7992140551,60.5108829419,23.1007171877,60.7156797249",uuuu,85633143,uuuu,77b14d5ee739350118998161c5746236,,b6cd3045746e27f78d0296916e25bceb,60.601227,22.934454,907199259,uuuu,FI,FI,1582312103,60.614054,22.932206,0,Marttila,1159321505,907/199/259/907199259.geojson,localadmin,85683073,figov,,,FI
"26.0398377907,62.7470205677,26.6813460204,63.043916156",uuuu,85633143,uuuu,04244a4953a9f8714ccf32c85f62c54b,,f67ea07a4ae8b722f45bf5d1e86cabfb,62.899272,26.385492,907199263,uuuu,FI,FI,1582312137,62.902115,26.417209,0,Vesanto,1159321623,907/199/263/907199263.geojson,localadmin,85683131,figov,,1125385427,FI
"25.2607803487,61.839211429,26.0513462151,62.4287455719",uuuu,85633143,uuuu,55216e564a68dccf311f8731971536ef,,cd5ec45d9c8745f8cef362a174927955,62.131113,25.647388,907199265,uuuu,FI,FI,1582312134,61.966051,25.686058,0,Jyvaskyla,1159321625,907/199/265/907199265.geojson,localadmin,85683117,figov,,,FI
"26.0247973218,62.4785136842,26.5990883818,62.8482029171",uuuu,85633143,uuuu,6fb21170696e37bced10b0fb05a1a5e9,,b1ab53816cad37649229df02e8d3adb8,62.65776,26.310455,907199269,uuuu,FI,FI,1582312107,62.649028,26.329861,0,Konnevesi,1159321553,907/199/269/907199269.geojson,localadmin,85683117,figov,,,FI
"23.6979461321,63.0754853617,24.2344809058,63.308576165",uuuu,85633143,uuuu,a5f9c8a75bc04e04727c87203a478e58,,10088e65000e7a6e0d2d7f3830553206,63.181305,23.941227,907199273,uuuu,FI,FI,1582312091,63.193524,23.938057,0,Vimpeli,1159321567,907/199/273/907199273.geojson,localadmin,85683113,figov,,,FI
"23.208301348,61.5160873678,23.8851107196,62.1650074468",uuuu,85633143,uuuu,3315671f7e94d1f64c848eab22e9f005,,75c1492acbfdebbe4b74218e3e12f86d,61.840659,23.563841,907199275,uuuu,FI,FI,1582312102,61.985568,23.540808,0,Ylojarvi,1159321533,907/199/275/907199275.geojson,localadmin,85683099,figov,,,FI
"26.0705405866,62.9918341173,26.6224568656,63.4433674187",uuuu,85633143,uuuu,f95ef6719a82826f8544154583df8f03,,3ca536dc37933b028447e328a2203eb1,63.19673,26.315587,907199277,uuuu,FI,FI,1582312123,63.177655,26.315512,0,Keitele,1159321601,907/199/277/907199277.geojson,localadmin,85683131,figov,,,FI
"23.5462699129,61.230711751,23.9673094479,61.4323860881",uuuu,85633143,uuuu,a9861dda706d8cd7a7fe624b8b89afcd,,929bee311ed5658a70034c0731f73dfc,61.345567,23.777681,907199279,uuuu,FI,FI,1582312125,61.343815,23.794735,0,Lempaala,1159321521,907/199/279/907199279.geojson,localadmin,85683099,figov,,,FI
"23.4772389001,61.3568479001,23.741848,61.4874581",uuuu,85633143,uuuu,dda711a3edd130eda3727ff9019183ce,,7a9f41984484434c74e620c5f67da4d0,61.433833,23.607029,907199281,uuuu,FI,FI,1639613283,61.440859,23.609085,0,Pirkkala,1159321521,907/199/281/907199281.geojson,localadmin,85683099,figov,,,FI
"23.1961381365,63.2636263504,23.723793044,63.4980466525",uuuu,85633143,uuuu,72fe85574bce939f25f613aec6215734,,99a627f84d31365b45464cd9084fab42,63.384755,23.443019,907199283,uuuu,FI,FI,1582312123,63.383341,23.438037,0,Evijarvi,1159321567,907/199/283/907199283.geojson,localadmin,85683113,figov,,,FI
"22.3026209162,62.3191979472,23.367803168,63.0853649248",uuuu,85633143,uuuu,b78f716896c3395a2912295f64cc85a6,,a71ee47245a1188e54882a2c9c6bacca,62.742064,22.903655,907199285,uuuu,FI,FI,1582312129,62.692972,22.999388,0,Seinajoki,1159321561,907/199/285/907199285.geojson,localadmin,85683113,figov,,,FI
"26.1386397546,63.0420709382,27.148138093,63.5164078507",uuuu,85633143,uuuu,5626f53448d528e4a2357b54ba8c0818,,2b4aa860bf2745f59f90cf4f0b6d1d04,63.286985,26.682794,907199287,uuuu,FI,FI,1582312093,63.248037,26.675583,0,Pielavesi,1159321601,907/199/287/907199287.geojson,localadmin,85683131,figov,,,FI
"23.2712552064,62.6482695452,23.8470488426,62.9197322666",uuuu,85633143,uuuu,a5551178bb3a737076b11bf2284441e4,,994224a4641b8ee30a67a64d04a35a3c,62.783909,23.510931,907199291,uuuu,FI,FI,1582312134,62.789766,23.515279,0,Kuortane,1159321555,907/199/291/907199291.geojson,localadmin,85683113,figov,,,FI
"23.6574123995,63.2581449623,24.1978678066,63.5374273065",uuuu,85633143,uuuu,8b288a1a2afc52877d30ad42767d87a3,,1b100b3dc48f24ee1445599f6091595b,63.399268,23.908133,907199293,uuuu,FI,FI,1582312106,63.39304,23.886276,0,Veteli,1159321595,907/199/293/907199293.geojson,localadmin,85683125,figov,,,FI
"23.6806223578,61.7871609401,24.453073307,62.1820265693",uuuu,85633143,uuuu,6c7ba142b1ed2fe86d677e88710cc7ff,,c03360d73b1a6ff345ef717246e5bfb9,61.969718,24.052573,907199295,uuuu,FI,FI,1582312104,61.956537,24.026218,0,Ruovesi,1159321485,907/199/295/907199295.geojson,localadmin,85683099,figov,,,FI
"22.6794408155,61.6751393066,23.5938752915,61.9844605021",uuuu,85633143,uuuu,2c20f8b4e5adbd95ed3e1b6f01f888aa,,cd147467d5d24b675aa121082ca3760e,61.825278,23.083091,907199297,uuuu,FI,FI,1582312137,61.825181,23.083668,0,Ikaalinen,1159321533,907/199/297/907199297.geojson,localadmin,85683099,figov,,,FI
"22.0348243032,61.6860667421,22.6951533965,62.0117221176",uuuu,85633143,uuuu,ae7a70c348ee5ab23611a863ed76f3d8,,fd83e125a67127ff5d941d9fdf1c895d,61.839604,22.392721,907199299,uuuu,FI,FI,1582312138,61.843191,22.39793,0,Kankaanpaa,1159321519,907/199/299/907199299.geojson,localadmin,85683095,figov,,,FI
"24.0340042707,63.3319184715,24.5548297918,63.5770550531",uuuu,85633143,uuuu,0cb7b1d02c044786983da0da28fa3fbd,,21f180d51ad1f467d11e3e59fbb4f5d4,63.44903,24.281146,907199301,uuuu,FI,FI,1582312088,63.432299,24.260129,0,Halsua,1159321595,907/199/301/907199301.geojson,localadmin,85683125,figov,,,FI
"23.4224071934,63.4829728357,24.0989467874,63.6754369931",uuuu,85633143,uuuu,602108e398bf8a72c26c7b07e9402da2,,55a93aed2ac1741a21fca1698ef178e1,63.584655,23.771196,907199305,uuuu,FI,FI,1582312122,63.592384,23.747076,0,Kaustinen,1159321595,907/199/305/907199305.geojson,localadmin,85683125,figov,,,FI
"23.97537404,63.5660043227,24.6150347642,63.8862213373",uuuu,85633143,uuuu,a03e8fecf9f3a67b563a1dad6c5211af,,f50d31b8ef64b440e6ba1e578f20e582,63.73469,24.293394,907199309,uuuu,FI,FI,1582312083,63.726972,24.325145,0,Toholampi,1159321595,907/199/309/907199309.geojson,localadmin,85683125,figov,,,FI
"28.3859473427,62.7729371134,29.0976021629,63.1367154549",uuuu,85633143,uuuu,374830a54c0f94485425e441a42ed0d9,,3b71eced799cf46734be407cbcc90483,62.970736,28.742179,907199313,uuuu,FI,FI,1582312113,62.989989,28.736812,0,Kaavi,1159321579,907/199/313/907199313.geojson,localadmin,85683131,figov,,,FI
"27.7966065114,63.6688114762,29.2110310565,64.3752309991",uuuu,85633143,uuuu,45394a1a113af910121a8eb389b51cec,,19a3f6078b6630666b4aa5acd3df7a00,64.048119,28.445691,907199319,uuuu,FI,FI,1582312143,64.068241,28.280036,0,Sotkamo,1159321487,907/199/319/907199319.geojson,localadmin,85683137,figov,,,FI
"28.0376855293,63.2038353198,28.7595258033,63.7550021332",uuuu,85633143,uuuu,f58a2d01b0dc22d49ba5d9d24ec40fb1,,865319ebf1527707d06eb74efea99431,63.491167,28.404017,907199323,uuuu,FI,FI,1582312110,63.535958,28.433785,0,Rautavaara,1159321579,907/199/323/907199323.geojson,localadmin,85683131,figov,,,FI
"27.1192711418,63.5024158304,28.1680841041,63.9976275629",uuuu,85633143,uuuu,f128282650cd23323258455caf432334,,664a14bb0f33c85a73ca280249e03e3b,63.737841,27.663224,907199331,uuuu,FI,FI,1582312084,63.710461,27.69881,0,Sonkajarvi,1159321601,907/199/331/907199331.geojson,localadmin,85683131,figov,,,FI
"27.9702834344,62.9410123143,28.7623868144,63.2786786507",uuuu,85633143,uuuu,79fe203b7491fee521df80a66e26c350,,a2f9fbc51163d656d8aa9696fdc1b6c0,63.096159,28.352068,907199339,uuuu,FI,FI,1582312088,63.035822,28.292011,0,Juankoski,1159321597,907/199/339/907199339.geojson,localadmin,85683131,figov,,,FI
"24.1270784148,63.6486583527,24.9687605389,64.0302113839",uuuu,85633143,uuuu,a5e7635c9f323971b18157b165d45658,,3828bb120649a3e9a2626fbeef76941c,63.841627,24.592272,907199347,uuuu,FI,FI,1582312112,63.829297,24.62152,0,Sievi,1159321569,907/199/347/907199347.geojson,localadmin,85683143,figov,,,FI
"26.7940286263,63.299286377,27.667849631,63.6895765559",uuuu,85633143,uuuu,2f4e298b47fcff920af1daaa7f7f2c0d,,6a8c2f251fac4f47dab2047c2e9f5df5,63.52787,27.154878,907199351,uuuu,FI,FI,1582312118,63.526836,27.111914,0,Iisalmi,1159321601,907/199/351/907199351.geojson,localadmin,85683131,figov,,,FI
"26.5593947636,63.6105047229,27.3575792655,64.0369738238",uuuu,85633143,uuuu,6a1b722833ca0800c18e6f9fc82b16f2,,180a596fa6171016ae5f0a12159a978b,63.843863,26.998432,907199359,uuuu,FI,FI,1582312114,63.844981,27.004396,0,Vierema,1159321601,907/199/359/907199359.geojson,localadmin,85683131,figov,,,FI
"26.4857222649,62.7962804221,27.1424426689,63.1316755742",uuuu,85633143,uuuu,f2c408da2deec1542ea4ab3e12805041,,7d0a4466eb9476e969a66221a19a1a3f,62.97169,26.816085,907199369,uuuu,FI,FI,1582312118,62.939451,26.785878,0,Tervo,1159321623,907/199/369/907199369.geojson,localadmin,85683131,figov,,,FI
"27.1190918074,63.1537621578,28.1305196826,63.5501172571",uuuu,85633143,uuuu,e2bfd13777fcd6940e59566d1aff2e4b,,9287e1a99d1ed1feaa73bc73efa4ddbe,63.372543,27.629782,907199373,uuuu,FI,FI,1582312141,63.335405,27.511397,0,Lapinlahti,1159321601,907/199/373/907199373.geojson,localadmin,85683131,figov,,,FI
"24.2274154852,61.7155382395,24.6666512699,61.9284379674",uuuu,85633143,uuuu,8cf4b36259c9769d902e25c6a603e879,,30442c695283ebd20c55314a9a8a901b,61.823992,24.471185,907199385,uuuu,FI,FI,1582312112,61.820122,24.504448,0,Juupajoki,1159321485,907/199/385/907199385.geojson,localadmin,85683099,figov,,,FI
"28.6108041267,62.9684677165,29.7939892563,63.4497155616",uuuu,85633143,uuuu,bf0796169447a517f70ce89b42e52429,,f9c7a9a27819a8a4660e15a6dd5bc1ad,63.20769,29.182188,907199389,uuuu,FI,FI,1582312139,63.226932,29.141567,0,Juuka,1159321551,907/199/389/907199389.geojson,localadmin,85683133,figov,,,FI
"24.0783981945,61.5137419643,24.9169388964,61.8629895063",uuuu,85633143,uuuu,72485f6a27913d112380ef7701e03d89,,ea380e4205c797e7ccbe4d93205a6c90,61.672536,24.468864,907199393,uuuu,FI,FI,1582312120,61.642733,24.455694,0,Orivesi,1159321521,907/199/393/907199393.geojson,localadmin,85683099,figov,,,FI
"28.9309099102,62.6808535659,29.7232547071,63.109573482",uuuu,85633143,uuuu,20584656619bbe7bc557c977185cc1e6,,1e9f3e34b79e5f6e0d841348b9dec8d1,62.893869,29.357917,907199399,uuuu,FI,FI,1582312088,62.892967,29.384911,0,Polvijarvi,1159321551,907/199/399/907199399.geojson,localadmin,85683133,figov,,,FI
"28.3597234212,63.5580892041,29.204865278,63.8824146681",uuuu,85633143,uuuu,22b2da1543296fa9fd859c6e67e73572,,5c7c7013904c7861c88c097f74c9d3fb,63.737356,28.757498,907199405,uuuu,FI,FI,1582312133,63.720822,28.751156,0,Valtimo,1159321575,907/199/405/907199405.geojson,localadmin,85683133,figov,,,FI
"28.6034302311,63.3478502014,29.7756890205,63.8789423238",uuuu,85633143,uuuu,3d8d4f8b62ea0d113ee0881a7c8e043f,,cf80a901d3c9dad07c3d36761b69c00d,63.608009,29.242809,907199409,uuuu,FI,FI,1582312106,63.588807,29.300464,0,Nurmes,1159321575,907/199/409/907199409.geojson,localadmin,85683133,figov,,,FI
"29.9496409095,62.0606603898,30.7891818613,62.4163491666",uuuu,85633143,uuuu,25df0b47f5f82ea3d608fd608d7eeb08,,989654f71f0e516307013d381f30813f,62.255202,30.381995,907199417,uuuu,FI,FI,1582312124,62.223983,30.388226,0,Tohmajarvi,1159321517,907/199/417/907199417.geojson,localadmin,85683133,figov,,,FI
"27.3378822335,62.9518722354,27.9491654667,63.2518373559",uuuu,85633143,uuuu,97d5d1a8e23ea418dddcc6f4b80d2c82,,961480b61e30e29d927ad3e91857cf13,63.08161,27.656502,907199425,uuuu,FI,FI,1582312092,63.076802,27.631005,0,Siilinjarvi,1159321597,907/199/425/907199425.geojson,localadmin,85683131,figov,,,FI
"24.1370822524,64.041751773,24.5895128692,64.3000942244",uuuu,85633143,uuuu,fd4493eab0b92ef39fa1027dd2aeb95a,,cc793b5f630f2469ca8b6ed51d0d8806,64.180744,24.332533,907199429,uuuu,FI,FI,1582312128,64.155104,24.310069,0,Alavieska,1159321569,907/199/429/907199429.geojson,localadmin,85683143,figov,,,FI
"24.0385913074,64.898464247,25.134789951,65.1739415202",uuuu,85633143,uuuu,aca44df9e80aa8d0fb21a3c3c5c73202,,43b928d4ced5c7a40c413628fc23c447,65.047941,24.580362,907199435,uuuu,FI,FI,1582312137,65.040431,24.580362,0,Hailuoto,1159321529,907/199/435/907199435.geojson,localadmin,85683143,figov,,,FI
"24.3039653309,63.942408542,25.0212454599,64.1850173189",uuuu,85633143,uuuu,b2cdf847a97a9130e4532da50707baeb,,572dc1c56b2e8ef73df71f7c63299e92,64.062041,24.645263,907199437,uuuu,FI,FI,1582312103,64.070245,24.641656,0,Ylivieska,1159321569,907/199/437/907199437.geojson,localadmin,85683143,figov,,,FI
"23.4531218734,60.7795278393,23.8393395893,61.0090335316",uuuu,85633143,uuuu,29b5979907cd02be6b862d5e5708b51c,,f221aed72d3d58930f4ca7531f57e514,60.916298,23.638841,907199441,uuuu,FI,FI,1582312098,60.939794,23.652001,0,Forssa,1159321511,907/199/441/907199441.geojson,localadmin,85683077,figov,,,FI
"29.5600432047,62.5662438484,30.288005095,63.0657518427",uuuu,85633143,uuuu,934df47da76597e4086345c02dea9af4,,61eede7ee45145e75c99d3186f6cc834,62.786039,29.873607,907199445,uuuu,FI,FI,1582312130,62.77829,29.848855,0,Kontiolahti,1159321551,907/199/445/907199445.geojson,localadmin,85683133,figov,,,FI
"23.6907025352,64.3128422613,25.4629266514,64.8547767166",uuuu,85633143,uuuu,f8cb8e7bf79dbd84cb35fb13aff906d9,,254734ece960c98eb5a2c407336a71d0,64.60032,24.523181,907199449,uuuu,FI,FI,1582312091,64.640782,24.522678,0,Raahe,1159321631,907/199/449/907199449.geojson,localadmin,85683143,figov,,,FI
"26.7484041834,63.8445700911,28.1580486463,64.365170117",uuuu,85633143,uuuu,8ca27b993eec39d4495183c70c846193,,2942c37791a25aa8b0dae0683200cba2,64.135277,27.433991,907199455,uuuu,FI,FI,1582312106,64.134789,27.539961,0,Kajaani,1159321487,907/199/455/907199455.geojson,localadmin,85683137,figov,,,FI
"24.114926,64.844416,26.771562,65.572621",uuuu,85633143,uuuu,93760b68eb4b99f9d3366b0385f3bcdb,,b2b1c555b41b1d7c95eda3e9c786157a,65.154062,25.755185,907199459,uuuu,FI,FI,1636494399,65.157043,25.781343,0,Oulu,1159321529,907/199/459/907199459.geojson,localadmin,85683143,figov,,,FI
"25.525033984,63.7868750399,26.251386636,64.1106440026",uuuu,85633143,uuuu,b564c4281e149ff5c1776c4ed5f0b2a2,,6387bc70948fddd0e8c65443fb5fadaf,63.960118,25.859749,907199465,uuuu,FI,FI,1582312108,63.965104,25.85962,0,Karsamaki,1159321591,907/199/465/907199465.geojson,localadmin,85683143,figov,,,FI
"24.865170337,63.9216024997,25.8545822684,64.3735391592",uuuu,85633143,uuuu,24285578718afafb2d2962182880f292,,8d9ad2b9d2e23da15dfd38e1b8524144,64.134837,25.361633,907199471,uuuu,FI,FI,1582312090,64.127861,25.392588,0,Haapavesi,1159321571,907/199/471/907199471.geojson,localadmin,85683143,figov,,,FI
"27.1800123029,64.292890609,28.4630593598,64.5816384599",uuuu,85633143,uuuu,71eafa1a0e535b90d2dbe064393c4bef,,fb95afad24826dbff088bf1520af9a39,64.423979,27.726171,907199475,uuuu,FI,FI,1582312127,64.441553,27.725216,0,Paltamo,1159321487,907/199/475/907199475.geojson,localadmin,85683137,figov,,,FI
"25.749989291,64.4790638591,26.7380344694,64.9808555687",uuuu,85633143,uuuu,13393b024f94054d66fed26fab178b49,,a71fac0b1878febcc386e9027c3904ed,64.758494,26.134573,907199477,uuuu,FI,FI,1582312096,64.798349,26.072087,0,Muhos,1159321529,907/199/477/907199477.geojson,localadmin,85683143,figov,,,FI
"25.4256935836,64.842475908,25.7292256443,64.948263722",uuuu,85633143,uuuu,8e447a988ecbb78bf46f9ded94cb8fe8,,640a77695f42c9183421d9aa614d483e,64.898536,25.573408,907199479,uuuu,FI,FI,1582312098,64.892831,25.585613,0,Kempele,1159321529,907/199/479/907199479.geojson,localadmin,85683143,figov,,1125385559,FI
"26.1653831307,63.4316344257,26.9249003278,63.9654810242",uuuu,85633143,uuuu,5af3c8cb25eb30364cf365c62909df4f,,fda3156ac9523a31095760a17a864989,63.681577,26.536472,907199481,uuuu,FI,FI,1582312126,63.68795,26.529327,0,Kiuruvesi,1159321601,907/199/481/907199481.geojson,localadmin,85683131,figov,,,FI
"24.1501612897,65.2924801707,25.9391908927,66.1162389307",uuuu,85633143,uuuu,06799990632c6ba0fbc4e06ec953df17,,e8a1f05d22215f920bdb3914a31e37ba,65.742067,25.155659,907199485,uuuu,FI,FI,1582312091,65.920314,25.515036,0,Simo,1159321559,907/199/485/907199485.geojson,localadmin,85683147,figov,,,FI
"24.2645931231,64.1864531877,24.8362813861,64.3992489366",uuuu,85633143,uuuu,6fa6ad1d5b614f5fbc21890cd6ec4119,,aa5bdd84e248cd2fb6db1709fc7c5582,64.303332,24.507316,907199489,uuuu,FI,FI,1582312130,64.285355,24.477872,0,Merijarvi,1159321569,907/199/489/907199489.geojson,localadmin,85683143,figov,,,FI
"26.0928752394,63.8410354802,26.8704021946,64.2825834355",uuuu,85633143,uuuu,7570f93a4087f2b2dfcb72ea4610d746,,549ea44913687ef4aac6acc4e8e8f1e0,64.07059,26.474155,907199491,uuuu,FI,FI,1582312108,64.069407,26.439567,0,Pyhanta,1159321571,907/199/491/907199491.geojson,localadmin,85683143,figov,,,FI
"25.681004107,65.7006400705,27.4945875611,66.3018936318",uuuu,85633143,uuuu,f3a826275e45afeb1fe15b0d7509b563,,2cbb2a8a33c79302bb095f38379211e8,65.980488,26.616803,907199493,uuuu,FI,FI,1582312132,65.963607,26.616684,0,Ranua,1159321523,907/199/493/907199493.geojson,localadmin,85683147,figov,,,FI
"26.1518532003,65.0871938845,28.1643122064,65.960359611",uuuu,85633143,uuuu,053c127ced607dfe3490c79045bec48f,,d477e69dc505bd336f5c4e7f22d18919,65.448773,27.12877,907199499,uuuu,FI,FI,1582312105,65.435676,27.143765,0,Pudasjarvi,1159321497,907/199/499/907199499.geojson,localadmin,85683143,figov,,,FI
"27.9955822464,64.5662912438,30.1358378793,65.520851551",uuuu,85633143,uuuu,1300fecee93177686e255c0f77fc6b2a,,834e6d358afc339f5777ecf52e775708,65.045497,29.122098,907199501,uuuu,FI,FI,1582312115,65.059194,29.122182,0,Suomussalmi,1159321549,907/199/501/907199501.geojson,localadmin,85683137,figov,,,FI
"27.712540012,65.2503486767,29.2192869777,65.8462075341",uuuu,85633143,uuuu,5a88dad22ee87af322b824c468e98459,,35c715aed45c6bf3b66d59ceea472172,65.560305,28.35243,907199503,uuuu,FI,FI,1582312088,65.546257,28.352669,0,Taivalkoski,1159321489,907/199/503/907199503.geojson,localadmin,85683143,figov,,,FI
"28.7519458238,63.7033563739,30.5535572174,64.6353632002",uuuu,85633143,uuuu,ce0e6e0fd87bb98a57b89057f6ca7fab,,8c61780b695b25f66c4cbe3f6b2eeb60,64.18084,29.672451,907199507,uuuu,FI,FI,1582312120,64.253658,29.672422,0,Kuhmo,1159321549,907/199/507/907199507.geojson,localadmin,85683137,figov,,,FI
"26.1410107943,64.5581921735,27.4053634906,65.1068240886",uuuu,85633143,uuuu,5d457517cd894d97ee67f122ae8f2a84,,92409d9763338a207ff6738116d409c8,64.861881,26.822893,907199509,uuuu,FI,FI,1582312121,64.931465,26.930946,0,Utajarvi,1159321497,907/199/509/907199509.geojson,localadmin,85683143,figov,,,FI
"27.1184424542,64.5025925189,28.2943013488,65.2227587437",uuuu,85633143,uuuu,5fa5b8ad0718175ac1e14dde72e804cb,,acf62b4f3aec30101a009418845c94c0,64.8565,27.744056,907199513,uuuu,FI,FI,1582312140,64.824916,27.703885,0,Puolanka,1159321549,907/199/513/907199513.geojson,localadmin,85683137,figov,,,FI
"24.5310227341,64.1094508241,25.2629849953,64.4060989245",uuuu,85633143,uuuu,892baea16f2295c8f49f63137e5c292d,,5dbf2cf108b4adfa392ebd30c61dd095,64.255445,24.876091,907199517,uuuu,FI,FI,1582312109,64.267959,24.876242,0,Oulainen,1159321569,907/199/517/907199517.geojson,localadmin,85683143,figov,,,FI
"28.3682465782,65.4879703726,30.1384632061,66.4858532328",uuuu,85633143,uuuu,431ac842952ea5e41fccabac3a9a520f,,f086e2d659323f3ce420c3a3eb638a71,65.971529,29.27459,907199519,uuuu,FI,FI,1582312110,65.963874,29.257641,0,Kuusamo,1159321489,907/199/519/907199519.geojson,localadmin,85683143,figov,,1125376223,FI
"30.3588647473,62.3849509331,31.5867039408,63.1951331291",uuuu,85633143,uuuu,531f4ee3e1622a27b2d7090035b1215f,,b75287eb919db252bbd5cedc93f23e02,62.836843,30.994998,907199525,uuuu,FI,FI,1582312140,62.821886,31.05481,0,Ilomantsi,1159321551,907/199/525/907199525.geojson,localadmin,85683133,figov,,,FI
"27.8704797513,64.3073447492,28.8598373094,64.6560499267",uuuu,85633143,uuuu,d373cee11776b809cd40b00cc1052cdb,,2d2679c3979db8b1e1d48bf17a0cb92e,64.484894,28.429144,907199527,uuuu,FI,FI,1582312112,64.487743,28.436792,0,Ristijarvi,1159321487,907/199/527/907199527.geojson,localadmin,85683137,figov,,,FI
"28.0476059404,64.449866874,29.4594557551,64.8983749087",uuuu,85633143,uuuu,d82c80e7734756b94ff8fa96c98918d3,,bda778dcd71cdd07a01b099f84ce26ab,64.651104,28.695339,907199531,uuuu,FI,FI,1582312120,64.705874,28.507581,0,Hyrynsalmi,1159321549,907/199/531/907199531.geojson,localadmin,85683137,figov,,,FI
"27.2339350792,65.8005948971,28.768425291,66.4922541636",uuuu,85633143,uuuu,338577ad929f2954da2c2e9a95e70556,,752fe2e152491858f712b7ec3d527c25,66.151453,28.045191,907199533,uuuu,FI,FI,1582312085,66.121573,28.057082,0,Posio,1159321535,907/199/533/907199533.geojson,localadmin,85683147,figov,,,FI
"24.9532597365,64.7342557937,25.3301821924,64.984220288",uuuu,85633143,uuuu,06c9e7e6882b61d4a177b49815c02bb3,,5b430aad1b366931e7a80238b9cbcb69,64.856381,25.126925,907199537,uuuu,FI,FI,1582312114,64.851246,25.124068,0,Lumijoki,1159321529,907/199/537/907199537.geojson,localadmin,85683143,figov,,,FI
"26.4681445885,66.2890676557,28.2724092288,67.043026895",uuuu,85633143,uuuu,3dafa4c7b77045a72b714a49a7eceba0,,b3d9edf562a9b2f635cde57b697b3433,66.687963,27.359282,907199539,uuuu,FI,FI,1582312115,66.671394,27.346133,0,Kemijarvi,1159321535,907/199/539/907199539.geojson,localadmin,85683147,figov,,,FI
"24.4940783311,65.9437903399,26.0673243708,66.337640958",uuuu,85633143,uuuu,b3ff8fc247e9c3b0fb7a9650dab59e51,,1a4622bcbeafa31d7850a584713de868,66.131711,25.088908,907199545,uuuu,FI,FI,1582312113,66.12817,25.034395,0,Tervola,1159321559,907/199/545/907199545.geojson,localadmin,85683147,figov,,,FI
"23.6428776762,66.1652753992,25.0504107406,66.7656401664",uuuu,85633143,uuuu,abe75ae516b22a6fd989636cf68dfcdb,,eff169eac92c0ffe4fc83fa8b8fc5038,66.449863,24.387168,907199549,uuuu,FI,FI,1582312138,66.449099,24.445674,0,Ylitornio,1159321537,907/199/549/907199549.geojson,localadmin,85683147,figov,,,FI
"23.7778819578,66.465421075,24.9880519838,67.014924546",uuuu,85633143,uuuu,eab2712915d15c634ac68c48e82481a3,,f8ddf5a19800fd3a3ac8e42388a746a1,66.778027,24.302412,907199553,uuuu,FI,FI,1582312122,66.77731,24.201748,0,Pello,1159321537,907/199/553/907199553.geojson,localadmin,85683147,figov,,,FI
"27.8814516224,66.408146386,30.0170443393,67.8029592156",uuuu,85633143,uuuu,f22f8d88b2034b798441f1d1869ed815,,139bbca3480174df3b941599d8e041e6,66.996169,28.908713,907199555,uuuu,FI,FI,1582312115,66.83337,28.730471,0,Salla,1159321535,907/199/555/907199555.geojson,localadmin,85683147,figov,,,FI
"23.7535992922,65.6128463991,24.7918246818,66.3322357076",uuuu,85633143,uuuu,6c16d3bbdebac2ec549d326999fe7f08,,76d120197feb450365ecf9fc150ecf95,66.025428,24.283616,907199557,uuuu,FI,FI,1582312087,66.035063,24.290673,0,Tornio,1159321559,907/199/557/907199557.geojson,localadmin,85683147,figov,,,FI
"25.3500173908,66.9429242498,28.6461525992,68.4661903942",uuuu,85633143,uuuu,f2de34ddb26bfd0d3c7e6b4979f89e60,,07350f1db9bbc1d25e77088b57635df4,67.786156,26.91277,907199561,uuuu,FI,FI,1582312087,67.728067,26.613214,0,Sodankyla,1159321531,907/199/561/907199561.geojson,localadmin,85683147,figov,,,FI
"24.0932384339,67.1511886086,26.0078395199,68.3952887555",uuuu,85633143,uuuu,6c5191c58777b1718178a407c4e3a101,,9914ce284d42254e5b6322473e2e55f8,67.81302,25.052014,907199565,uuuu,FI,FI,1582312121,67.779031,25.051799,0,Kittila,1159321583,907/199/565/907199565.geojson,localadmin,85683147,figov,,,FI
"24.9031657818,68.2775716776,29.3364955553,69.8491925837",uuuu,85633143,uuuu,d170720fb5281852cf3fae78339ac662,,eeacc8789ed9ab490f82aa5610932c9f,68.939892,27.234707,907199567,uuuu,FI,FI,1582312084,68.895905,27.234585,0,Inari,1159321531,907/199/567/907199567.geojson,localadmin,85683147,figov,,,FI
"24.4361907334,65.6950372529,25.2267139202,66.0602502585",uuuu,85633143,uuuu,afce959f8e0ccd0c8a4261cc83dd504c,,8e8f509d161b27267fe881b4f8f6e45e,65.875816,24.785299,907199569,uuuu,FI,FI,1582312083,65.848469,24.779916,0,Keminmaa,1159321559,907/199/569/907199569.geojson,localadmin,85683147,figov,,,FI
"26.51797357,66.8859098467,28.3594816791,67.4253208178",uuuu,85633143,uuuu,3161778732397f42c8618dea983f13df,,db71a28779ca07b04ca9d8e17bde6f08,67.142586,27.467406,907199571,uuuu,FI,FI,1582312139,67.191708,27.453248,0,Pelkosenniemi,1159321535,907/199/571/907199571.geojson,localadmin,85683147,figov,,,FI
"25.6927421087,69.1475801004,28.3452695648,70.092293213",uuuu,85633143,uuuu,47bba2d5ff7e89e5a7b97c0026ba9397,,f98adbf5f54e45167e085627afb3c45d,69.659525,26.959449,907199575,uuuu,FI,FI,1582312111,69.655883,26.758904,0,Utsjoki,1159321531,907/199/575/907199575.geojson,localadmin,85683147,figov,,,FI
"27.2220802629,67.1081063508,29.6594052467,68.1963035524",uuuu,85633143,uuuu,55e1aa7d52267cc20b590fbb52158d26,,c096615aa22c1ccff966e296a37a3a67,67.634346,28.531483,907199579,uuuu,FI,FI,1582312143,67.633176,28.550041,0,Savukoski,1159321535,907/199/579/907199579.geojson,localadmin,85683147,figov,,,FI
"23.5401101014,66.9379070585,24.8702589304,67.638818947",uuuu,85633143,uuuu,6c4ea4f0f5aa31673bd0fb90c167ebee,,5764ae173f3926a6fbeaf7ce8adf02ac,67.250858,24.149802,907199583,uuuu,FI,FI,1582312144,67.321534,24.084667,0,Kolari,1159321583,907/199/583/907199583.geojson,localadmin,85683147,figov,,,FI
"23.28676,67.445986,24.301494,68.187295",uuuu,85633143,uuuu,9e9dcd76d965156c9af5dfb0db097692,,7e73061ee6bc98098ecd04062f284c80,67.855475,23.803785,907199587,uuuu,FI,FI,1642551764,67.843382,23.896102,0,Muonio,1159321583,907/199/587/907199587.geojson,localadmin,85683147,figov,,,FI
"24.736849,66.155399,27.32665,67.179768",uuuu,85633143,uuuu,ca51df24aa56b50967011dca2055867e,,003f6b4376f812da966f4a9c043ee4fe,66.638155,25.840236,907199591,uuuu,FI,FI,1642551801,66.662643,25.840336,0,Rovaniemi,1159321523,907/199/591/907199591.geojson,localadmin,85683147,figov,,,FI
"24.132753,65.337288,24.75349,65.807418",uuuu,85633143,uuuu,c0bd88e9f00e481d9a4a38ffd12dbb25,,969f51f02491fd51e5904c57a4868e6b,65.585633,24.394198,907199597,uuuu,FI,FI,1636494398,65.585615,24.394116,0,Kemi,1159321559,907/199/597/907199597.geojson,localadmin,85683147,figov,,,FI
"20.548636402,68.1159647234,25.0271957215,69.3118841445",uuuu,85633143,uuuu,c814ab1f92a3405a3ea53cd0addc2cbf,,857c69114c452a8e40a767336e06f0b4,68.651503,22.870984,907199599,uuuu,FI,FI,1582312117,68.436211,23.463279,0,Enontekio,1159321583,907/199/599/907199599.geojson,localadmin,85683147,figov,,,FI
"24.6056158009,60.6474964234,24.8447329932,60.8003114164",uuuu,85633143,uuuu,2989b3c298ae306f538c94b9adb8a445,,637fec2cd65b26ac7fe4526dc05319bc,60.711642,24.740064,907199603,uuuu,FI,FI,1582312106,60.708205,24.738244,0,Riihimaki,1159321541,907/199/603/907199603.geojson,localadmin,85683077,figov,,,FI
"29.4672867514,62.99840253,31.2408457826,63.757165328",uuuu,85633143,uuuu,01d3013ddfad8133ecfef7b18243ab40,,e4d2f881da5dc39b12d93c30912af7ea,63.335522,30.187315,907199605,uuuu,FI,FI,1582312103,63.388035,29.952603,0,Lieksa,1159321575,907/199/605/907199605.geojson,localadmin,85683133,figov,,,FI
"29.6130921292,62.2508029454,31.0935216163,63.0475854383",uuuu,85633143,uuuu,d30e215ab29257fb43e1ec08e001465f,,101c66e0cde4bbd823954c465a77d0ed,62.612871,30.327143,907199609,uuuu,FI,FI,1582312138,62.529746,30.439234,0,Joensuu,1159321551,907/199/609/907199609.geojson,localadmin,85683133,figov,,,FI
"25.5010534229,64.56274403,26.1294898635,64.90445548",uuuu,85633143,uuuu,276c16111f8e37146b268310e62bde6b,,a8aa12129382f4f5bb7ef44d372d1c34,64.72465,25.767366,907199615,uuuu,FI,FI,1582312129,64.754225,25.710628,0,Tyrnava,1159321529,907/199/615/907199615.geojson,localadmin,85683143,figov,,,FI
"22.7788967491,63.9649794864,24.3460666016,64.4834607182",uuuu,85633143,uuuu,e0c5a9706f66d5838884fbea711ef10b,,508e84fca2d4a367332d60afa44f6de3,64.236997,23.613852,907199617,uuuu,FI,FI,1582312092,64.233736,23.625261,0,Kalajoki,1159321569,907/199/617/907199617.geojson,localadmin,85683143,figov,,,FI
"26.2911059544,64.2581891686,27.396978196,64.8352873766",uuuu,85633143,uuuu,cf6ab19fd91fbd3a7dd476eb06e50dfd,,02e164760c4f9bfe0d655dd119b7f9b3,64.514741,26.895924,907199621,uuuu,FI,FI,1582312094,64.504158,26.895849,0,Vaala,1159321487,907/199/621/907199621.geojson,localadmin,85683137,figov,,,FI
"22.5106011668,61.7363899122,22.8284218415,61.952107514",uuuu,85633143,uuuu,1715c59e9e2c53f79f88ecb28d11170a,,a3bcf0a182a8bef00830500a4cbcc65f,61.841094,22.672054,907199625,uuuu,FI,FI,1582312124,61.846398,22.661179,0,Jamijarvi,1159321519,907/199/625/907199625.geojson,localadmin,85683095,figov,,,FI
"24.6378556075,63.7521003155,25.3662253494,64.0679382789",uuuu,85633143,uuuu,f734f14a3662d8c8af598e7706c86252,,309d14a2a24f224da050a82b018d3a2b,63.926045,25.024678,907199629,uuuu,FI,FI,1582312102,63.942366,25.026199,0,Nivala,1159321591,907/199/629/907199629.geojson,localadmin,85683143,figov,,,FI
"24.675288,60.202563,24.750914,60.225913",uuuu,85633143,uuuu,39ecf53af652b7d803edeee40101a91a,,ff8fc054986ae5e96a048d108fd991dd,60.214556,24.713575,907199633,uuuu,FI,FI,1617131071,60.217471,24.71301,0,Kauniainen,1159321633,907/199/633/907199633.geojson,localadmin,85683067,figov,,,FI
"25.1684138849,64.4626822844,26.2911059544,64.8923890246",uuuu,85633143,uuuu,4a8073ee05994f4b231cfe3c7da5e1a3,,138e0628d34de87ab25d7960e28ef362,64.67303,25.653079,907199635,uuuu,FI,FI,1582312107,64.76725,25.412398,0,Liminka,1159321529,907/199/635/907199635.geojson,localadmin,85683143,figov,,,FI
"24.9556627069,63.5814801024,25.667306323,63.9447656807",uuuu,85633143,uuuu,91f836ee1c829b0f6c2a1d33678cd148,,b72b713e392e10f61868eb88be9605e0,63.773308,25.377723,907199639,uuuu,FI,FI,1582312134,63.773635,25.402072,0,Haapajarvi,1159321591,907/199/639/907199639.geojson,localadmin,85683143,figov,,,FI
"20.8296252016,61.2888399524,21.8046275055,61.5301785534",uuuu,85633143,uuuu,a56f5916c6aaf6c55e610a0c9c5c299e,,efded31cbfb2809516aed89624ea144d,61.407536,21.263554,907199643,uuuu,FI,FI,1582312091,61.416909,21.263522,0,Luvia,1159321565,907/199/643/907199643.geojson,localadmin,85683095,figov,,,FI
"22.925429511,60.5711644885,23.2576955688,60.7741682465",uuuu,85633143,uuuu,b9434974f704981e19fe8da1f78a5dd0,,3cb27f2380462c3d9b39ec0f3840f622,60.661824,23.126006,907199647,uuuu,FI,FI,1566594229,60.663834,23.137278,0,Koski Tl,1159321505,907/199/647/907199647.geojson,localadmin,85683073,figov,,,FI
"24.746236,60.237218,25.193068,60.401255",uuuu,85633143,uuuu,25490f6da9d578a2042e44099333b08d,,6bd5ee1fef588aa8041fc584626b455f,60.313279,24.950674,907199651,uuuu,FI,FI,1617130592,60.326654,24.854159,0,Vantaa,1159321633,907/199/651/907199651.geojson,localadmin,85683067,figov,,,FI
"20.8745681297,61.3840240327,22.7249299477,61.7496779307",uuuu,85633143,uuuu,9c1b2247c52cd10a4174fc4481acc8f3,,445f6b418ebe990525775b2967cfddee,61.597413,21.705662,907199653,uuuu,FI,FI,1582312135,61.58356,21.643094,0,Pori,1159321565,907/199/653/907199653.geojson,localadmin,85683095,figov,,,FI
"23.1400486404,64.2996844967,24.8891751958,64.6287373145",uuuu,85633143,uuuu,fbffb2e58444e3f8fe76162dee3cd64c,,fe3ebb51aec9fd9826899789dee67ba7,64.46894,24.018933,907199655,uuuu,FI,FI,1582312132,64.467351,24.032494,0,Pyhajoki,1159321631,907/199/655/907199655.geojson,localadmin,85683143,figov,,,FI
"20.284325635,59.4541440185,21.345645063,60.1039680913",uuuu,-1,uuuu,49d8fa55b0d9497f8713da3ebc223901,,6cd55715fa2fd7c825ee433e39047d62,59.742582,20.899207,907199659,uuuu,FI,FI,1566594168,59.740966,20.935393,0,Kokar,1159321503,907/199/659/907199659.geojson,localadmin,-1,figov,,,FI
"20.4660342811,62.2037824066,21.7909676741,62.7676659584",uuuu,85633143,uuuu,b6f777b73b65fc5fd72626ef2b149876,,070f4030f8c6b0ab096c019b9a0b0ced,62.51264,21.105877,907199661,uuuu,FI,FI,1582312108,62.505653,21.06108,0,Narpio,1159321495,907/199/661/907199661.geojson,localadmin,85683119,figov,,,FI
"21.5115772001,62.3618966302,22.1113754032,62.6432466531",uuuu,85633143,uuuu,28a9c2ff916b549b719d1eecb8c22ab4,,5c19b14b092c346b26ad9385a52b754f,62.506141,21.800572,907199665,uuuu,FI,FI,1582312135,62.485479,21.800746,0,Teuva,1159321543,907/199/665/907199665.geojson,localadmin,85683113,figov,,,FI
"22.8296768559,63.3803206832,23.8359746421,63.7917102538",uuuu,85633143,uuuu,4180fa8ad15efb36153dceab1c175bef,,efc6f34ce64163d193fc9bfc7a777d6b,63.64086,23.34883,907199669,uuuu,FI,FI,1582312105,63.654993,23.31693,0,Kruunupyy,1159321639,907/199/669/907199669.geojson,localadmin,85683119,figov,,,FI
"26.890127759,62.5922636488,28.4579387479,63.403310726",uuuu,85633143,uuuu,f4c3a29f37a38bb751a1bd75fbfa0c8d,,9c50e3cc66237365944c5e874a2ccbda,62.975256,27.685645,907199673,uuuu,FI,FI,1582312099,62.827534,27.673699,0,Kuopio,1159321597,907/199/673/907199673.geojson,localadmin,85683131,figov,,,FI
"20.106113,60.107491,20.987658,60.802569",uuuu,-1,uuuu,210413b4ec9b683d9c99d0b33cf750b3,,5a67d53886489379363a73d804fe89c1,60.404762,20.628523,907199697,uuuu,FI,FI,1636494399,60.265756,20.768202,0,Kumlinge,-1,907/199/697/907199697.geojson,localadmin,-1,figov,,,FI
"24.1374891017,65.2114925995,26.160110795,65.8223349674",uuuu,85633143,uuuu,daff2165584c879938d2815df4af3a4a,,4970aeccccfb6a2347edaecccc1e925f,65.472972,25.30424,907199699,uuuu,FI,FI,1582312133,65.473523,25.306099,0,Ii,1159321497,907/199/699/907199699.geojson,localadmin,85683143,figov,,,FI
"23.9434001565,64.3260238135,25.6125804107,65.0079473474",uuuu,85633143,uuuu,209f1306ecd269df94a7745afb3fbed1,,9bff08ed02e350279103f4d0a2720c2e,64.743188,24.804053,907199705,uuuu,FI,FI,1582312114,64.66609,25.011604,0,Siikajoki,1159321631,907/199/705/907199705.geojson,localadmin,85683143,figov,,,FI
"27.7346367392,62.1410078981,28.6588906328,62.380506353",uuuu,85633143,uuuu,ade28fcf5935b64c4d9696d2d98eddcd,,4ba38974341e470194f6adf4f912b8c0,62.278972,28.244053,907199707,uuuu,FI,FI,1582312090,62.290494,28.25102,0,Varkaus,1159321629,907/199/707/907199707.geojson,localadmin,85683131,figov,,,FI
"24.7828055478,59.9224932379,25.254496669,60.2978394089",2018-09-17,85633143,uuuu,278b4b4718940276e5a1408eb8478890,,8b23ff15d9f0131a5bb9b94b9dc0df41,60.113924,25.017104,907199715,uuuu,FI,FI,1582312112,60.09489,25.012523,0,Helsinki,1159321633,907/199/715/907199715.geojson,localadmin,85683067,figov,101748417,,FI
"26.922136413,60.2294061338,27.6495323475,60.8426400374",uuuu,85633143,uuuu,ac698df69d500f96d710c05f93dd5a68,,b2a2f5393ffedd11558664306e299baf,60.539376,27.290057,907199723,uuuu,FI,FI,1582312112,60.567852,27.204643,0,Hamina,1159321573,907/199/723/907199723.geojson,localadmin,85683081,figov,,,FI
"19.9131076375,60.0466654679,19.9732859288,60.1289863808",uuuu,-1,uuuu,c889f628cef395b5c5be595bc21c16cb,,a78e40f780b84952dc8d45caf8279e57,60.087881,19.942511,907199729,uuuu,FI,FI,1566594277,60.086164,19.94546,0,Maarianhamina,85667871,907/199/729/907199729.geojson,localadmin,85667871,figov,,,FI
"23.4932001143,61.0573551518,23.958595805,61.2589791823",uuuu,85633143,uuuu,21ae950dfa9ad6a0d92b7c3020e0eddb,,e3c44d7df8f763a3f56b55399a55b25c,61.153978,23.747391,907199731,uuuu,FI,FI,1582312089,61.150068,23.743948,0,Akaa,1159321621,907/199/731/907199731.geojson,localadmin,85683099,figov,,,FI
"21.9889446333,59.5010767325,22.9204197114,60.2649787975",uuuu,85633143,uuuu,df7c8ed66c3b7ec98ef0c91fb5f7259b,,41c6c06c504173818eadea7d5d8b20b7,59.875395,22.449582,907199735,uuuu,FI,FI,1582312120,59.865044,22.458414,0,Kemionsaari,1159321605,907/199/735/907199735.geojson,localadmin,85683073,figov,,,FI
"21.0238299636,59.4756429388,22.5429991186,60.4986621596",uuuu,85633143,uuuu,f6f21e8775fc971820529f3c4d64e9ab,,2f6dbc81cbfc5249bf5468ea5d44f67c,59.981748,21.666103,907199741,uuuu,FI,FI,1582312114,59.962758,21.665922,0,Parainen,1159321605,907/199/741/907199741.geojson,localadmin,85683073,figov,,,FI
"24.035510182,61.9060589817,24.7309134761,62.2603115436",uuuu,85633143,uuuu,24dc061e8ba8b6403a81d86d20020125,,6f54790a20e2e00c47f86b772347a561,62.082929,24.403815,907199743,uuuu,FI,FI,1582312139,62.03807,24.466972,0,Mantta-Vilppula,1159321485,907/199/743/907199743.geojson,localadmin,85683099,figov,,,FI
"22.7883357788,59.6511886481,23.9863772297,60.2060012571",uuuu,85633143,uuuu,304d02c8de060a30712c0c3460e5d18f,,4aac2f661dc451019caab6ead057aa23,59.938017,23.450877,907199747,uuuu,FI,FI,1582312111,59.933931,23.509855,0,Raasepori,1159321627,907/199/747/907199747.geojson,localadmin,85683067,figov,,,FI
"22.4341601321,61.1825290555,23.2873309899,61.7238392306",uuuu,85633143,uuuu,91a92134eef40c90c6d902bd5b8f8b17,,500e9501ca84768f5dd67808f919f640,61.415668,22.886255,907199751,uuuu,FI,FI,1582312117,61.415682,22.886506,0,Sastamala,1159321613,907/199/751/907199751.geojson,localadmin,85683099,figov,,,FI
"25.3795479897,63.9646811894,26.7708709455,64.6289425207",uuuu,85633143,uuuu,a182e58670f2cab204fa5b34d3916f87,,47dfb8b757a5cbfea2379ae1e2b8ae32,64.328131,25.974342,907199755,uuuu,FI,FI,1582312083,64.309473,25.962486,0,Siikalatva,1159321571,907/199/755/907199755.geojson,localadmin,85683143,figov,,,FI
"21.3605867597,63.0561135347,22.6582020865,63.6702322589",uuuu,85633143,uuuu,ed3c8cbe21b8d6deb4f27593e1eff680,,66e175e5debb88d1432fe8937b90ce4c,63.331706,22.075703,907199763,uuuu,FI,FI,1582312082,63.232623,22.193719,0,Voyri,1159321501,907/199/763/907199763.geojson,localadmin,85683119,figov,,,FI
