bbox,cessation,country_id,deprecated,file_hash,fullname,geom_hash,geom_latitude,geom_longitude,id,inception,iso,iso_country,lastmodified,lbl_latitude,lbl_longitude,locality_id,name,parent_id,path,placetype,region_id,source,superseded_by,supersedes,wof_country
"22.003643392,61.2651153212,22.2720240266,61.4319682172",uuuu,85633143,,f62901cff6712bab67d3065169535340,,da73ad62cba7017ef60405adc28a3b5a,61.336292,22.146344,907198927,uuuu,FI,FI,1481176849,61.349858,22.170765,0,Harjavalta,85683095,907/198/927/907198927.geojson,localadmin,85683095,figov,,,FI
"26.2207225444,61.788659388,27.1291678286,62.3077263526",uuuu,85633143,,d5c840f5648b1e6762d9c97aeaf00522,,64c01879938440c4bd5608391d7524b8,62.033294,26.622181,907198773,uuuu,FI,FI,1481176839,62.035682,26.615319,0,Kangasniemi,85683109,907/198/773/907198773.geojson,localadmin,85683109,figov,,,FI
"27.4067629758,62.2846033967,28.545461557,62.7058392858",uuuu,85633143,,23e3b8360446333a4a34c2c43113e45b,,0a6420db361841e4672ba4661558e6e2,62.517788,27.926459,907198899,uuuu,FI,FI,1481176847,62.528926,27.926534,0,Leppavirta,85683131,907/198/899/907198899.geojson,localadmin,85683131,figov,,,FI
"21.4809147797,60.7384624874,22.1284673345,61.0341822643",uuuu,85633143,,3505a3b82839fd8d69a6e6f78c0e5f79,,908228f102f11be0c2382c7e757d1a63,60.894397,21.773859,907198671,uuuu,FI,FI,1481176832,60.901338,21.795965,0,Laitila,85683073,907/198/671/907198671.geojson,localadmin,85683073,figov,,,FI
"20.3775434328,60.4306845727,21.5437369425,60.9018072212",uuuu,85633143,,9c42b82db04fb140afedc2e700ddcf0b,,ae7ec76b6ef5176e6152faa7ddb8ae76,60.66071,21.064942,907198611,uuuu,FI,FI,1481176830,60.582769,21.260226,0,Kustavi,85683073,907/198/611/907198611.geojson,localadmin,85683073,figov,,,FI
"25.8439301437,61.6084494151,26.5337514675,62.0432189989",uuuu,85633143,,47889964a1fa1bff38f882dd46048011,,2561a42b33638437c11b2aac52af259e,61.829406,26.189024,907198751,uuuu,FI,FI,1481176837,61.823822,26.184344,0,Joutsa,85683117,907/198/751/907198751.geojson,localadmin,85683117,figov,,,FI
"21.71324759,61.2919110784,22.1661258715,61.420976109",uuuu,85633143,,45bb4d70a16b20566c2b296151ba2a99,,0cdf8411c4d00b32598227c9bb5d3d0a,61.359192,21.948573,907198705,uuuu,FI,FI,1481176834,61.348808,21.945169,0,Nakkila,85683095,907/198/705/907198705.geojson,localadmin,85683095,figov,,,FI
"24.8661902737,60.3324491467,25.1535081244,60.5806395788",uuuu,85633143,,cc4ca26d0fd847dba554465613cd081f,,2add425c88b4c7fce975ef9e85f3c21b,60.451974,25.002058,907198631,uuuu,FI,FI,1481176831,60.423853,24.990165,0,Tuusula,85683067,907/198/631/907198631.geojson,localadmin,85683067,figov,,,FI
"19.9406472182,59.4660859578,20.7716241338,60.1510705583",uuuu,0,,fb664ab794609fef49ce7d7d6d14661a,,f340dcde5708700c0fed31c6a57acbc3,59.818001,20.364907,907198485,uuuu,FI,FI,1470851985,59.836703,20.39333,0,Foglo,-1,907/198/485/907198485.geojson,localadmin,0,,,,FI
"24.7838908293,61.4507025035,25.5352209606,61.7869493695",uuuu,85633143,,96dcf1492d5327bbf130294ec9ebbb23,,69d9328de21bda9a79c848837beab4f2,61.61191,25.182457,907198799,uuuu,FI,FI,1481176841,61.604186,25.189661,0,Kuhmoinen,85683117,907/198/799/907198799.geojson,localadmin,85683117,figov,,,FI
"19.7417459608,60.1805204001,20.0267853017,60.4509136733",uuuu,85633143,,6033cc58b48ae08826c7d924f3e997be,,be5aeb8dae7198e93d48cd5993c1cdb2,60.270384,19.902272,907198529,uuuu,FI,FI,1470851994,60.259693,19.886349,0,Finstrom,85667835,907/198/529/907198529.geojson,localadmin,85667835,,,,FI
"22.2742159498,60.3450950055,22.6094302421,60.4980483605",uuuu,85633143,,8e41ab700dccf16d876d22385b7af4f5,,e7874554340041404cf2638b72b0f266,60.412283,22.465437,907198993,uuuu,FI,FI,1481176852,60.403859,22.481993,0,Kaarina,85683073,907/198/993/907198993.geojson,localadmin,85683073,figov,,,FI
"26.7411326172,60.2002014786,27.4664491387,60.6755818444",uuuu,85633143,,80142c2efc6497f284a5ccc1e84acb62,,a8887f23af65279b54a8caa831951f63,60.380818,27.035796,907198683,uuuu,FI,FI,1481176833,60.342293,27.000064,0,Kotka,85683081,907/198/683/907198683.geojson,localadmin,85683081,figov,,,FI
"29.2959653346,62.146116799,30.0352044906,62.4074390525",uuuu,85633143,,2e60991526ac611ff953dc034daab10e,,5f18a207bff25de15c541014f9685295,62.296108,29.673645,907198891,uuuu,FI,FI,1481176847,62.281065,29.710633,0,Raakkyla,85683133,907/198/891/907198891.geojson,localadmin,85683133,figov,,,FI
"28.088783276,61.5273051997,28.9560501795,61.9453100775",uuuu,85633143,,a53c7c7fce1a72178cecbff7317d78cc,,5bd77c63b693574342ce64473c162219,61.745833,28.424238,907198787,uuuu,FI,FI,1481176840,61.801226,28.315872,0,Sulkava,85683109,907/198/787/907198787.geojson,localadmin,85683109,figov,,,FI
"21.7720610005,62.7515742078,22.2916144905,63.0487646104",uuuu,85633143,,df107a78bb5694fbe727c6b96201821e,,5feab2c60c568f1cc381e2ee7b9e176b,62.882143,22.02717,907198989,uuuu,FI,FI,1481176852,62.8801,22.047981,0,Laihia,85683119,907/198/989/907198989.geojson,localadmin,85683119,figov,,,FI
"24.5248386769,60.3417833636,24.9754575197,60.5888669187",uuuu,85633143,,bd523ccb14c6743ba4dc8037ad594e8c,,4dc8c7effb8b2dfbaf43f498c0c99615,60.461864,24.756265,907198599,uuuu,FI,FI,1481176829,60.445065,24.752867,0,Nurmijarvi,85683067,907/198/599/907198599.geojson,localadmin,85683067,figov,,,FI
"24.8554903367,61.2399650556,25.5451589633,61.4869061838",uuuu,85633143,,1c39c48ec6fe9b5dc97360a3db8d9140,,998a4497cec7f744be3077548038990f,61.36818,25.199747,907198715,uuuu,FI,FI,1481176834,61.359149,25.205102,0,Padasjoki,85683091,907/198/715/907198715.geojson,localadmin,85683091,figov,,,FI
"27.493724566,61.9877591306,28.0920590657,62.3747594761",uuuu,85633143,,26a204e774f79e74c3fb9496a045377d,,03eab448cba1149844422809b4a0711f,62.172862,27.787102,907198879,uuuu,FI,FI,1481176846,62.153569,27.782425,0,Joroinen,85683109,907/198/879/907198879.geojson,localadmin,85683109,figov,,,FI
"23.1356381342,60.7110753932,23.408623999,60.8924290861",uuuu,85633143,,abc35b163f0f84c07ef75f044468dff8,,2a85fbef63735d3d9753e1709b06a7ce,60.804345,23.26748,907198833,uuuu,FI,FI,1481176842,60.794862,23.283667,0,Ypaja,85683077,907/198/833/907198833.geojson,localadmin,85683077,figov,,,FI
"22.915072796,61.0012198067,23.3833601625,61.2237346214",uuuu,85633143,,630feb7145fbe40fce64b70aa383a725,,2f36886a951f57fb1f7c2c05116031da,61.115973,23.128044,907198835,uuuu,FI,FI,1481176842,61.117191,23.128003,0,Punkalaidun,85683099,907/198/835/907198835.geojson,localadmin,85683099,figov,,,FI
"21.7773100415,60.4795634891,22.4150036643,60.7372929019",uuuu,85633143,,c407241a85ee4cbfe967096de526d113,,7c9c78aaed9020e97b1694000d70a9e4,60.55834,22.005554,907198919,uuuu,FI,FI,1481176848,60.547563,21.955255,0,Masku,85683073,907/198/919/907198919.geojson,localadmin,85683073,figov,,,FI
"26.4478395201,60.1713286325,26.8753364588,60.652367518",uuuu,85633143,,a541e444bbe05a79c33797c6473930ec,,8568809c7add9857e7c6fd30a8fe3423,60.408043,26.68235,907198651,uuuu,FI,FI,1481176831,60.418391,26.699637,0,Pyhtaa,85683081,907/198/651/907198651.geojson,localadmin,85683081,figov,,,FI
"25.8011015575,61.070917716,26.5136626338,61.425830871",uuuu,85633143,,d351705634462a9d8766dd965abff515,,b9aa57a2b0a10c593f0c208d9973d6aa,61.257922,26.132695,907198689,uuuu,FI,FI,1481176833,61.267539,26.194945,0,Heinola,85683091,907/198/689/907198689.geojson,localadmin,85683091,figov,,,FI
"20.4816875433,59.9097878449,21.063007025,60.226263223",uuuu,0,,3ee58accd611ca30a00eba7833947776,,0789caa64e9e2767dc8fa206bc40b489,60.090752,20.753145,907198465,uuuu,FI,FI,1470851982,60.065472,20.728697,0,Sottunga,-1,907/198/465/907198465.geojson,localadmin,0,,,,FI
"25.9919257035,60.7478438756,26.5449681031,61.155485463",uuuu,85633143,,5d7b561b0cbe4ba8dd626a1342dc87be,,6d6615233579f3e6b3d37e0843c97749,60.935874,26.28021,907198619,uuuu,FI,FI,1481176830,60.895079,26.277185,0,Iitti,85683081,907/198/619/907198619.geojson,localadmin,85683081,figov,,,FI
"29.0192386493,61.2104348386,29.4487879823,61.5202133713",uuuu,85633143,,c6c5d427f23c3f8fe35c1f48af6d7dd2,,98398c6d4e5a8f3d445fe015cf23a6ab,61.375439,29.213387,907198805,uuuu,FI,FI,1481176841,61.366304,29.216622,0,Rautjarvi,85683103,907/198/805/907198805.geojson,localadmin,85683103,figov,,,FI
"23.2207491576,61.1995966763,23.7371325668,61.3968254877",uuuu,85633143,,8c6ad42c1962899f33f3f587470240c7,,aa5e8042e34c1b81915d2122d62cbfb9,61.284347,23.485718,907198735,uuuu,FI,FI,1481176836,61.27467,23.48569,0,Vesilahti,85683099,907/198/735/907198735.geojson,localadmin,85683099,figov,,,FI
"25.0729006244,60.3590742471,25.1635893012,60.4429878069",uuuu,85633143,,43ce8b53ea417473742a9cf5579b871e,,dca7048be14590aaf2cf6c7a3d76a8a4,60.399277,25.118714,907198627,uuuu,FI,FI,1481176831,60.398886,25.115053,0,Kerava,85683067,907/198/627/907198627.geojson,localadmin,85683067,figov,,,FI
"20.771455478,60.8708781471,21.6661380697,61.1334795868",uuuu,85633143,,b5d8baa844c0d52748b6922bef4cfa1f,,309eaff0f6e6aa1aa211068750324ce0,61.029516,21.323215,907198675,uuuu,FI,FI,1481176832,61.054585,21.31654,0,Pyharanta,85683073,907/198/675/907198675.geojson,localadmin,85683073,figov,,,FI
"23.1546153688,60.4673262878,23.9205491095,60.7741682465",uuuu,85633143,,48324d498109e38579ad8581d8b1b6a0,,b851f0b7a0d154a09df2d25798b29ba3,60.61445,23.555172,907198549,uuuu,FI,FI,1481176827,60.591081,23.613235,0,Somero,85683073,907/198/549/907198549.geojson,localadmin,85683073,figov,,,FI
"22.6589236383,59.6109994387,23.2951677695,59.9371668289",uuuu,85633143,,4c3d0b99c88812093779431e5037a18d,,80269e86e429de886a913d18dae49606,59.765962,22.999336,907198505,uuuu,FI,FI,1481176826,59.76547,23.005417,0,Hanko,85683067,907/198/505/907198505.geojson,localadmin,85683067,figov,,,FI
"25.4142722292,60.4699110953,25.8232270824,60.6141335279",uuuu,85633143,,3a2dcbacb6ed216d732b5aa5f7359830,,0b2f2cc4d2edc9a0751076b666944a4e,60.542451,25.61421,907198543,uuuu,FI,FI,1481176827,60.541697,25.618151,0,Askola,85683067,907/198/543/907198543.geojson,localadmin,85683067,figov,,,FI
"19.4732471109,60.3084317601,19.9942144415,60.7083439876",uuuu,0,,63afa2867c9130ffbb304d3fff02852c,,93ba44de186082b3a01e83d85e3ee691,60.525079,19.737276,907198503,uuuu,FI,FI,1470851988,60.562004,19.719845,0,Geta,-1,907/198/503/907198503.geojson,localadmin,0,,,,FI
"26.2353927536,60.5750064462,27.4283596989,61.292578649",uuuu,85633143,,9c6a57a06516652085c40cef63dd5ef7,,cd13f2f516b0b09d013441a9ac6ac3f1,60.939816,26.773035,907198969,uuuu,FI,FI,1481176851,60.944357,26.781989,0,Kouvola,85683081,907/198/969/907198969.geojson,localadmin,85683081,figov,,,FI
"27.8613216993,61.9138453565,28.7393142318,62.2454760307",uuuu,85633143,,0a02c6577098edbd8fd2d31ce82b2e73,,2f6a29a1fb0e8528c318781554c7e655,62.059492,28.288443,907198885,uuuu,FI,FI,1481176846,62.06045,28.295411,0,Rantasalmi,85683109,907/198/885/907198885.geojson,localadmin,85683109,figov,,,FI
"25.3292884701,59.9281958493,26.271297587,60.550997512",uuuu,85633143,,bdff9d0c620de80be37d364c534d7566,,75965c2854248cb0afcb7b4eaf79a522,60.185899,25.727853,907198525,uuuu,FI,FI,1481176826,60.163154,25.7275,0,Porvoo,85683067,907/198/525/907198525.geojson,localadmin,85683067,figov,,,FI
"19.1611733816,60.0248726416,19.682896399,60.6115120407",uuuu,0,,5ca42ac686b6c091ce91c04188f8ac2d,,8341275d8db2455fa994e4ab9369550d,60.299116,19.425151,907198473,uuuu,FI,FI,1470851983,60.247127,19.537342,0,Eckero,-1,907/198/473/907198473.geojson,localadmin,0,,,,FI
"22.4803413545,60.9825861877,23.0062343098,61.3020128131",uuuu,85633143,,9830873955fc250ea5ea0033e69fcef4,,1fded78c748dabf1bbfeda55d35046e4,61.132228,22.724183,907198933,uuuu,FI,FI,1481176849,61.116899,22.698165,0,Huittinen,85683095,907/198/933/907198933.geojson,localadmin,85683095,figov,,,FI
"26.8271668614,61.2089551636,27.9003824193,62.1991563842",uuuu,85633143,,9dd7082a0a5a1cb0c4d27ef2637e210a,,d1ef807ae8cc9210bf3b23d47b2eb3c2,61.676897,27.307015,907198765,uuuu,FI,FI,1481176839,61.635505,27.298839,0,Mikkeli,85683109,907/198/765/907198765.geojson,localadmin,85683109,figov,,,FI
"25.3949950121,60.6714762655,26.2238442572,60.9345586578",uuuu,85633143,,635022fca4d34c8cd72ab9d4ff940fe1,,999ccae44703657c78835af75ed72fca,60.800278,25.821406,907198577,uuuu,FI,FI,1481176828,60.801453,25.788066,0,Orimattila,85683091,907/198/577/907198577.geojson,localadmin,85683091,figov,,,FI
"27.1210694294,60.7953316023,27.9332457558,61.1064860589",uuuu,85633143,,8d7ada5aa8c72b9166a0607bd8862a33,,a4791e5af67765fc737431be5fbf2510,60.939711,27.528077,907198953,uuuu,FI,FI,1481176850,60.910925,27.527869,0,Luumaki,85683103,907/198/953/907198953.geojson,localadmin,85683103,figov,,,FI
"25.102188639,59.9370983061,25.5269179793,60.5062338474",uuuu,85633143,,7399c3dda5e463b3d2290d02589fa5be,,025756646fb8730c5f128e82581c32dd,60.22465,25.286064,907198521,uuuu,FI,FI,1481176826,60.250776,25.342228,0,Sipoo,85683067,907/198/521/907198521.geojson,localadmin,85683067,figov,,,FI
"23.4983066944,60.6376627449,24.0632433773,60.9739891896",uuuu,85633143,,a07085c4bbcea0db8f55de592c40d970,,2b48d39351604e58da65ce63214849b8,60.785844,23.832405,907198581,uuuu,FI,FI,1481176828,60.796421,23.837799,0,Tammela,85683077,907/198/581/907198581.geojson,localadmin,85683077,figov,,,FI
"27.1766944494,61.0176916813,27.9311609187,61.3620783985",uuuu,85633143,,d305679f5de33546389da09557dafdc2,,e839363f62bcd1996f703fcd0c4670a9,61.184181,27.564346,907198759,uuuu,FI,FI,1481176838,61.141941,27.532989,0,Savitaipale,85683103,907/198/759/907198759.geojson,localadmin,85683103,figov,,,FI
"22.568686435,60.6988079991,23.2995858448,61.1014353236",uuuu,85633143,,4a5f38d630d132d54c6c51a2481d28b2,,cccd91169732c54298895a15bb1ada61,60.897909,22.96373,907198963,uuuu,FI,FI,1481176850,60.878827,22.958137,0,Loimaa,85683073,907/198/963/907198963.geojson,localadmin,85683073,figov,,,FI
"23.1953659522,60.8703644275,23.5025598598,61.0208919483",uuuu,85633143,,a2c8ba700f2f4fef5ee5b65f86fa9c48,,01c3a3b505ff60491c0342926d2b741d,60.944296,23.350126,907198829,uuuu,FI,FI,1481176842,60.928549,23.360582,0,Humppila,85683077,907/198/829/907198829.geojson,localadmin,85683077,figov,,,FI
"22.1141121801,61.1706232585,22.6099699189,61.488922542",uuuu,85633143,,1e01e69a85fcb3fe2d17cae1147493c8,,9398b55165d972e7fee51a69b8ddf5bc,61.318326,22.396079,907198937,uuuu,FI,FI,1481176849,61.322602,22.399742,0,Kokemaki,85683095,907/198/937/907198937.geojson,localadmin,85683095,figov,,,FI
"25.770850203,61.392893831,26.3480821695,61.8014078798",uuuu,85633143,,6ebbd6c26133cafd4e398fafc0680a80,,2974711766c5d4ab5e79c23c3538a75c,61.584984,26.04912,907198739,uuuu,FI,FI,1481176836,61.573829,26.044624,0,Hartola,85683091,907/198/739/907198739.geojson,localadmin,85683091,figov,,,FI
"26.2348832017,61.3398318282,26.6557458662,61.6578052536",uuuu,85633143,,b031a8bd9a8fb032e56e1cfaf7edba17,,4a4288a7a0a0cc1519dd5df5908a3e0e,61.499622,26.43631,907198743,uuuu,FI,FI,1481176837,61.508156,26.45694,0,Pertunmaa,85683109,907/198/743/907198743.geojson,localadmin,85683109,figov,,,FI
"21.9746863706,61.8960962595,22.4498474855,62.1424481067",uuuu,85633143,,c459cfda113aad35fc9c93061990aef9,,4d718763dd5f06395413ce59d9d7bdff,62.012649,22.223565,907198873,uuuu,FI,FI,1481176846,62.005461,22.207485,0,Honkajoki,85683095,907/198/873/907198873.geojson,localadmin,85683095,figov,,,FI
"21.3656174486,60.4664106811,21.7830764666,60.6405905112",uuuu,85633143,,60c919e44d3b2e96c8ac0cb2c77e72f8,,ff105c6de51c72be45f45e944bb9145a,60.559079,21.584791,907198635,uuuu,FI,FI,1481176831,60.543959,21.584793,0,Taivassalo,85683073,907/198/635/907198635.geojson,localadmin,85683073,figov,,,FI
"26.446560233,62.4239986534,27.0101423193,62.849158717",uuuu,85633143,,c2acc9b53cc3f96f7530b6c54a35cfd5,,b1fd4381a97c39f78df3447a2db811fa,62.642909,26.716185,907198897,uuuu,FI,FI,1481176847,62.667046,26.719954,0,Rautalampi,85683131,907/198/897/907198897.geojson,localadmin,85683131,figov,,,FI
"20.2190518698,60.1008892534,20.6357631394,60.4664807299",uuuu,0,,cd6ce98330b5732da2f0adcff8a45f24,,a8fb17f30422032fb6ad4acc46a30d80,60.293957,20.421869,907198495,uuuu,FI,FI,1470851987,60.289587,20.436377,0,Vardo,-1,907/198/495/907198495.geojson,localadmin,0,,,,FI
"21.6254593122,61.9797595844,22.1987142844,62.2975108862",uuuu,85633143,,a19a1f132b206f5e2a6ba9de55897f0d,,db6a4ff7a1462eb83d8f647a66fdfa8a,62.117954,21.901995,907198871,uuuu,FI,FI,1481176846,62.120176,21.896535,0,Isojoki,85683113,907/198/871/907198871.geojson,localadmin,85683113,figov,,,FI
"21.9239285765,60.5642296263,22.4150036643,60.7474680562",uuuu,85633143,,2e4e085e6647441659537c83ba33b6a8,,3eb75bd8be808c048ff98a5b8d64922a,60.654013,22.165207,907198955,uuuu,FI,FI,1481176850,60.648927,22.150502,0,Nousiainen,85683073,907/198/955/907198955.geojson,localadmin,85683073,figov,,,FI
"20.4375714384,60.6167483372,21.7582826031,61.126905931",uuuu,85633143,,83c5f0852167052b6c085637d11d9229,,7ef2e156cb75bc9df2b6c3e6c9b2bff9,60.882614,21.097273,907198615,uuuu,FI,FI,1481176830,60.902973,21.10691,0,Uusikaupunki,85683073,907/198/615/907198615.geojson,localadmin,85683073,figov,,,FI
"20.3101780112,62.8939892965,22.0588536328,63.6289814759",uuuu,85633143,,1a381f4a95813199c6b794f64a958ded,,fae57476689ad794c7ab8df8f1a30f62,63.302382,21.24715,907198985,uuuu,FI,FI,1481176852,63.367386,21.260508,0,Mustasaari,85683119,907/198/985/907198985.geojson,localadmin,85683119,figov,,,FI
"25.5403067224,60.8866488315,26.1689823974,61.1026662834",uuuu,85633143,,926cfd284f3110ed248475751aaaef48,,754d43d1fb82c00f26afb2e1905b75b0,60.9898,25.864621,907198647,uuuu,FI,FI,1481176831,60.988992,25.889871,0,Lahti,85683091,907/198/647/907198647.geojson,localadmin,85683091,figov,,,FI
"24.2720653814,59.7915698748,24.8314125209,60.2977067973",uuuu,85633143,,ad68281350141212e95e9bbf9bb57b8a,,73456a3919ada353658ad3450a70fdf5,60.011268,24.495889,907198511,uuuu,FI,FI,1481176826,59.987781,24.500165,0,Kirkkonummi,85683067,907/198/511/907198511.geojson,localadmin,85683067,figov,,,FI
"21.5060044564,60.5712574848,21.8153738309,60.7592913476",uuuu,85633143,,99c8af697aef0701f2d73f0fe64cea21,,826b56b2310b486588f8360c6d253028,60.673933,21.683475,907198643,uuuu,FI,FI,1481176831,60.679719,21.683425,0,Vehmaa,85683073,907/198/643/907198643.geojson,localadmin,85683073,figov,,,FI
"22.0673872822,60.4478646898,22.2494038187,60.53085155",uuuu,85633143,,1958107c2d559f1a34caa25703ea8ca4,,fdcbeddf49b1ea1b6a79d93764dba5cb,60.490791,22.145568,907198957,uuuu,FI,FI,1481176850,60.496969,22.145553,0,Raisio,85683073,907/198/957/907198957.geojson,localadmin,85683073,figov,,,FI
"26.3158160667,61.1513019339,27.387824736,61.6036579599",uuuu,85633143,,de8632c2fdb8b1a8e54172306aac8cf3,,5ce23ed9b5255c4b92c7067add59f37e,61.347456,26.875602,907198721,uuuu,FI,FI,1481176835,61.396926,26.738301,0,Mantyharju,85683109,907/198/721/907198721.geojson,localadmin,85683109,figov,,,FI
"23.2272982231,60.9397547986,23.8785160954,61.2399725421",uuuu,85633143,,888b9eec1b12eec2a9856a09bc206867,,2ce6e1e0d2f9fbd52a905872ebd2b679,61.081543,23.49539,907198841,uuuu,FI,FI,1481176843,61.077963,23.463478,0,Urjala,85683099,907/198/841/907198841.geojson,localadmin,85683099,figov,,,FI
"20.8120814968,61.1381352141,21.9459419575,61.352649806",uuuu,85633143,,b2c3752a1b878b2364fec4226fef04d1,,f7c5ed4cfa70ea61063784455adae62b,61.260836,21.470857,907198669,uuuu,FI,FI,1481176832,61.217691,21.715519,0,Eurajoki,85683095,907/198/669/907198669.geojson,localadmin,85683095,figov,,,FI
"25.4252885897,60.5798598972,25.7467504798,60.7184210893",uuuu,85633143,,dca566ebb54f145fa3351b4d2d0b7563,,317ec7cac6f5f1572109a2ad19cc829b,60.652631,25.582815,907198663,uuuu,FI,FI,1481176832,60.649162,25.513515,0,Pukkila,85683067,907/198/663/907198663.geojson,localadmin,85683067,figov,,,FI
"21.8029888969,61.3845954397,22.4341601321,61.5732505081",uuuu,85633143,,eb9565581479932aa3bc6d2c85316186,,9409778447d0a02c791e9a6279917092,61.481685,22.113619,907198905,uuuu,FI,FI,1481176848,61.494832,22.107705,0,Ulvila,85683095,907/198/905/907198905.geojson,localadmin,85683095,figov,,,FI
"19.4236450757,59.7916833234,20.1334775805,60.2107491798",uuuu,0,,72e1be303875ce7220e02a1320064258,,e9a7352fe74d8f5e81b9a474331f5a7c,60.017397,19.742662,907198489,uuuu,FI,FI,1470851986,60.004472,19.718401,0,Jomala,-1,907/198/489/907198489.geojson,localadmin,0,,,,FI
"26.3671813048,61.5034263865,27.0247970111,61.8659238501",uuuu,85633143,,1cd9ed5e7f8f2f48391d5bea93b463e6,,e4a10e2db5b6bae2279a038663b7ed2b,61.694069,26.724501,907198755,uuuu,FI,FI,1481176837,61.700843,26.746994,0,Hirvensalmi,85683109,907/198/755/907198755.geojson,localadmin,85683109,figov,,,FI
"21.7280521227,61.6150117236,22.3826773953,61.782659356",uuuu,85633143,,922cd97470bfc38d7fb90419fc2861d9,,6fc95148791bae7981e0ff0f5ceea015,61.704619,22.049385,907198823,uuuu,FI,FI,1481176842,61.701486,22.098978,0,Pomarkku,85683095,907/198/823/907198823.geojson,localadmin,85683095,figov,,,FI
"25.4970411192,61.6735905757,25.9212754088,61.8923225746",uuuu,85633143,,847fcdbdf9c9a172a9a3d69149491cd8,,522c05c0ba6ec6182552bfe825509fa0,61.781215,25.69593,907198699,uuuu,FI,FI,1481176834,61.784249,25.695924,0,Luhanka,85683117,907/198/699/907198699.geojson,localadmin,85683117,figov,,,FI
"27.7104399779,60.6666580609,28.776648522,61.2846869295",uuuu,85633143,,9d2bf76df1b70d63a98f4d936de147c8,,52ccfdbb7ab8bdd4597b2dfab7dce2c3,60.980459,28.261483,907198887,uuuu,FI,FI,1481176847,60.96719,28.25356,0,Lappeenranta,85683103,907/198/887/907198887.geojson,localadmin,85683103,figov,,,FI
"28.2521979392,61.188489459,29.2615705592,61.560064411",uuuu,85633143,,817fdfcd547b23e7f2cb990487976ad0,,cc4dfb62b193ba9d76f0edf6792f497a,61.37907,28.756589,907198791,uuuu,FI,FI,1481176841,61.36262,28.748838,0,Ruokolahti,85683103,907/198/791/907198791.geojson,localadmin,85683103,figov,,,FI
"20.829158418,61.6999238661,21.7521075293,62.0245911947",uuuu,85633143,,8d856c31eabcff1e9b7eea313bc1cb91,,5653e253fee1917461472adabdb3b225,61.851673,21.313972,907198797,uuuu,FI,FI,1481176841,61.838906,21.322604,0,Merikarvia,85683095,907/198/797/907198797.geojson,localadmin,85683095,figov,,,FI
"23.1366684553,61.3276095759,23.6131380485,61.5722521079",uuuu,85633143,,abe9f4e21c7293d657d291b7279847eb,,e108b40f83de6797602f7ccfaa7b57f6,61.452595,23.369484,907198999,uuuu,FI,FI,1481176852,61.435292,23.333421,0,Nokia,85683099,907/198/999/907198999.geojson,localadmin,85683099,figov,,,FI
"21.6789743619,61.7465368398,22.175435158,62.0158624702",uuuu,85633143,,9ed7b91c517d7aba28111b8fd1b85a10,,67212b8c9b60fe569568a1b357ecb990,61.867761,21.89384,907198809,uuuu,FI,FI,1481176841,61.878008,21.889179,0,Siikainen,85683095,907/198/809/907198809.geojson,localadmin,85683095,figov,,,FI
"25.204082063,60.4007405216,25.5101962474,60.5543004939",uuuu,85633143,,2d4f2f5be34b43af6b9906750037e9af,,1097a3cbc4b178b942aa971d1932724e,60.482344,25.359441,907198545,uuuu,FI,FI,1481176827,60.484602,25.36981,0,Pornainen,85683067,907/198/545/907198545.geojson,localadmin,85683067,figov,,,FI
"22.0661370641,60.3335157017,22.4581628262,60.7372929019",uuuu,85633143,,a7f2fe2e7d80b0991eeaa52592978437,,24dad1d573dca7e8d90025bf478edf14,60.470951,22.264367,907198909,uuuu,FI,FI,1481176848,60.398438,22.185785,0,Turku,85683073,907/198/909/907198909.geojson,localadmin,85683073,figov,,,FI
"22.7909832536,59.9952092374,23.7959721227,60.5956768601",uuuu,85633143,,0c93cde00daf81c1a10898dc17b63200,,e865407ee02cd3f0f4f587b2b77b5f19,60.338561,23.24007,907198943,uuuu,FI,FI,1481176849,60.362868,23.149142,0,Salo,85683073,907/198/943/907198943.geojson,localadmin,85683073,figov,,,FI
"25.1997539213,61.0962904429,25.9273278362,61.364627985",uuuu,85633143,,9adb450f2f2caf22a3fc1b4a193d8416,,2214e69f9f921b027048425a79ecbb74,61.21159,25.587163,907198691,uuuu,FI,FI,1481176833,61.226785,25.623477,0,Asikkala,85683091,907/198/691/907198691.geojson,localadmin,85683091,figov,,,FI
"23.97132673,60.4703991717,24.4649044693,60.6445215747",uuuu,85633143,,189b31abeefd530a6b6b3f863cf1b368,,c79496fc935691df8fe3cdab9da98734,60.556943,24.238146,907198539,uuuu,FI,FI,1481176827,60.554938,24.196961,0,Karkkila,85683067,907/198/539/907198539.geojson,localadmin,85683067,figov,,,FI
"27.4218373213,60.6010813845,27.9912828113,60.8426400374",uuuu,85633143,,05cc1613d5fa02fc341e48ef469dd09a,,763d0f14c312f18dd471c3b330fdf0cb,60.709963,27.661706,907198737,uuuu,FI,FI,1481176836,60.71603,27.666036,0,Miehikkala,85683081,907/198/737/907198737.geojson,localadmin,85683081,figov,,,FI
"29.2364229703,61.4244737745,30.143955961,61.8643164367",uuuu,85633143,,ecf9dd6886b4d2d74143bdff33e35c21,,5cbceb2ecd4b0611fb57ccaf29332f41,61.638532,29.633359,907198853,uuuu,FI,FI,1481176844,61.624783,29.62675,0,Parikkala,85683103,907/198/853/907198853.geojson,localadmin,85683103,figov,,,FI
"20.7731388539,60.9963322265,22.0707153429,61.2848720274",uuuu,85633143,,ba172a4d7d94ce90e29e3a5ba8df89c8,,ad1fd08dc6a05e1497d7dc70fb4bbbd7,61.141909,21.3764,907198665,uuuu,FI,FI,1481176832,61.158301,21.38616,0,Rauma,85683095,907/198/665/907198665.geojson,localadmin,85683095,figov,,,FI
"28.3702147736,61.5336984035,29.6968256275,62.4177569948",uuuu,85633143,,4496a90132f5cea323adc23624a5c2fa,,cdbd63fcd47ce65024cb99421d874c4b,61.915397,29.086844,907198867,uuuu,FI,FI,1481176845,61.776643,29.055924,0,Savonlinna,85683109,907/198/867/907198867.geojson,localadmin,85683109,figov,,,FI
"22.1603136299,60.6267482366,22.9422832123,60.9558288562",uuuu,85633143,,8695652bb81a57a727a718445bac08f8,,b6b2d2adbf7da02ed522e93e21eecd3f,60.787692,22.547637,907198921,uuuu,FI,FI,1481176849,60.767496,22.541803,0,Poytya,85683073,907/198/921/907198921.geojson,localadmin,85683073,figov,,,FI
"20.0175922087,60.1432394528,20.3298246381,60.3410564197",uuuu,85633143,,907322106cdaeaf94fc5abdeb3f133a8,,7a54623bda210de9bf94fed5b64c6d4f,60.231102,20.169455,907198499,uuuu,FI,FI,1470851988,60.221055,20.167796,0,Sund,85667867,907/198/499/907198499.geojson,localadmin,85667867,,,,FI
"23.6565113093,63.7562556751,24.2474522594,64.0919295122",uuuu,85633143,,da0c2aef1ec61228c7b2b8228ab5c126,,d1380597e7a30de567bc0690ff403d59,63.925645,23.968318,907198997,uuuu,FI,FI,1481176852,63.933868,24.02168,0,Kannus,85683125,907/198/997/907198997.geojson,localadmin,85683125,figov,,,FI
"23.2763346228,60.7397738011,23.5646684937,60.9476177989",uuuu,85633143,,c080d5fdb8cdb05966e68aac87727be1,,ffeb102a0a10d5bac7d473905c03ffdb,60.837094,23.459915,907198951,uuuu,FI,FI,1481176850,60.825409,23.47406,0,Jokioinen,85683077,907/198/951/907198951.geojson,localadmin,85683077,figov,,,FI
"27.7474940403,61.0615933163,28.4091930902,61.379686546",uuuu,85633143,,4a27dc28fb3e0e91f6eaab2ff789f186,,c792ce66ab5dc93e746e3f9d6a14da44,61.232836,28.091962,907198779,uuuu,FI,FI,1481176840,61.234771,28.085872,0,Taipalsaari,85683103,907/198/779/907198779.geojson,localadmin,85683103,figov,,,FI
"25.7679891073,61.9965963759,26.3316735247,62.2358638766",uuuu,85633143,,9ad0d39d05eb67913aa140e02ec860d8,,2385a85327fb0dd8dcd56fe29842ea14,62.109791,26.074815,907198813,uuuu,FI,FI,1481176841,62.112368,26.117277,0,Toivakka,85683117,907/198/813/907198813.geojson,localadmin,85683117,figov,,,FI
"24.1254914142,60.2461982126,24.6495309473,60.5858011888",uuuu,85633143,,39487a5c17eecd8e0c833552375c7227,,855c15a85d2db74b2d99ac66266b4972,60.408445,24.396762,907198595,uuuu,FI,FI,1481176829,60.395098,24.418376,0,Vihti,85683067,907/198/595/907198595.geojson,localadmin,85683067,figov,,,FI
"27.5727886563,60.9937523697,27.9911687894,61.1697172013",uuuu,85633143,,0b1eb00db95fe7c25b66d29701c17cd7,,63ba420a585d3eb0c1b75cacc693d851,61.074174,27.797145,907198959,uuuu,FI,FI,1481176850,61.078381,27.79703,0,Lemi,85683103,907/198/959/907198959.geojson,localadmin,85683103,figov,,,FI
"19.0832000706,59.956410432,19.8493249404,60.6657874028",uuuu,0,,f7aebeb4ba8f7aacdaf0bbe09f2ba15d,,6f97a66e09701420ba3c07d7c4b9e18d,60.310949,19.446326,907198477,uuuu,FI,FI,1470851984,60.539796,19.438309,0,Hammarland,-1,907/198/477/907198477.geojson,localadmin,0,,,,FI
"26.826603556,62.4423412017,27.5394847873,62.8499457843",uuuu,85633143,,4a04e0df31ad3aefca6f4b2591357710,,292d5c4fe3dbcd0ccaea0d7c6a2be82d,62.619782,27.155351,907198847,uuuu,FI,FI,1481176843,62.617248,27.155103,0,Suonenjoki,85683131,907/198/847/907198847.geojson,localadmin,85683131,figov,,,FI
"22.4398455292,60.2100594187,22.8804460883,60.3930789269",uuuu,85633143,,0e95966708876fe89aa7d181cae94a17,,ecff878195795e5c37654a5c5508044e,60.299559,22.665577,907198941,uuuu,FI,FI,1481176849,60.30317,22.661396,0,Sauvo,85683073,907/198/941/907198941.geojson,localadmin,85683073,figov,,,FI
"28.9413357096,62.3597484209,29.7633226755,62.7223470469",uuuu,85633143,,a5de449cd0b3fb9462ea5e8986685f54,,6634d71514b714491e9bf9894d6768f4,62.542094,29.3828,907198863,uuuu,FI,FI,1481176844,62.539247,29.382861,0,Liperi,85683133,907/198/863/907198863.geojson,localadmin,85683133,figov,,,FI
"24.4993021356,59.9014047844,24.9422998416,60.3639007023",uuuu,85633143,,dda5adc772e20b017494fd8015f0b5b5,,4dc6a7e877c24f9634a548e6c0477e12,60.164108,24.713587,907198517,uuuu,FI,FI,1481176826,60.135897,24.716896,0,Espoo,85683067,907/198/517/907198517.geojson,localadmin,85683067,figov,,,FI
"27.6743989717,61.3503928996,28.8178658839,61.7169412101",uuuu,85633143,,d5cea82a1db02e0ce168f0f2ffa57ef7,,be11775e0c45870a3353f4981fd55819,61.51077,28.193846,907198757,uuuu,FI,FI,1481176838,61.530635,28.23292,0,Puumala,85683109,907/198/757/907198757.geojson,localadmin,85683109,figov,,,FI
"29.4072677793,61.7220728045,30.4830867015,62.2577529851",uuuu,85633143,,60bbfb9ad2bb7c33aec35f04cf6f03a9,,5f9dc4291a2372cb6d4a9e7a23fcb3ed,62.028971,29.919394,907198727,uuuu,FI,FI,1481176835,61.987709,29.866515,0,Kitee,85683133,907/198/727/907198727.geojson,localadmin,85683133,figov,,,FI
"25.0453432655,60.5016310838,25.5254231513,60.8408511915",uuuu,85633143,,f48ecc9389dad9d4c7d1ffe4a00e53cc,,c51e73a24601abd6ea0df31b0b77a574,60.661042,25.279125,907198557,uuuu,FI,FI,1481176827,60.649391,25.298499,0,Mantsala,85683067,907/198/557/907198557.geojson,localadmin,85683067,figov,,,FI
"21.5058703402,60.2600004045,22.1078421809,60.5636739857",uuuu,85633143,,e4c7ddb73043013c95f07025c43ba95e,,6c3d5e6b622d9d3e556306358d07a78d,60.402822,21.828496,907198913,uuuu,FI,FI,1481176848,60.406027,21.873892,0,Naantali,85683073,907/198/913/907198913.geojson,localadmin,85683073,figov,,,FI
"24.0467482465,60.5524914803,24.6909498293,60.8203496103",uuuu,85633143,,9df6a15c4e16830ced2e0f20da8e2d6a,,53c560042c1727ca354d73423c4f3a54,60.691121,24.338978,907198573,uuuu,FI,FI,1481176828,60.691361,24.300778,0,Loppi,85683077,907/198/573/907198573.geojson,localadmin,85683077,figov,,,FI
"25.0385338914,60.4429087175,25.1693004514,60.5167309519",uuuu,85633143,,5d8002de87b120d9dada7a60b776293c,,e03d2585defc026fd2c812e49c1a6a9b,60.48051,25.100428,907198639,uuuu,FI,FI,1481176831,60.474412,25.095144,0,Jarvenpaa,85683067,907/198/639/907198639.geojson,localadmin,85683067,figov,,,FI
"28.6685686665,61.0792549913,29.0219658354,61.2843543063",uuuu,85633143,,af1019aeaf39accdeb5897cdcd991a46,,1992d2149b9b5214ea4144801594543b,61.186654,28.839007,907198977,uuuu,FI,FI,1481176852,61.185368,28.838984,0,Imatra,85683103,907/198/977/907198977.geojson,localadmin,85683103,figov,,,FI
"21.8440945905,60.8720057423,22.2636319124,61.3087891267",uuuu,85633143,,980ae3eccb9c61cc2b0676ed8ecacade,,05562bab05b2c932c49054dc168d29d7,61.090133,22.069049,907198915,uuuu,FI,FI,1481176848,61.123042,22.121295,0,Eura,85683095,907/198/915/907198915.geojson,localadmin,85683095,figov,,,FI
"19.6582833656,59.5950638813,20.2579423695,60.1432394528",uuuu,0,,af29305d86ef1765bd61519360b6d762,,975ae7d8dcd71ef7eb0deb551fff5460,59.8799,19.965467,907198483,uuuu,FI,FI,1470851985,59.849754,19.936087,0,Lemland,-1,907/198/483/907198483.geojson,localadmin,0,,,,FI
"20.2018034418,60.1239329303,21.1513411135,60.8766366924",uuuu,0,,069b5381018bcbedf14d7bca1ec64620,,909712dafb0042689b12e0e08bccfbcb,60.556446,20.770643,907198555,uuuu,FI,FI,1470851998,60.556615,20.896459,0,Brando,-1,907/198/555/907198555.geojson,localadmin,0,,,,FI
"22.5224658612,60.8132460768,22.8169714932,60.9901992239",uuuu,85633143,,21fdb504aa69a898e8b4f79511445d26,,3a992fd2347253ce7ef1fde88cdcac72,60.881223,22.670455,907198923,uuuu,FI,FI,1481176849,60.867514,22.682008,0,Oripaa,85683073,907/198/923/907198923.geojson,localadmin,85683073,figov,,,FI
"26.1957035334,62.1928380325,26.7803033873,62.5781539963",uuuu,85633143,,b0e4e91b25404feffe5d1d395bca64b1,,83ad5304be8d8eb7996ca30dce9935f5,62.379426,26.452491,907198817,uuuu,FI,FI,1481176841,62.38256,26.447937,0,Hankasalmi,85683117,907/198/817/907198817.geojson,localadmin,85683117,figov,,,FI
"27.3565695032,60.3449234341,27.8887419057,60.6608501248",uuuu,85633143,,c5040af405071228fc2eda1de5a102c5,,0e58ba154ec2c41693c601ececdb4e4e,60.528208,27.607369,907198719,uuuu,FI,FI,1481176835,60.520638,27.611431,0,Virolahti,85683081,907/198/719/907198719.geojson,localadmin,85683081,figov,,,FI
"25.6596491478,60.5487405276,26.0147786155,60.735870732",uuuu,85633143,,83f917b51a766b23dbf1ccfcd37b5001,,447915423700983b07fa657c48651cfa,60.642082,25.842071,907198681,uuuu,FI,FI,1481176832,60.640889,25.839379,0,Myrskyla,85683067,907/198/681/907198681.geojson,localadmin,85683067,figov,,,FI
"24.5629361862,60.5081276193,25.1124618017,60.684992121",uuuu,85633143,,83d7d0c98d6ef837ef09e30fbf8f219a,,be39881cdb3e915ac50c0fc9f0c739ff,60.609007,24.820403,907198603,uuuu,FI,FI,1481176829,60.612482,24.839081,0,Hyvinkaa,85683067,907/198/603/907198603.geojson,localadmin,85683067,figov,,,FI
"24.7133101254,60.6593013884,25.1930665884,60.9278385965",uuuu,85633143,,15afaa80e700b0af817f0b55131768ea,,d4af2ad0db3e265e1a67f3f007801dcb,60.782189,24.960681,907198561,uuuu,FI,FI,1481176827,60.765918,24.977088,0,Hausjarvi,85683077,907/198/561/907198561.geojson,localadmin,85683077,figov,,,FI
"22.141903593,60.9160125279,22.7015445018,61.2519406251",uuuu,85633143,,8578f15da0bd19a69d6b5312a0a1504c,,c08c9fb393d5e384be99c10ef049ccbb,61.065828,22.381133,907198925,uuuu,FI,FI,1481176849,61.064074,22.381224,0,Sakyla,85683095,907/198/925/907198925.geojson,localadmin,85683095,figov,,,FI
"25.0785719292,60.7519551589,25.4496067445,60.9816768585",uuuu,85633143,,06b5ec65a9fffbf762750ce297113950,,0657b2754467c7677ce9d828067a34bd,60.857873,25.268141,907198567,uuuu,FI,FI,1481176827,60.855295,25.270952,0,Karkola,85683091,907/198/567/907198567.geojson,localadmin,85683091,figov,,,FI
"25.4374271246,61.3106213166,26.1877349566,61.718380652",uuuu,85633143,,88e2b6b0ed2cba7cff76fa6dcbb56c7f,,ab9e1ced2d3188284e78037d01010322,61.498464,25.721742,907198701,uuuu,FI,FI,1481176834,61.511959,25.68434,0,Sysma,85683091,907/198/701/907198701.geojson,localadmin,85683091,figov,,,FI
"22.1438372195,60.5037981202,22.4150036643,60.7372929019",uuuu,85633143,,026a962a7c545e64795165503ca903e8,,f56f63a486a125f8ddb6d9b0bf93d17d,60.605047,22.289988,907198981,uuuu,FI,FI,1481176852,60.621789,22.299236,0,Rusko,85683073,907/198/981/907198981.geojson,localadmin,85683073,figov,,,FI
"20.728120034,61.9216684732,21.7662068865,62.4242987384",uuuu,85633143,,89b0f07ebacb34386577f398a8f8e433,,62dcda31df10b37bc6d77e5f28dda709,62.132268,21.247851,907198827,uuuu,FI,FI,1481176842,62.107218,21.255646,0,Kristiinankaupunki,85683119,907/198/827/907198827.geojson,localadmin,85683119,figov,,,FI
"21.770638867,60.5576460563,22.4150036643,60.9042053838",uuuu,85633143,,30cd398433f8b6c56b683d095784f01a,,9fe92691eb66f7a7499b709bd41af31c,60.740102,22.026144,907198907,uuuu,FI,FI,1481176848,60.756592,22.021205,0,Mynamaki,85683073,907/198/907/907198907.geojson,localadmin,85683073,figov,,,FI
"23.7526574844,59.7516960272,24.3162836407,60.1501172399",uuuu,85633143,,fcae0fc865cd57370d3fa437c1d5c2fd,,2fa4fe40f18646fe5e8b888bb5f0445d,59.960416,24.05499,907198509,uuuu,FI,FI,1481176826,59.955146,24.049604,0,Inkoo,85683067,907/198/509/907198509.geojson,localadmin,85683067,figov,,,FI
"27.3712277307,61.5455955333,28.2277848582,62.0652775286",uuuu,85633143,,ead8545f83ad9cd7a1e03ba9b5c23a22,,0ccec76f4c4acd8bfcec304530a61d48,61.840826,27.809106,907198761,uuuu,FI,FI,1481176838,61.840639,27.808668,0,Juva,85683109,907/198/761/907198761.geojson,localadmin,85683109,figov,,,FI
"20.1334775805,60.0415995082,20.3405495486,60.1766972335",uuuu,0,,5ff0433b3b95e12cbd3c12a03b41bf9f,,d571a054f6db484c7f9ab5500e1ee3da,60.116576,20.241492,907198491,uuuu,FI,FI,1470851987,60.125152,20.243063,0,Lumparland,-1,907/198/491/907198491.geojson,localadmin,0,,,,FI
"28.6327064259,62.570167479,29.3039567621,62.8484795068",uuuu,85633143,,63329ed655d40e40a6970654f3f18396,,df13bb4eeb661c5c768783b414f231da,62.721838,28.953471,907198859,uuuu,FI,FI,1481176844,62.688012,28.902672,0,Outokumpu,85683133,907/198/859/907198859.geojson,localadmin,85683133,figov,,,FI
"25.0075357612,60.8543589049,25.8221945308,61.1507073194",uuuu,85633143,,27a88738b84159d15b0e247e13fcef35,,0a5e29acc019b71d9a916091d4787d4f,61.006743,25.389559,907198585,uuuu,FI,FI,1481176828,60.98896,25.423575,0,Hollola,85683091,907/198/585/907198585.geojson,localadmin,85683091,figov,,,FI
"25.904959057,60.4996028165,26.3802015907,60.7623454028",uuuu,85633143,,31488e5586ac3bb2dd38a5e25ad275a3,,9760130a667132e678124435c3611fdd,60.637137,26.1985,907198607,uuuu,FI,FI,1481176829,60.643813,26.257862,0,Lapinjarvi,85683067,907/198/607/907198607.geojson,localadmin,85683067,figov,,,FI
"19.7978546389,60.2298915798,20.5640371886,60.7620023568",uuuu,0,,5ec3153fd2b4929f6f841769b5991df9,,a6dcef00e8be5e6333950aa585b86f41,60.521499,20.099652,907198535,uuuu,FI,FI,1470851994,60.563327,20.09563,0,Saltvik,-1,907/198/535/907198535.geojson,localadmin,0,,,,FI
"25.8010023716,60.0446972153,26.6563967257,60.6613579613",uuuu,85633143,,0df5f94e8f82a66c5950af7064d0afdb,,1006eb6adda7ad12026d5ce562bd9694,60.36659,26.240885,907198469,uuuu,FI,FI,1481176826,60.313799,26.28288,0,Loviisa,85683067,907/198/469/907198469.geojson,localadmin,85683067,figov,,,FI
"24.0082628767,60.0224955653,24.3617682425,60.2946454689",uuuu,85633143,,2671c2eba3f00c4316a84fffc24c67d3,,289cbac3c082f0fe73ccb493ac74b1da,60.169033,24.220675,907198709,uuuu,FI,FI,1481176834,60.18775,24.223276,0,Siuntio,85683067,907/198/709/907198709.geojson,localadmin,85683067,figov,,,FI
"23.5863109041,60.129492556,24.3056956351,60.6538463308",uuuu,85633143,,09564b0c80dc5f5cc7b0f78d88935001,,25a049c0cb1a992746490a0044a0c3cf,60.360513,23.943999,907198655,uuuu,FI,FI,1481176832,60.35341,23.949417,0,Lohja,85683067,907/198/655/907198655.geojson,localadmin,85683067,figov,,,FI
"24.0385913074,64.898464247,25.134789951,65.1739415202",uuuu,85633143,,5bf04ff32f305d1eabd93c8ccf6cb1bb,,061061434d8258718e63cd2a24e7e1e8,65.047941,24.580362,907199435,uuuu,FI,FI,1481176880,65.040431,24.580362,0,Hailuoto,85683143,907/199/435/907199435.geojson,localadmin,85683143,figov,,,FI
"23.4579119636,62.7300826367,24.3573458061,63.1585733352",uuuu,85633143,,6dd61b6543ee180ef31557562ade22d1,,5a39ee0f41939f2f3a8168112a03a4e9,62.96927,23.908881,907199105,uuuu,FI,FI,1481176860,62.934362,23.840478,0,Alajarvi,85683113,907/199/105/907199105.geojson,localadmin,85683113,figov,,,FI
"22.3026209162,62.3191979472,23.367803168,63.0853649248",uuuu,85633143,,9e677dd9157b8d41e6ee7dc35b49cab7,,457c835c08921f18b7a7736bc83dea89,62.742064,22.903655,907199285,uuuu,FI,FI,1481176869,62.692972,22.999388,0,Seinajoki,85683113,907/199/285/907199285.geojson,localadmin,85683113,figov,,,FI
"25.6927421087,69.1475801004,28.3452695648,70.092293213",uuuu,85633143,,8043e1ead42e5f90f54f3e6a16bf0e33,,988e53ba111b9de64a02ac1f95bdfb6f,69.659525,26.959449,907199575,uuuu,FI,FI,1481176889,69.655883,26.758904,0,Utsjoki,85683147,907/199/575/907199575.geojson,localadmin,85683147,figov,,,FI
"25.0435135925,62.8184639411,25.7074841326,63.0992692231",uuuu,85633143,,390db334b8b86b12ebd2408e5a874dbc,,ed4561c3615b893a3913b1a44396d086,62.968735,25.340264,907199227,uuuu,FI,FI,1481176866,62.967518,25.335293,0,Kannonkoski,85683117,907/199/227/907199227.geojson,localadmin,85683117,figov,,,FI
"22.4341601321,61.1825290555,23.2873309899,61.7238392306",uuuu,85633143,,d7716f602504124fd1051a2e3b8c8647,,f075ce486f2194382feab1f23b13f95e,61.415668,22.886255,907199751,uuuu,FI,FI,1481176897,61.415682,22.886506,0,Sastamala,85683099,907/199/751/907199751.geojson,localadmin,85683099,figov,,,FI
"25.681004107,65.7006400705,27.4945875611,66.3018936318",uuuu,85633143,,1da3d578dc415a480630d57bb623f0ba,,1337fbc280df57b47a739132c6308d30,65.980488,26.616803,907199493,uuuu,FI,FI,1481176884,65.963607,26.616684,0,Ranua,85683147,907/199/493/907199493.geojson,localadmin,85683147,figov,,,FI
"24.1327528329,65.3372876059,24.7534901049,65.8074182681",uuuu,85633143,,9adb59948b0b8810136161e904817ccf,,05c02049e07f85a7dcde8860114baf16,65.585633,24.394198,907199597,uuuu,FI,FI,1481176889,65.585615,24.394116,0,Kemi,85683147,907/199/597/907199597.geojson,localadmin,85683147,figov,,,FI
"22.0965031622,63.4730194063,23.4057586753,64.0093819127",uuuu,85633143,,ef6d475466d59f28417c03fe54452fea,,0e0a0a45747a4555e240be41adf18b2c,63.849281,22.531343,907199167,uuuu,FI,FI,1481176863,63.861147,22.490711,0,Luoto,85683119,907/199/167/907199167.geojson,localadmin,85683119,figov,,,FI
"22.4150036643,60.5658761434,22.687587563,60.7372929019",uuuu,85633143,,2bbea2b689d732cdf8b4a9c1926db5d5,,dbb2eae1b3cc96d3e746d9db7660af35,60.636566,22.545693,907199059,uuuu,FI,FI,1481176857,60.62435,22.543286,0,Aura,85683073,907/199/059/907199059.geojson,localadmin,85683073,figov,,,FI
"23.9434001565,64.3260238135,25.6125804107,65.0079473474",uuuu,85633143,,78f9cb0538110bedc17b7340f00663f1,,c258f6f5c9394a6a792d622d7427ce33,64.743188,24.804053,907199705,uuuu,FI,FI,1481176895,64.66609,25.011604,0,Siikajoki,85683143,907/199/705/907199705.geojson,localadmin,85683143,figov,,,FI
"24.7729209672,63.2315597624,25.333469424,63.4671681862",uuuu,85633143,,0573f636539e95d7e5c2251cbe4b24dc,,4ccd8d8425083d58a96b4f35a1cd5e86,63.333475,25.029321,907199139,uuuu,FI,FI,1481176862,63.345074,25.029327,0,Kinnula,85683117,907/199/139/907199139.geojson,localadmin,85683117,figov,,,FI
"23.5401101014,66.9379070585,24.8702589304,67.638818947",uuuu,85633143,,b24b1db26aed8d2996fb505913808e18,,890949494333177486dba7ee05b595c0,67.250858,24.149802,907199583,uuuu,FI,FI,1481176889,67.321534,24.084667,0,Kolari,85683147,907/199/583/907199583.geojson,localadmin,85683147,figov,,,FI
"20.4660342811,62.2037824066,21.7909676741,62.7676659584",uuuu,85633143,,469edef9b84b0df6555c74475309a767,,846deb1ad1aa5cabb5e3a283017c2640,62.51264,21.105877,907199661,uuuu,FI,FI,1481176893,62.505653,21.06108,0,Narpio,85683119,907/199/661/907199661.geojson,localadmin,85683119,figov,,,FI
"21.6568059508,62.2690057787,23.1445182276,62.8654963924",uuuu,85633143,,51ef52fb7464d9fa65d9607533af71bd,,24a774f1fa6b5ac46cc8b2c53f75e02a,62.548713,22.466382,907199007,uuuu,FI,FI,1481176853,62.45071,22.787289,0,Kurikka,85683113,907/199/007/907199007.geojson,localadmin,85683113,figov,,,FI
"25.4256935836,64.842475908,25.7292256443,64.948263722",uuuu,85633143,,65565d535cc0ad3839e99bf973b15dca,,9484ebf6dd39e003d26c75305bc88407,64.898536,25.573408,907199479,uuuu,FI,FI,1481176883,64.892831,25.585613,0,Kempele,85683143,907/199/479/907199479.geojson,localadmin,85683143,figov,,,FI
"24.5246440053,61.6306526567,25.5962234983,62.2108012362",uuuu,85633143,,199d1767bdf072d70365fb8b2b35a681,,24ae56fed68d26ab2c7335b38ece6809,61.919639,25.057391,907199101,uuuu,FI,FI,1481176860,61.970777,25.065541,0,Jamsa,85683117,907/199/101/907199101.geojson,localadmin,85683117,figov,,,FI
"24.1501612897,65.2924801707,25.9391908927,66.1162389307",uuuu,85633143,,328563c77b3a568f18accfe52bcade38,,a0f71861ad76de98db1a16f4bc7180eb,65.742067,25.155659,907199485,uuuu,FI,FI,1481176884,65.920314,25.515036,0,Simo,85683147,907/199/485/907199485.geojson,localadmin,85683147,figov,,,FI
"24.4361907334,65.6950372529,25.2267139202,66.0602502585",uuuu,85633143,,97c4e4c5ed8494c8d0eb0d3dc8e3c707,,3126cc77840f7f61468610e69cd2299b,65.875816,24.785299,907199569,uuuu,FI,FI,1481176889,65.848469,24.779916,0,Keminmaa,85683147,907/199/569/907199569.geojson,localadmin,85683147,figov,,,FI
"23.4932001143,61.0573551518,23.958595805,61.2589791823",uuuu,85633143,,84069e37437e9bfca713dbfc3de99bf6,,5f7759070753f970ec886648952ed058,61.153978,23.747391,907199731,uuuu,FI,FI,1481176896,61.150068,23.743948,0,Akaa,85683099,907/199/731/907199731.geojson,localadmin,85683099,figov,,,FI
"23.208301348,61.5160873678,23.8851107196,62.1650074468",uuuu,85633143,,52d4837fd01dded50cf8170a0385c69f,,f8fc7a83503fa2f73bd574d85b4bb568,61.840659,23.563841,907199275,uuuu,FI,FI,1481176869,61.985568,23.540808,0,Ylojarvi,85683099,907/199/275/907199275.geojson,localadmin,85683099,figov,,,FI
"24.865170337,63.9216024997,25.8545822684,64.3735391592",uuuu,85633143,,d433dc12229413bb2ea85bbb01e61842,,8f28ec93d1b26c5712d511ca2fc4a8dd,64.134837,25.361633,907199471,uuuu,FI,FI,1481176882,64.127861,25.392588,0,Haapavesi,85683143,907/199/471/907199471.geojson,localadmin,85683143,figov,,,FI
"27.7966065114,63.6688114762,29.2110310565,64.3752309991",uuuu,85633143,,aafe4f04e9f48eedf6c4b79070b1606b,,3da04e0e68166950a77b30f8fe7b0f95,64.048119,28.445691,907199319,uuuu,FI,FI,1481176872,64.068241,28.280036,0,Sotkamo,85683137,907/199/319/907199319.geojson,localadmin,85683137,figov,,,FI
"20.548636402,68.1159647234,25.0271957215,69.3118841445",uuuu,85633143,,d85d55703bf003b42b49254a02e0c226,,0b4432893f4ecda2f0fe48ccb23da785,68.651503,22.870984,907199599,uuuu,FI,FI,1481176889,68.436211,23.463279,0,Enontekio,85683147,907/199/599/907199599.geojson,localadmin,85683147,figov,,,FI
"24.7828055478,59.9224932379,25.254496669,60.2978394089",uuuu,85633143,,c25505d5973cd9512c62d2276a23a2bc,,ddd1b23eca30988aaa8e18dbe531f5b1,60.113924,25.017104,907199715,uuuu,FI,FI,1481176896,60.09489,25.012523,0,Helsinki,85683067,907/199/715/907199715.geojson,localadmin,85683067,figov,,,FI
"29.9496409095,62.0606603898,30.7891818613,62.4163491666",uuuu,85633143,,52039eb437e5a603967d16a3167f3941,,515e8c87e792f9a0df4aa934d479a3ee,62.255202,30.381995,907199417,uuuu,FI,FI,1481176879,62.223983,30.388226,0,Tohmajarvi,85683133,907/199/417/907199417.geojson,localadmin,85683133,figov,,,FI
"22.7883357788,59.6511886481,23.9863772297,60.2060012571",uuuu,85633143,,993bd80f418db5091af8c252a33e191b,,beae90ad54861a52c9669e665c4bfbd5,59.938017,23.450877,907199747,uuuu,FI,FI,1481176897,59.933931,23.509855,0,Raasepori,85683067,907/199/747/907199747.geojson,localadmin,85683067,figov,,,FI
"23.9919641296,62.6755518047,24.5195919483,63.0132736314",uuuu,85633143,,2730bd9f9f01f5417c94995344057c35,,758f2462f023af1e9f270cbd7288cdec,62.840766,24.235977,907199079,uuuu,FI,FI,1481176858,62.870958,24.235428,0,Soini,85683113,907/199/079/907199079.geojson,localadmin,85683113,figov,,,FI
"28.3597234212,63.5580892041,29.204865278,63.8824146681",uuuu,85633143,,588fa2a0d232ffa114d30ee020599186,,cd9494b2871f89e61ca1a2e4ef496256,63.737356,28.757498,907199405,uuuu,FI,FI,1481176879,63.720822,28.751156,0,Valtimo,85683133,907/199/405/907199405.geojson,localadmin,85683133,figov,,,FI
"19.9131076375,60.0466654679,19.9732859288,60.1289863808",uuuu,85633143,,57a52dc72064100839167b284c954979,,c41c22356e6411e31db7ea7d30b8550a,60.087881,19.942511,907199729,uuuu,FI,FI,1470852409,60.086164,19.94546,0,Maarianhamina,85667871,907/199/729/907199729.geojson,localadmin,85667871,,,,FI
"24.7462358484,60.2372175528,25.1930682903,60.4012548545",uuuu,85633143,,2fb99a82c03c862c15c9e0224ab051d9,,aa1e1570d0cb8a1aacc6f0c126e76b89,60.313279,24.950674,907199651,uuuu,FI,FI,1481176892,60.326654,24.854159,0,Vantaa,85683067,907/199/651/907199651.geojson,localadmin,85683067,figov,,,FI
"20.284325635,59.4541440185,21.345645063,60.1039680913",uuuu,0,,b1698ab11a56b5f9d0a5ecfe82fb04b4,,1e41e854ab258a4943c96303a365d07d,59.742582,20.899207,907199659,uuuu,FI,FI,1470852388,59.740966,20.935393,0,Kokar,-1,907/199/659/907199659.geojson,localadmin,0,,,,FI
"25.525033984,63.7868750399,26.251386636,64.1106440026",uuuu,85633143,,5ee6a352b69cef1a98ce3c90c1296b7f,,08e44370be2c3a0e27ef934c9b22dbec,63.960118,25.859749,907199465,uuuu,FI,FI,1481176882,63.965104,25.85962,0,Karsamaki,85683143,907/199/465/907199465.geojson,localadmin,85683143,figov,,,FI
"25.3480441826,63.4291308523,26.2919656874,63.9263763852",uuuu,85633143,,f079324afa1635653ee081cc555099f5,,89cd310109ed372fe09c4126d21d276d,63.660319,25.920425,907199151,uuuu,FI,FI,1481176862,63.649712,25.967392,0,Pyhajarvi,85683143,907/199/151/907199151.geojson,localadmin,85683143,figov,,,FI
"21.9889446333,59.5010767325,22.9204197114,60.2649787975",uuuu,85633143,,49d4d15747f1cd77bbba3c49f5e6c61d,,318b8be39d048327610a7461bfba9fbc,59.875395,22.449582,907199735,uuuu,FI,FI,1481176896,59.865044,22.458414,0,Kemionsaari,85683073,907/199/735/907199735.geojson,localadmin,85683073,figov,,,FI
"22.7841525644,62.7747093778,23.5405399708,63.1062195791",uuuu,85633143,,2a0f4701b525e4760a47a341b9267492,,b4c045e5120ad26cad6eedebb1961bc5,62.945374,23.149779,907199241,uuuu,FI,FI,1481176866,62.927884,23.186575,0,Lapua,85683113,907/199/241/907199241.geojson,localadmin,85683113,figov,,,FI
"23.6428776762,66.1652753992,25.0504107406,66.7656401664",uuuu,85633143,,f2897b79380abb51772f28c8311f2f11,,95f4d3e08db5dfb13e528c1230d8f89e,66.449863,24.387168,907199549,uuuu,FI,FI,1481176887,66.449099,24.445674,0,Ylitornio,85683147,907/199/549/907199549.geojson,localadmin,85683147,figov,,,FI
"27.712540012,65.2503486767,29.2192869777,65.8462075341",uuuu,85633143,,963b9bc2717ed5ac5e69db9f1b824984,,2661a2bd5fdbff173e03198960356145,65.560305,28.35243,907199503,uuuu,FI,FI,1481176885,65.546257,28.352669,0,Taivalkoski,85683143,907/199/503/907199503.geojson,localadmin,85683143,figov,,,FI
"25.5791332737,62.1812785182,26.3309635285,62.5835858218",uuuu,85633143,,3e6ff297946dc14d1055027c1aff7218,,11600a8fbf4488ae8ff41a79f3974aff,62.391429,26.005924,907199203,uuuu,FI,FI,1481176864,62.422779,26.011587,0,Laukaa,85683117,907/199/203/907199203.geojson,localadmin,85683117,figov,,,FI
"22.0348243032,61.6860667421,22.6951533965,62.0117221176",uuuu,85633143,,ee666743ffbc74bbac59af9be1ad2a5a,,f00c0d4d75c2a3077b27c5aee14e1e10,61.839604,22.392721,907199299,uuuu,FI,FI,1481176872,61.843191,22.39793,0,Kankaanpaa,85683095,907/199/299/907199299.geojson,localadmin,85683095,figov,,,FI
"30.3588647473,62.3849509331,31.5867039408,63.1951331291",uuuu,85633143,,5d15df96df42fe25cc6bcecb1652ac9e,,1692730e69c524f38bccf003ca08e102,62.836843,30.994998,907199525,uuuu,FI,FI,1481176886,62.821886,31.05481,0,Ilomantsi,85683133,907/199/525/907199525.geojson,localadmin,85683133,figov,,,FI
"29.6130921292,62.2508029454,31.0935216163,63.0475854383",uuuu,85633143,,754d7cb46c8801f37dadf52c6b8b6816,,9e8356d5757d0447bc23fa594d0ecd59,62.612871,30.327143,907199609,uuuu,FI,FI,1481176890,62.529746,30.439234,0,Joensuu,85683133,907/199/609/907199609.geojson,localadmin,85683133,figov,,,FI
"24.0932384339,67.1511886086,26.0078395199,68.3952887555",uuuu,85633143,,d1e4952ec52a4a5a136f3f3ca3dd6cd3,,5a256e8c3fce169ad21f46a616322c23,67.81302,25.052014,907199565,uuuu,FI,FI,1481176888,67.779031,25.051799,0,Kittila,85683147,907/199/565/907199565.geojson,localadmin,85683147,figov,,,FI
"25.0818715539,63.2456308117,26.1767119202,63.6122932286",uuuu,85633143,,87bb3113058cda6891a97192c613a874,,4f611c8668dd47aecd577c5332ccb231,63.409838,25.584149,907199135,uuuu,FI,FI,1481176862,63.393311,25.592424,0,Pihtipudas,85683117,907/199/135/907199135.geojson,localadmin,85683117,figov,,,FI
"21.5234890051,62.2127711059,21.9389813363,62.4221991273",uuuu,85633143,,d843bc9c7d70d2e816136f74962285cb,,61f588c3e2e41f3575c343ea195e0b8d,62.325426,21.74102,907199065,uuuu,FI,FI,1481176857,62.319486,21.744142,0,Karijoki,85683113,907/199/065/907199065.geojson,localadmin,85683113,figov,,,FI
"22.7992140551,60.5108829419,23.1007171877,60.7156797249",uuuu,85633143,,4b56f33a0725a88009c9e1f12ce60269,,56aeab88ce9f6df48689e41cda97e6f5,60.601227,22.934454,907199259,uuuu,FI,FI,1481176868,60.614054,22.932206,0,Marttila,85683073,907/199/259/907199259.geojson,localadmin,85683073,figov,,,FI
"26.7484041834,63.8445700911,28.1580486463,64.365170117",uuuu,85633143,,30a8b0580fc1d325c6ccbd283854c4d4,,a6d90200cf6cec3d2bb0ce69c6d3ffb9,64.135277,27.433991,907199455,uuuu,FI,FI,1481176881,64.134789,27.539961,0,Kajaani,85683137,907/199/455/907199455.geojson,localadmin,85683137,figov,,,FI
"24.5042385617,62.5208332223,25.6966011188,62.9095599099",uuuu,85633143,,51b0b87186886b250486633b30b2f3c5,,10c999beaf02c638eb907f27a78a3009,62.702362,25.132313,907199213,uuuu,FI,FI,1481176865,62.709257,25.091621,0,Saarijarvi,85683117,907/199/213/907199213.geojson,localadmin,85683117,figov,,,FI
"21.5994740684,63.2820480483,22.9806989104,63.7599452311",uuuu,85633143,,ccb4039a43f7365176170242e535f338,,b00508edb3c65944341b3bbdd3992f1c,63.522532,22.304208,907199045,uuuu,FI,FI,1481176856,63.517713,22.294268,0,Uusikaarlepyy,85683119,907/199/045/907199045.geojson,localadmin,85683119,figov,,,FI
"24.6378556075,63.7521003155,25.3662253494,64.0679382789",uuuu,85633143,,b7da50247c122953bb158b91cf5f0a93,,5d9d1f9871f88c8d0b5340ec6765585b,63.926045,25.024678,907199629,uuuu,FI,FI,1481176891,63.942366,25.026199,0,Nivala,85683143,907/199/629/907199629.geojson,localadmin,85683143,figov,,,FI
"24.33590944,62.710430464,25.3024434968,63.0463319953",uuuu,85633143,,188f1f56ab2b8bf56568c0506796401e,,3ba60cedb38a1cc1e412ef8eb01ae831,62.885657,24.773272,907199083,uuuu,FI,FI,1481176858,62.901237,24.780618,0,Karstula,85683117,907/199/083/907199083.geojson,localadmin,85683117,figov,,,FI
"26.5593947636,63.6105047229,27.3575792655,64.0369738238",uuuu,85633143,,f2f0094c10efdab586f392d200e6b1fe,,b26a85ebbd0147b42c45825c2c9dacae,63.843863,26.998432,907199359,uuuu,FI,FI,1481176876,63.844981,27.004396,0,Vierema,85683131,907/199/359/907199359.geojson,localadmin,85683131,figov,,,FI
"26.1653831307,63.4316344257,26.9249003278,63.9654810242",uuuu,85633143,,afabf1398ab29871ee979156ff4fac0d,,e20cf31404d0176e06e6ae6ad676d680,63.681577,26.536472,907199481,uuuu,FI,FI,1481176883,63.68795,26.529327,0,Kiuruvesi,85683131,907/199/481/907199481.geojson,localadmin,85683131,figov,,,FI
"25.1247457096,62.3770571907,25.6951507051,62.5569066566",uuuu,85633143,,b5b47802ab8f337b0a4b8e213a2a4a04,,6c051413d0fa73ead31e4a5686405970,62.472029,25.411253,907199197,uuuu,FI,FI,1481176864,62.458978,25.43452,0,Uurainen,85683117,907/199/197/907199197.geojson,localadmin,85683117,figov,,,FI
"24.035510182,61.9060589817,24.7309134761,62.2603115436",uuuu,85633143,,687c3cb062a7c7a3c873c42bae8669f8,,d5ae0ff88cc70816a97fd79c319bee5e,62.082929,24.403815,907199743,uuuu,FI,FI,1481176896,62.03807,24.466972,0,Mantta-Vilppula,85683099,907/199/743/907199743.geojson,localadmin,85683099,figov,,,FI
"29.5600432047,62.5662438484,30.288005095,63.0657518427",uuuu,85633143,,68905068830f7e7610c61f032f5b7736,,29d38adabc221540a55ac612b5787b62,62.786039,29.873607,907199445,uuuu,FI,FI,1481176881,62.77829,29.848855,0,Kontiolahti,85683133,907/199/445/907199445.geojson,localadmin,85683133,figov,,,FI
"27.8704797513,64.3073447492,28.8598373094,64.6560499267",uuuu,85633143,,9854418762f3d84cdd247a72d1d95ab4,,d6ad655917a5b139e7172ba7260eab31,64.484894,28.429144,907199527,uuuu,FI,FI,1481176886,64.487743,28.436792,0,Ristijarvi,85683137,907/199/527/907199527.geojson,localadmin,85683137,figov,,,FI
"23.1961381365,63.2636263504,23.723793044,63.4980466525",uuuu,85633143,,2786a5088874da71dfcdda2b150d99ad,,950be64a3b514047a472959a3e625ba6,63.384755,23.443019,907199283,uuuu,FI,FI,1481176869,63.383341,23.438037,0,Evijarvi,85683113,907/199/283/907199283.geojson,localadmin,85683113,figov,,,FI
"23.7567567119,60.7539797253,25.26966276,61.3248813271",uuuu,85633143,,c3540b9bb7e0dc0b23b14c5785213483,,4aa8d5c37fe3874a5249a6b74d62e85c,61.074795,24.57669,907199245,uuuu,FI,FI,1481176867,61.152282,24.702818,0,Hameenlinna,85683077,907/199/245/907199245.geojson,localadmin,85683077,figov,,,FI
"25.1684138849,64.4626822844,26.2911059544,64.8923890246",uuuu,85633143,,5d8886974dc0f67aa6ba6b17f0100ff7,,96e92cee8c13e86331019362c70f4c80,64.67303,25.653079,907199635,uuuu,FI,FI,1481176891,64.76725,25.412398,0,Liminka,85683143,907/199/635/907199635.geojson,localadmin,85683143,figov,,,FI
"28.0476059404,64.449866874,29.4594557551,64.8983749087",uuuu,85633143,,f75e2520b70671bbe9d1d789a011eab2,,d2822b4b2e528c5df9c15edfa023e8fb,64.651104,28.695339,907199531,uuuu,FI,FI,1481176886,64.705874,28.507581,0,Hyrynsalmi,85683137,907/199/531/907199531.geojson,localadmin,85683137,figov,,,FI
"23.97537404,63.5660043227,24.6150347642,63.8862213373",uuuu,85633143,,7cd442e837709fd5f4079434d4fd4f54,,17daa66af7fbc47a259b3dee8eaa9baa,63.73469,24.293394,907199309,uuuu,FI,FI,1481176872,63.726972,24.325145,0,Toholampi,85683125,907/199/309/907199309.geojson,localadmin,85683125,figov,,,FI
"24.2155574411,62.9312154236,24.8816579419,63.1574805919",uuuu,85633143,,067b4409dd6447bb41893eb33f2bfe19,,cccb10aeeeafeac273717983437830ea,63.056277,24.555601,907199107,uuuu,FI,FI,1481176860,63.057013,24.522843,0,Kyyjarvi,85683117,907/199/107/907199107.geojson,localadmin,85683117,figov,,,FI
"24.5036392202,62.3158954369,25.2519130863,62.665662886",uuuu,85633143,,a5c70f5035d48e34ee4027348e09de11,,ba711a1f61a717c47344d665c5de77c1,62.477375,24.862316,907199095,uuuu,FI,FI,1481176859,62.461155,24.893388,0,Multia,85683117,907/199/095/907199095.geojson,localadmin,85683117,figov,,,FI
"23.6979461321,63.0754853617,24.2344809058,63.308576165",uuuu,85633143,,c4840109a0d24c891b4cd0551f1c17b1,,8f4f9691a76adbef9a5135f5b3f5e9b5,63.181305,23.941227,907199273,uuuu,FI,FI,1481176868,63.193524,23.938057,0,Vimpeli,85683113,907/199/273/907199273.geojson,localadmin,85683113,figov,,,FI
"25.5010534229,64.56274403,26.1294898635,64.90445548",uuuu,85633143,,c24f0a545c1a0653b6689c7eb9efa4d7,,5d4674530fc3ba57078c9face33d26c0,64.72465,25.767366,907199615,uuuu,FI,FI,1481176890,64.754225,25.710628,0,Tyrnava,85683143,907/199/615/907199615.geojson,localadmin,85683143,figov,,,FI
"23.8352362231,62.3633263712,24.5843158868,62.7640274943",uuuu,85633143,,c228eccd173845a30393f48ca8a6b5b2,,789924a13e4dc8ba8741f65d09969e0a,62.574292,24.198926,907199089,uuuu,FI,FI,1481176859,62.590051,24.192956,0,Ahtari,85683113,907/199/089/907199089.geojson,localadmin,85683113,figov,,,FI
"23.8901924845,61.3157813274,24.9704799176,61.6271912908",uuuu,85633143,,9978e54b52fc9ea5d479ad0e4bf7a478,,e908600ac67339fd779fe76fd9f34d41,61.480662,24.315779,907199185,uuuu,FI,FI,1481176864,61.493324,24.127972,0,Kangasala,85683099,907/199/185/907199185.geojson,localadmin,85683099,figov,,,FI
"27.2339350792,65.8005948971,28.768425291,66.4922541636",uuuu,85633143,,2327d2575e0e6764a0a3a06cb8e132a7,,6200e0bde49d3fdcfb49d834aa0f1ff6,66.151453,28.045191,907199533,uuuu,FI,FI,1481176886,66.121573,28.057082,0,Posio,85683147,907/199/533/907199533.geojson,localadmin,85683147,figov,,,FI
"23.2067800368,62.0740403498,24.2352696975,62.4943339008",uuuu,85633143,,4529c40dfc3898255f0f2bed2c988ff6,,b3347c8e471e41bff8dedf288f6163be,62.272565,23.703014,907199171,uuuu,FI,FI,1481176863,62.246328,23.668187,0,Virrat,85683099,907/199/171/907199171.geojson,localadmin,85683099,figov,,,FI
"22.925429511,60.5711644885,23.2576955688,60.7741682465",uuuu,85633143,,2ea1263ab9e3f31470a5d16141c499d7,,1882877109b5532c1a2805ff9dc6656d,60.661824,23.126006,907199647,uuuu,FI,FI,1481176892,60.663834,23.137278,0,Koski Tl,85683073,907/199/647/907199647.geojson,localadmin,85683073,figov,,,FI
"26.0247973218,62.4785136842,26.5990883818,62.8482029171",uuuu,85633143,,2115424d04d15fd7be092d180b5303ee,,f57606a36dec8bf8249d24bea8ab5ada,62.65776,26.310455,907199269,uuuu,FI,FI,1481176868,62.649028,26.329861,0,Konnevesi,85683117,907/199/269/907199269.geojson,localadmin,85683117,figov,,,FI
"22.5746262917,60.3643338638,22.8759136788,60.5480505263",uuuu,85633143,,bb55ad100dc70f22071ef308ed24b276,,5066639b3018da02e807e48729a4bfc5,60.453381,22.722265,907199209,uuuu,FI,FI,1481176865,60.460842,22.710094,0,Paimio,85683073,907/199/209/907199209.geojson,localadmin,85683073,figov,,,FI
"20.8296252016,61.2888399524,21.8046275055,61.5301785534",uuuu,85633143,,6c9963e78760063a3963916f7de695dc,,57727693c6dc8e37deec36dc38aea735,61.407536,21.263554,907199643,uuuu,FI,FI,1481176892,61.416909,21.263522,0,Luvia,85683095,907/199/643/907199643.geojson,localadmin,85683095,figov,,,FI
"26.6619701727,62.0058620948,27.6930796358,62.5300176131",uuuu,85633143,,92b57e2693bb420742925491d8d5e9db,,68568744d4ef432f2c3f72cbc12f3a3c,62.292105,27.202321,907199013,uuuu,FI,FI,1481176853,62.281931,27.315367,0,Pieksamaki,85683109,907/199/013/907199013.geojson,localadmin,85683109,figov,,,FI
"22.5106011668,61.7363899122,22.8284218415,61.952107514",uuuu,85633143,,d9797eb51c00cb8cd8c3dd5a813a32fa,,2b98c2ba52349363326d7924495f1726,61.841094,22.672054,907199625,uuuu,FI,FI,1481176891,61.846398,22.661179,0,Jamijarvi,85683095,907/199/625/907199625.geojson,localadmin,85683095,figov,,,FI
"22.8240685249,61.5159420124,23.5004825347,61.7372596623",uuuu,85633143,,742a853b70985463de1a2bcca5a47d8a,,94dd145d878f6e27fe5580639f5f1eb5,61.623524,23.178787,907199131,uuuu,FI,FI,1481176861,61.648927,23.127579,0,Hameenkyro,85683099,907/199/131/907199131.geojson,localadmin,85683099,figov,,,FI
"22.5394019913,63.3473025345,23.3904624548,63.8261377525",uuuu,85633143,,8575cd65f6213d3e823b9fe66aece3f7,,406f567670f086d1cccc04526147e9e5,63.540416,22.988702,907199161,uuuu,FI,FI,1481176863,63.520304,23.027282,0,Pedersoren kunta,85683119,907/199/161/907199161.geojson,localadmin,85683119,figov,,,FI
"27.7346367392,62.1410078981,28.6588906328,62.380506353",uuuu,85633143,,38cd0c4d25eeab2a8895512de928026b,,b0ee235ef5e2842559de599779a02387,62.278972,28.244053,907199707,uuuu,FI,FI,1481176895,62.290494,28.25102,0,Varkaus,85683131,907/199/707/907199707.geojson,localadmin,85683131,figov,,,FI
"24.6752876178,60.202562648,24.7509136436,60.2259132354",uuuu,85633143,,4197a378021db174e65141a31a58379d,,8bdc02029ecaec140e61387b3a4b8890,60.214556,24.713574,907199633,uuuu,FI,FI,1481176891,60.217471,24.71301,0,Kauniainen,85683067,907/199/633/907199633.geojson,localadmin,85683067,figov,,,FI
"26.0705405866,62.9918341173,26.6224568656,63.4433674187",uuuu,85633143,,1e6019e799afa0b842e2a0e3b69727e2,,eb55d457bea7e4f2f694ec78b6038d70,63.19673,26.315587,907199277,uuuu,FI,FI,1481176869,63.177655,26.315512,0,Keitele,85683131,907/199/277/907199277.geojson,localadmin,85683131,figov,,,FI
"25.4739744472,62.4804379177,26.2337642557,62.9207753152",uuuu,85633143,,8ca8bfff6478dc0238004b35b7852aaf,,122162e683d92452e1ae671098d90b0f,62.704483,25.826888,907199205,uuuu,FI,FI,1481176864,62.713392,25.857621,0,Aanekoski,85683117,907/199/205/907199205.geojson,localadmin,85683117,figov,,,FI
"27.2220802629,67.1081063508,29.6594052467,68.1963035524",uuuu,85633143,,083e866f86f606531dc9441281940569,,4711437b3de19fb1897944d028996a7f,67.634346,28.531483,907199579,uuuu,FI,FI,1481176889,67.633176,28.550041,0,Savukoski,85683147,907/199/579/907199579.geojson,localadmin,85683147,figov,,,FI
"29.4672867514,62.99840253,31.2408457826,63.757165328",uuuu,85633143,,43195e090e4d2c2170e0620cabbc618a,,a460d1a1619c0f60dcd520dcf9d3d39c,63.335522,30.187315,907199605,uuuu,FI,FI,1481176890,63.388035,29.952603,0,Lieksa,85683133,907/199/605/907199605.geojson,localadmin,85683133,figov,,,FI
"22.8296768559,63.3803206832,23.8359746421,63.7917102538",uuuu,85633143,,eb2c965bea61c73c073272f702b9bc33,,56d147f84be90face1673391a9da4c25,63.64086,23.34883,907199669,uuuu,FI,FI,1481176893,63.654993,23.31693,0,Kruunupyy,85683119,907/199/669/907199669.geojson,localadmin,85683119,figov,,,FI
"24.2274154852,61.7155382395,24.6666512699,61.9284379674",uuuu,85633143,,2b56bb5f54aed524c651f2cc12a9c9ac,,4ca9b69c6f29d7ed06bdcd8380017a27,61.823992,24.471185,907199385,uuuu,FI,FI,1481176878,61.820122,24.504448,0,Juupajoki,85683099,907/199/385/907199385.geojson,localadmin,85683099,figov,,,FI
"22.2878770162,63.4991103776,24.4927102049,64.1789692938",uuuu,85633143,,6184680dc10af38b0226d5b12e939742,,2ceef6b7c077690aaef5bb9113c61f9c,63.905859,23.306553,907199049,uuuu,FI,FI,1481176856,63.929535,23.213868,0,Kokkola,85683125,907/199/049/907199049.geojson,localadmin,85683125,figov,,,FI
"23.2712552064,62.6482695452,23.8470488426,62.9197322666",uuuu,85633143,,12847a7cbb03b33ce818ecce8f5634e0,,791ae28ca067af308b526ff0874b50d1,62.783909,23.510931,907199291,uuuu,FI,FI,1481176871,62.789766,23.515279,0,Kuortane,85683113,907/199/291/907199291.geojson,localadmin,85683113,figov,,,FI
"22.3532096905,60.447065229,22.8546839606,60.640907194",uuuu,85633143,,fcbd727f87e99ec3ad569aa03440b2ca,,e9c4cb413d74c151f981be5683e15dae,60.552536,22.574699,907199011,uuuu,FI,FI,1481176853,60.528205,22.516144,0,Lieto,85683073,907/199/011/907199011.geojson,localadmin,85683073,figov,,,FI
"21.9787385954,63.6104149904,22.8234405936,63.8329906136",uuuu,85633143,,8403ff34acf0266cde25567abfb172a3,,0c4dccd3f218df9f29ea004d84fcf4f9,63.717466,22.393098,907199069,uuuu,FI,FI,1481176857,63.714224,22.386115,0,Pietarsaari,85683119,907/199/069/907199069.geojson,localadmin,85683119,figov,,,FI
"24.005962719,60.8574315587,24.6243964589,61.2401163151",uuuu,85633143,,78339ed584d742d0295fc3bdb1a5064c,,048dfc4dfc461a868537c293e0e400f2,61.044191,24.286468,907199219,uuuu,FI,FI,1481176865,61.099971,24.33775,0,Hattula,85683077,907/199/219/907199219.geojson,localadmin,85683077,figov,,,FI
"27.9702834344,62.9410123143,28.7623868144,63.2786786507",uuuu,85633143,,6f42d499ff60540a3c0ee8e34982f3f3,,d69f5fbb44508947b4e9211843a4f567,63.096159,28.352068,907199339,uuuu,FI,FI,1481176874,63.035822,28.292011,0,Juankoski,85683131,907/199/339/907199339.geojson,localadmin,85683131,figov,,,FI
"24.2645931231,64.1864531877,24.8362813861,64.3992489366",uuuu,85633143,,ca63ec74a9c8414020621f4f4d5034a3,,ee67519717f7c08b59c659d456a46509,64.303332,24.507316,907199489,uuuu,FI,FI,1481176884,64.285355,24.477872,0,Merijarvi,85683143,907/199/489/907199489.geojson,localadmin,85683143,figov,,,FI
"24.4085424836,63.3586841161,25.0363155553,63.6532376364",uuuu,85633143,,c9a9d79f1b466338166791bff295e7fe,,df7a8ea1b6d9a148a306651648b62a13,63.499793,24.697492,907199175,uuuu,FI,FI,1481176863,63.499436,24.697556,0,Lestijarvi,85683125,907/199/175/907199175.geojson,localadmin,85683125,figov,,,FI
"26.890127759,62.5922636488,28.4579387479,63.403310726",uuuu,85633143,,31d8a81f2b5efa9315740f1ca680070b,,b8f2b178c83022b41d1eae1646a21d6e,62.975256,27.685645,907199673,uuuu,FI,FI,1481176893,62.827534,27.673699,0,Kuopio,85683131,907/199/673/907199673.geojson,localadmin,85683131,figov,,,FI
"25.3795479897,63.9646811894,26.7708709455,64.6289425207",uuuu,85633143,,c9a68dd59f77a833af15952b94091d5c,,67fe0d7b934512fadd3f494facbcbd55,64.328131,25.974342,907199755,uuuu,FI,FI,1481176897,64.309473,25.962486,0,Siikalatva,85683143,907/199/755/907199755.geojson,localadmin,85683143,figov,,,FI
"22.3736883891,61.9981058567,22.8616264353,62.3111035193",uuuu,85633143,,f820341adbd61c356e61b06b76d03009,,3059fdb5dc8bd078b348fdf2434cd220,62.151589,22.615892,907199119,uuuu,FI,FI,1481176861,62.172045,22.644925,0,Karvia,85683095,907/199/119/907199119.geojson,localadmin,85683095,figov,,,FI
"26.0398377907,62.7470205677,26.6813460204,63.043916156",uuuu,85633143,,58f739e0cb5aaf9790addae562f5a0a8,,c7ae4114a3ec001765f9347191768efd,62.899272,26.385492,907199263,uuuu,FI,FI,1481176868,62.902115,26.417209,0,Vesanto,85683131,907/199/263/907199263.geojson,localadmin,85683131,figov,,,FI
"28.9309099102,62.6808535659,29.7232547071,63.109573482",uuuu,85633143,,5910b63ab99011f306e918cd9cbfe4ba,,457af58e251df058b403e2e6d4ee0d31,62.893869,29.357917,907199399,uuuu,FI,FI,1481176879,62.892967,29.384911,0,Polvijarvi,85683133,907/199/399/907199399.geojson,localadmin,85683133,figov,,,FI
"27.3378822335,62.9518722354,27.9491654667,63.2518373559",uuuu,85633143,,08372fcacc2dbe87d1b8f36d723238c1,,3b529d25460cdf1b242cc537ada60983,63.08161,27.656502,907199425,uuuu,FI,FI,1481176880,63.076802,27.631005,0,Siilinjarvi,85683131,907/199/425/907199425.geojson,localadmin,85683131,figov,,,FI
"23.6574123995,63.2581449623,24.1978678066,63.5374273065",uuuu,85633143,,51ab4b0f6d0acf5f69976d4d81aff64d,,d4d6a70e05cfa702479111116c59897b,63.399268,23.908133,907199293,uuuu,FI,FI,1481176871,63.39304,23.886276,0,Veteli,85683125,907/199/293/907199293.geojson,localadmin,85683125,figov,,,FI
"20.8745681297,61.3840240327,22.7249299477,61.7496779307",uuuu,85633143,,567a08f7b94aff12a39ff92e6472d444,,ab82bf123759269e43557b37b2418fa4,61.597413,21.705662,907199653,uuuu,FI,FI,1481176892,61.58356,21.643094,0,Pori,85683095,907/199/653/907199653.geojson,localadmin,85683095,figov,,,FI
"24.1374891017,65.2114925995,26.160110795,65.8223349674",uuuu,85633143,,fa22814d5fa024987aba50fdc561507c,,c0304dbdd024bd65076bff32d6c91130,65.472972,25.30424,907199699,uuuu,FI,FI,1481176895,65.473523,25.306099,0,Ii,85683143,907/199/699/907199699.geojson,localadmin,85683143,figov,,,FI
"24.3986976492,60.7445692871,24.9929680668,61.0323149164",uuuu,85633143,,53a60e910ec50660f198d6f84459acc9,,b3a243859def783b5edf7a677224677e,60.891367,24.685736,907199113,uuuu,FI,FI,1481176861,60.90119,24.665808,0,Janakkala,85683077,907/199/113/907199113.geojson,localadmin,85683077,figov,,,FI
"21.868986212,62.1021355962,22.6632539811,62.5508432803",uuuu,85633143,,027074281b58718a701c79fc78416fbc,,6ca68365374508991d8d5f68fc3b7b47,62.340302,22.25746,907199121,uuuu,FI,FI,1481176861,62.338333,22.2515,0,Kauhajoki,85683113,907/199/121/907199121.geojson,localadmin,85683113,figov,,,FI
"22.1379090707,62.7911419026,22.6941827088,63.1029833701",uuuu,85633143,,7bfe779dd12223a5af9040aa48d2122c,,45f8b5873516ff7f80237ddfcb2ad4e8,62.975597,22.34211,907199075,uuuu,FI,FI,1481176858,62.957165,22.314928,0,Isokyro,85683119,907/199/075/907199075.geojson,localadmin,85683119,figov,,,FI
"22.7788967491,63.9649794864,24.3460666016,64.4834607182",uuuu,85633143,,ee1b6b23df7f871dea39f9632a1194c1,,5db7d7e04d1fcf4daec75e1a825f1730,64.236997,23.613852,907199617,uuuu,FI,FI,1481176891,64.233736,23.625261,0,Kalajoki,85683143,907/199/617/907199617.geojson,localadmin,85683143,figov,,,FI
"23.5462699129,61.230711751,23.9673094479,61.4323860881",uuuu,85633143,,48bbc2eca37c75cdea023d2abd38dd26,,7829b01722f9379c63c8651da45c462f,61.345567,23.777681,907199279,uuuu,FI,FI,1481176869,61.343815,23.794735,0,Lempaala,85683099,907/199/279/907199279.geojson,localadmin,85683099,figov,,,FI
"23.1612262313,62.3677505801,23.9993677934,62.8089345388",uuuu,85633143,,5911fb4b045d318254d1dc627ec1df36,,6817786454af460689ff38f060932b97,62.583234,23.599328,907199157,uuuu,FI,FI,1481176862,62.567694,23.673265,0,Alavus,85683113,907/199/157/907199157.geojson,localadmin,85683113,figov,,,FI
"28.6366553076,61.9961235164,29.132383001,62.2745371469",uuuu,85633143,,ef5f0eb1b88da074c990563f6a9b76b7,,ac82e79599c2fe98797e28feb14ad739,62.124946,28.889432,907199021,uuuu,FI,FI,1481176854,62.107428,28.927055,0,Enonkoski,85683109,907/199/021/907199021.geojson,localadmin,85683109,figov,,,FI
"27.1800123029,64.292890609,28.4630593598,64.5816384599",uuuu,85633143,,a74a5348582dd51cd158c0a63c15e69e,,804254b03ffed3763a629de58d26e9a9,64.423979,27.726171,907199475,uuuu,FI,FI,1481176882,64.441553,27.725216,0,Paltamo,85683137,907/199/475/907199475.geojson,localadmin,85683137,figov,,,FI
"24.0783981945,61.5137419643,24.9169388964,61.8629895063",uuuu,85633143,,a39c42754b70e81b86d54bab7a8ed932,,1545f15a5d75c3ee397cf3526c29295f,61.672536,24.468864,907199393,uuuu,FI,FI,1481176878,61.642733,24.455694,0,Orivesi,85683099,907/199/393/907199393.geojson,localadmin,85683099,figov,,,FI
"23.4772385276,61.3568483984,23.7418475385,61.4874582272",uuuu,85633143,,523ae71a9bb53d269e2071b0809a6f39,,ae8c0500943f7a1a50cf6d514118abba,61.433833,23.607029,907199281,uuuu,FI,FI,1481176869,61.440859,23.609085,0,Pirkkala,85683099,907/199/281/907199281.geojson,localadmin,85683099,figov,,,FI
"24.4940783311,65.9437903399,26.0673243708,66.337640958",uuuu,85633143,,93a52b441c9dfeb8a52bc8481da9f9e3,,0c9bcff5dcbde42ec85ef4155ec1b558,66.131711,25.088908,907199545,uuuu,FI,FI,1481176887,66.12817,25.034395,0,Tervola,85683147,907/199/545/907199545.geojson,localadmin,85683147,figov,,,FI
"21.3605867597,63.0561135347,22.6582020865,63.6702322589",uuuu,85633143,,a85371bd520f51961ec69e4cc91e93f8,,bc2de7032c32aeb95b4d5acc5366f409,63.331706,22.075703,907199763,uuuu,FI,FI,1481176897,63.232623,22.193719,0,Voyri,85683119,907/199/763/907199763.geojson,localadmin,85683119,figov,,,FI
"26.922136413,60.2294061338,27.6495323475,60.8426400374",uuuu,85633143,,184d5ce6659721839cc0b058ef0bf19b,,3562092390b92099ee2ef424d0d50463,60.539376,27.290057,907199723,uuuu,FI,FI,1481176896,60.567852,27.204643,0,Hamina,85683081,907/199/723/907199723.geojson,localadmin,85683081,figov,,,FI
"26.4681445885,66.2890676557,28.2724092288,67.043026895",uuuu,85633143,,9d1f77dcb8e9e70d7baa78eaf81b773e,,cf8a77dfd5dcbdee239e95d00c623cca,66.687963,27.359282,907199539,uuuu,FI,FI,1481176887,66.671394,27.346133,0,Kemijarvi,85683147,907/199/539/907199539.geojson,localadmin,85683147,figov,,,FI
"24.0791391358,61.2332825958,24.915136182,61.4910067085",uuuu,85633143,,27e2e35d91f70b8f7279ab83e98dd821,,295d94635328bdc522167fafa8f252cd,61.350925,24.525528,907199187,uuuu,FI,FI,1481176864,61.336582,24.380081,0,Palkane,85683099,907/199/187/907199187.geojson,localadmin,85683099,figov,,,FI
"21.5115772001,62.3618966302,22.1113754032,62.6432466531",uuuu,85633143,,500d09792c06de033702f15c899274ac,,8499e3ff1951e49b6050cc67b45e8916,62.506141,21.800572,907199665,uuuu,FI,FI,1481176893,62.485479,21.800746,0,Teuva,85683113,907/199/665/907199665.geojson,localadmin,85683113,figov,,,FI
"26.1518532003,65.0871938845,28.1643122064,65.960359611",uuuu,85633143,,fc25c917a8d06fe6e355f79befa9ed66,,7dc18cf234246ab38044708603440c6d,65.448773,27.12877,907199499,uuuu,FI,FI,1481176884,65.435676,27.143765,0,Pudasjarvi,85683143,907/199/499/907199499.geojson,localadmin,85683143,figov,,,FI
"25.4705999867,62.0635541899,25.7952417668,62.2428266457",uuuu,85633143,,f524fbfb2b587e62ac6963bc9e217f41,,d702d3e7396a77a77ff10158fa534ae5,62.139976,25.618551,907199257,uuuu,FI,FI,1481176868,62.130584,25.629616,0,Muurame,85683117,907/199/257/907199257.geojson,localadmin,85683117,figov,,,FI
"28.6108041267,62.9684677165,29.7939892563,63.4497155616",uuuu,85633143,,b435d91be90ff5a46642388c44919641,,8401ef006ca931f1d97131dd387fc7cf,63.20769,29.182188,907199389,uuuu,FI,FI,1481176878,63.226932,29.141567,0,Juuka,85683133,907/199/389/907199389.geojson,localadmin,85683133,figov,,,FI
"28.3859473427,62.7729371134,29.0976021629,63.1367154549",uuuu,85633143,,26f3afbe5a10824df71f16cdc252346f,,c31376802fa2fe5561912e8a3f1d03c5,62.970736,28.742179,907199313,uuuu,FI,FI,1481176872,62.989989,28.736812,0,Kaavi,85683131,907/199/313/907199313.geojson,localadmin,85683131,figov,,,FI
"25.2607803487,61.839211429,26.0513462151,62.4287455719",uuuu,85633143,,44b702114a9fc43018b9e3d2cd9d8846,,796387c9e1b7fec2a0b6cca863f30a8c,62.131113,25.647388,907199265,uuuu,FI,FI,1481176868,61.966051,25.686058,0,Jyvaskyla,85683117,907/199/265/907199265.geojson,localadmin,85683117,figov,,,FI
"26.7940286263,63.299286377,27.667849631,63.6895765559",uuuu,85633143,,99d5ff382b6e971bb9a9647ff36a2ccf,,90c6cdb41300cdde808f3e8a7ee41708,63.52787,27.154878,907199351,uuuu,FI,FI,1481176874,63.526836,27.111914,0,Iisalmi,85683131,907/199/351/907199351.geojson,localadmin,85683131,figov,,,FI
"24.7316112245,63.0078792512,25.3792023846,63.2786542066",uuuu,85633143,,4ebed1d016644cd00498ce02de6bb44f,,352cfa80dce07c76b8b621987f15a3de,63.153486,25.053606,907199147,uuuu,FI,FI,1481176862,63.139341,25.027528,0,Kivijarvi,85683117,907/199/147/907199147.geojson,localadmin,85683117,figov,,,FI
"24.5210329184,63.4580731617,25.3601829359,63.7655798887",uuuu,85633143,,9f90f2685c36263acfb2d8352bced6f3,,a32fc724520f8d928630bfc567ce6c90,63.622874,24.978436,907199141,uuuu,FI,FI,1481176862,63.606463,25.027476,0,Reisjarvi,85683143,907/199/141/907199141.geojson,localadmin,85683143,figov,,,FI
"23.6806223578,61.7871609401,24.453073307,62.1820265693",uuuu,85633143,,f65ecd79a3f583e68e61d143c66b8ee9,,1189a91aec7ad9cb6da68d5ab9424771,61.969718,24.052573,907199295,uuuu,FI,FI,1481176871,61.956537,24.026218,0,Ruovesi,85683099,907/199/295/907199295.geojson,localadmin,85683099,figov,,,FI
"25.749989291,64.4790638591,26.7380344694,64.9808555687",uuuu,85633143,,bfd60437f0f7c9750dc1eca1e19da4ee,,4c293e9f564e0042c366c732aa0174d4,64.758494,26.134573,907199477,uuuu,FI,FI,1481176882,64.798349,26.072087,0,Muhos,85683143,907/199/477/907199477.geojson,localadmin,85683143,figov,,,FI
"27.1184424542,64.5025925189,28.2943013488,65.2227587437",uuuu,85633143,,5045f68e438832b356c05d354d3c50f5,,37d4f936baafea2aeb41668dc458dd36,64.8565,27.744056,907199513,uuuu,FI,FI,1481176885,64.824916,27.703885,0,Puolanka,85683137,907/199/513/907199513.geojson,localadmin,85683137,figov,,,FI
"24.5310227341,64.1094508241,25.2629849953,64.4060989245",uuuu,85633143,,8ef5909fa7ffb4221342790df06959a1,,5429425f844977a71377d1f1823ee909,64.255445,24.876091,907199517,uuuu,FI,FI,1481176885,64.267959,24.876242,0,Oulainen,85683143,907/199/517/907199517.geojson,localadmin,85683143,figov,,,FI
"24.7368491524,66.1553988751,27.3266497495,67.1797682761",uuuu,85633143,,5af155e841731636f47a6f1d65bcd6e4,,42c6816ebbedf93c7fff67fb2bcd450d,66.638155,25.840236,907199591,uuuu,FI,FI,1481176889,66.662643,25.840336,0,Rovaniemi,85683147,907/199/591/907199591.geojson,localadmin,85683147,figov,,,FI
"27.1192711418,63.5024158304,28.1680841041,63.9976275629",uuuu,85633143,,335da6a0328bbf9fe5cc26d5962e602f,,aa95d56b871bce0ee129dd1da4436ed9,63.737841,27.663224,907199331,uuuu,FI,FI,1481176873,63.710461,27.69881,0,Sonkajarvi,85683131,907/199/331/907199331.geojson,localadmin,85683131,figov,,,FI
"23.7535992922,65.6128463991,24.7918246818,66.3322357076",uuuu,85633143,,6132c581815d59991b563b2a02208ea8,,f7caa480c8970d31a8aa843bf2f70552,66.025428,24.283616,907199557,uuuu,FI,FI,1481176888,66.035063,24.290673,0,Tornio,85683147,907/199/557/907199557.geojson,localadmin,85683147,figov,,,FI
"26.2911059544,64.2581891686,27.396978196,64.8352873766",uuuu,85633143,,d393eb339d3ba38810a4beeaaa932b0e,,d6ef1451838da28d084e985be1957d34,64.514741,26.895924,907199621,uuuu,FI,FI,1481176891,64.504158,26.895849,0,Vaala,85683143,907/199/621/907199621.geojson,localadmin,85683143,figov,,,FI
"28.3682465782,65.4879703726,30.1384632061,66.4858532328",uuuu,85633143,,c263d611908831de20639db2f23ccec5,,a51bec45ae801cc1c91f74bc8a88fb1a,65.971529,29.27459,907199519,uuuu,FI,FI,1481176886,65.963874,29.257641,0,Kuusamo,85683143,907/199/519/907199519.geojson,localadmin,85683143,figov,,,FI
"24.1270784148,63.6486583527,24.9687605389,64.0302113839",uuuu,85633143,,a4f3e26d3e0642257fd4c15a3f84e144,,4a178aa19f4209442f296f7592011c1e,63.841627,24.592272,907199347,uuuu,FI,FI,1481176874,63.829297,24.62152,0,Sievi,85683143,907/199/347/907199347.geojson,localadmin,85683143,figov,,,FI
"28.6034302311,63.3478502014,29.7756890205,63.8789423238",uuuu,85633143,,193419edb2b7b6fd452d7612fae530be,,32a408f15cfb2f855eff5c7e88d4993d,63.608009,29.242809,907199409,uuuu,FI,FI,1481176879,63.588807,29.300464,0,Nurmes,85683133,907/199/409/907199409.geojson,localadmin,85683133,figov,,,FI
"24.3039653309,63.942408542,25.0212454599,64.1850173189",uuuu,85633143,,cd98f5f5e36649445a22763e5dfae29f,,dd9cd3bdb806d749efb9ed82540c9f47,64.062041,24.645263,907199437,uuuu,FI,FI,1481176880,64.070245,24.641656,0,Ylivieska,85683143,907/199/437/907199437.geojson,localadmin,85683143,figov,,,FI
"22.9943621714,62.0826650989,23.4240020886,62.3341666993",uuuu,85633143,,f3d266599e5a537c340e350b13125569,,d921af9c5ac483e291c76230d85c5395,62.206706,23.193376,907199155,uuuu,FI,FI,1481176862,62.207443,23.197436,0,Kihnio,85683099,907/199/155/907199155.geojson,localadmin,85683099,figov,,,FI
"26.51797357,66.8859098467,28.3594816791,67.4253208178",uuuu,85633143,,e63590ef319fcf5495a5cb4fd422d079,,28ee2bb49860095abe669eefe8f4e317,67.142586,27.467406,907199571,uuuu,FI,FI,1481176889,67.191708,27.453248,0,Pelkosenniemi,85683147,907/199/571/907199571.geojson,localadmin,85683147,figov,,,FI
"20.1061129975,60.1074906187,20.9876577576,60.8025694453",uuuu,0,,236aaf83bc3ea5efd3f4d596cdf6856e,,c8d8b9ca00d8b13e9dfc6cbc1f0df154,60.404763,20.628523,907199697,uuuu,FI,FI,1470852401,60.265756,20.768202,0,Kumlinge,-1,907/199/697/907199697.geojson,localadmin,0,,,,FI
"24.9556627069,63.5814801024,25.667306323,63.9447656807",uuuu,85633143,,a0d2eb44740d627523bdf6784a1ea588,,dedaad0d217bc3a693f5ae48203fac84,63.773308,25.377723,907199639,uuuu,FI,FI,1481176892,63.773635,25.402072,0,Haapajarvi,85683143,907/199/639/907199639.geojson,localadmin,85683143,figov,,,FI
"24.013003209,62.0231917496,25.071853965,62.5296847628",uuuu,85633143,,8fc684ac6c1564eb4606c102ecd9f07a,,80c5268b02fb94ec1d91224841d31a6b,62.292033,24.536516,907199179,uuuu,FI,FI,1481176864,62.33839,24.456652,0,Keuruu,85683117,907/199/179/907199179.geojson,localadmin,85683117,figov,,,FI
"23.4224071934,63.4829728357,24.0989467874,63.6754369931",uuuu,85633143,,9f19c4e695bc276d7b24b2fc78393e8d,,3cb84d6776c19b081eff04a1c65313bd,63.584655,23.771196,907199305,uuuu,FI,FI,1481176872,63.592384,23.747076,0,Kaustinen,85683125,907/199/305/907199305.geojson,localadmin,85683125,figov,,,FI
"24.9688081356,62.1523621644,25.4890675552,62.4270134071",uuuu,85633143,,d740acfa56514192bf7474135c9c8a4b,,01372487b7d2de330e456dc529209bcc,62.290287,25.219935,907199215,uuuu,FI,FI,1481176865,62.290586,25.1939,0,Petajavesi,85683117,907/199/215/907199215.geojson,localadmin,85683117,figov,,,FI
"27.9955822464,64.5662912438,30.1358378793,65.520851551",uuuu,85633143,,6dc7226e6c286ff627081403555afac9,,72a628b4929e2a68ad8af531dd1e1f1b,65.045497,29.122098,907199501,uuuu,FI,FI,1481176885,65.059194,29.122182,0,Suomussalmi,85683137,907/199/501/907199501.geojson,localadmin,85683137,figov,,,FI
"27.8814516224,66.408146386,30.0170443393,67.8029592156",uuuu,85633143,,f37e82377e16287251080b85c66b64a7,,14a9119e00f472ce76490a214b85da66,66.996169,28.908713,907199555,uuuu,FI,FI,1481176887,66.83337,28.730471,0,Salla,85683147,907/199/555/907199555.geojson,localadmin,85683147,figov,,,FI
"28.0376855293,63.2038353198,28.7595258033,63.7550021332",uuuu,85633143,,230b09154483f7a15f33942ad72657d7,,b75ca99d3727a0dca736b65ae966dbba,63.491167,28.404017,907199323,uuuu,FI,FI,1481176872,63.535958,28.433785,0,Rautavaara,85683131,907/199/323/907199323.geojson,localadmin,85683131,figov,,,FI
"21.0238299636,59.4756429388,22.5429991186,60.4986621596",uuuu,85633143,,37558b300e14b674bf7f0ab4843d0b96,,af4b848e689d59f5cc038cd62d85e6f8,59.981748,21.666103,907199741,uuuu,FI,FI,1481176896,59.962758,21.665922,0,Parainen,85683073,907/199/741/907199741.geojson,localadmin,85683073,figov,,,FI
"23.5422998966,61.4273684904,24.1185167433,61.8366139003",uuuu,85633143,,f182b6fa50ff5d7cb916ff59a37e3d21,,62c4601e3988fb44ea7a054fb2fb07af,61.629284,23.88145,907199231,uuuu,FI,FI,1481176866,61.626087,23.881535,0,Tampere,85683099,907/199/231/907199231.geojson,localadmin,85683099,figov,,,FI
"24.6056158009,60.6474964234,24.8447329932,60.8003114164",uuuu,85633143,,83f440c3f52f4795a8f1bf0929545e6b,,1b242651774e79819fe76e773616788b,60.711642,24.740064,907199603,uuuu,FI,FI,1481176890,60.708205,24.738244,0,Riihimaki,85683077,907/199/603/907199603.geojson,localadmin,85683077,figov,,,FI
"25.3500173908,66.9429242498,28.6461525992,68.4661903942",uuuu,85633143,,532a30d81173810fa6205db5c4852e57,,34dd28e87584d881045bf78ac0c9a87f,67.786156,26.91277,907199561,uuuu,FI,FI,1481176888,67.728067,26.613214,0,Sodankyla,85683147,907/199/561/907199561.geojson,localadmin,85683147,figov,,,FI
"23.2867597461,67.4459864335,24.301493899,68.1872949976",uuuu,85633143,,766b4c0fa61af04d176fb9b6e334851a,,c50510c84ef5558f5b3032adea5d0088,67.855476,23.803785,907199587,uuuu,FI,FI,1481176889,67.843382,23.896102,0,Muonio,85683147,907/199/587/907199587.geojson,localadmin,85683147,figov,,,FI
"28.1434833889,62.1452960941,29.1838888474,62.6570216811",uuuu,85633143,,d846cf6578417bde42ab89e33f3d44a1,,bb684fc3d8f25a67498ee4c3d451a47a,62.433857,28.721125,907199027,uuuu,FI,FI,1481176855,62.439721,28.682299,0,Heinavesi,85683109,907/199/027/907199027.geojson,localadmin,85683109,figov,,,FI
"23.6907025352,64.3128422613,25.4629266514,64.8547767166",uuuu,85633143,,159a61fb0b651e6eb9ba5190698b9772,,a57025a4fcdb6ba529436f73303be3ef,64.60032,24.523181,907199449,uuuu,FI,FI,1481176881,64.640782,24.522678,0,Raahe,85683143,907/199/449/907199449.geojson,localadmin,85683143,figov,,,FI
"24.9031657818,68.2775716776,29.3364955553,69.8491925837",uuuu,85633143,,c757c2757ee8b9173c321946b2afa13c,,620c5c60ec5921a7a7220c9c15e9c015,68.939892,27.234707,907199567,uuuu,FI,FI,1481176888,68.895905,27.234585,0,Inari,85683147,907/199/567/907199567.geojson,localadmin,85683147,figov,,,FI
"25.3093176241,62.8683080342,26.3342741338,63.2898306724",uuuu,85633143,,8665ca3d527026abdc0910cd46c4e252,,a2d0bf2e41c2d0b00d6752a32fc56148,63.10198,25.821369,907199223,uuuu,FI,FI,1481176865,63.090508,25.811649,0,Viitasaari,85683117,907/199/223/907199223.geojson,localadmin,85683117,figov,,,FI
"28.7519458238,63.7033563739,30.5535572174,64.6353632002",uuuu,85633143,,2b797e22ac861b381ed1d873de9fc562,,108c99e49044faa1d0e6da34abc7733e,64.18084,29.672451,907199507,uuuu,FI,FI,1481176885,64.253658,29.672422,0,Kuhmo,85683137,907/199/507/907199507.geojson,localadmin,85683137,figov,,,FI
"22.1501515777,62.5971153476,22.877516374,62.8759060146",uuuu,85633143,,64de075c696ef573bea186de5046bdbc,,f5a08c53cb4303a2f2f8bcbc5b58cebf,62.729801,22.554156,907199003,uuuu,FI,FI,1481176853,62.729399,22.554181,0,Ilmajoki,85683113,907/199/003/907199003.geojson,localadmin,85683113,figov,,,FI
"23.7778819578,66.465421075,24.9880519838,67.014924546",uuuu,85633143,,764cc8f45fdb79640c7b944fe3a2f8eb,,d89655e971014c21b7ee47fe21b949db,66.778027,24.302412,907199553,uuuu,FI,FI,1481176887,66.77731,24.201748,0,Pello,85683147,907/199/553/907199553.geojson,localadmin,85683147,figov,,,FI
"24.1370822524,64.041751773,24.5895128692,64.3000942244",uuuu,85633143,,4dadaf333fd623de92c34cb600d0d25f,,0e893b497d736b08b158ae9a751e891a,64.180744,24.332533,907199429,uuuu,FI,FI,1481176880,64.155104,24.310069,0,Alavieska,85683143,907/199/429/907199429.geojson,localadmin,85683143,figov,,,FI
"22.5207497582,61.8958701905,23.3661961669,62.2889089402",uuuu,85633143,,c2ecb7452fc4a766bad7e7200ac6879e,,f0ad2d5fecafda05b096004962a0011e,62.049788,22.978918,907199125,uuuu,FI,FI,1481176861,62.08677,22.950187,0,Parkano,85683099,907/199/125/907199125.geojson,localadmin,85683099,figov,,,FI
"22.6794408155,61.6751393066,23.5938752915,61.9844605021",uuuu,85633143,,a38c3b7c25420c60cb0ed80ebd82ca53,,03b82785151345b25350137851c2075b,61.825278,23.083091,907199297,uuuu,FI,FI,1481176871,61.825181,23.083668,0,Ikaalinen,85683099,907/199/297/907199297.geojson,localadmin,85683099,figov,,,FI
"26.4857222649,62.7962804221,27.1424426689,63.1316755742",uuuu,85633143,,dac7f6b42e2ef1946bd552dbd2f70eaa,,3263073039b3fae3893053c2b0ca590b,62.97169,26.816085,907199369,uuuu,FI,FI,1481176876,62.939451,26.785878,0,Tervo,85683131,907/199/369/907199369.geojson,localadmin,85683131,figov,,,FI
"24.052027817,63.1164295097,24.8036026433,63.392232652",uuuu,85633143,,bd0da3cc48abbada8b7cc112d7cbcfc9,,50b94d0833ddb55d0f966faec90e1fde,63.256451,24.460297,907199111,uuuu,FI,FI,1481176860,63.257455,24.460343,0,Perho,85683125,907/199/111/907199111.geojson,localadmin,85683125,figov,,,FI
"26.1410107943,64.5581921735,27.4053634906,65.1068240886",uuuu,85633143,,c801775fb756262fd8dddb4f9cd69cd0,,c3acfe6821ff32e7943af287a6568557,64.861881,26.822893,907199509,uuuu,FI,FI,1481176885,64.931465,26.930946,0,Utajarvi,85683143,907/199/509/907199509.geojson,localadmin,85683143,figov,,,FI
"21.0276273273,62.9594091281,22.2423225711,63.1788539831",uuuu,85633143,,fbbec83022d753d797d0214011b6bcdf,,374ea87446094a1331ec9ac9644dc8ad,63.078746,21.659993,907199149,uuuu,FI,FI,1481176862,63.084086,21.502622,0,Vaasa,85683119,907/199/149/907199149.geojson,localadmin,85683119,figov,,,FI
"24.0340042707,63.3319184715,24.5548297918,63.5770550531",uuuu,85633143,,48ecdd219ee1c1cd0fcdb936de22f32a,,7ca3396f16bea7ac3f8c919fd770ee5a,63.44903,24.281146,907199301,uuuu,FI,FI,1481176872,63.432299,24.260129,0,Halsua,85683125,907/199/301/907199301.geojson,localadmin,85683125,figov,,,FI
"24.1149255003,64.8444158475,26.7715617721,65.5726205197",uuuu,85633143,,a9fb7dc7d768f1d6411745306880721e,,721450e999f46c204b9f4c5ad97474f0,65.154062,25.755186,907199459,uuuu,FI,FI,1481176881,65.157043,25.781343,0,Oulu,85683143,907/199/459/907199459.geojson,localadmin,85683143,figov,,,FI
"28.1630932313,62.5800920722,28.7476924575,62.9644440182",uuuu,85633143,,12b1b444ce4d3b7c09697c6df61c5bbe,,77699a2162838dc8e22c6b49333b0c85,62.777429,28.479543,907199053,uuuu,FI,FI,1481176857,62.787967,28.483995,0,Tuusniemi,85683131,907/199/053/907199053.geojson,localadmin,85683131,figov,,,FI
"24.9532597365,64.7342557937,25.3301821924,64.984220288",uuuu,85633143,,81b778ae382255b125d0731746ea8db4,,1f6e18e919004aec56e6f555224a8a85,64.856381,25.126925,907199537,uuuu,FI,FI,1481176887,64.851246,25.124068,0,Lumijoki,85683143,907/199/537/907199537.geojson,localadmin,85683143,figov,,,FI
"26.0928752394,63.8410354802,26.8704021946,64.2825834355",uuuu,85633143,,133f8dd050cc7c1b45933838264a2c47,,456db15e215fb3ad2f43cbd7a7dfc415,64.07059,26.474155,907199491,uuuu,FI,FI,1481176884,64.069407,26.439567,0,Pyhanta,85683143,907/199/491/907199491.geojson,localadmin,85683143,figov,,,FI
"26.1386397546,63.0420709382,27.148138093,63.5164078507",uuuu,85633143,,0f294002a8fc2fd8f2c760e66e37bd34,,b919c67b81bfb161f504160a3520342d,63.286985,26.682794,907199287,uuuu,FI,FI,1481176870,63.248037,26.675583,0,Pielavesi,85683131,907/199/287/907199287.geojson,localadmin,85683131,figov,,,FI
"22.5528420943,62.9995617045,23.471768668,63.3989614269",uuuu,85633143,,e0e77f52e31756c5c1d19de912afd3f4,,6fc930f9715c2f5bd6757fd9fb580cd1,63.196586,23.027307,907199237,uuuu,FI,FI,1481176866,63.198926,23.064518,0,Kauhava,85683113,907/199/237/907199237.geojson,localadmin,85683113,figov,,,FI
"27.1190918074,63.1537621578,28.1305196826,63.5501172571",uuuu,85633143,,028995ed5e4118a0533f08fab69f84fa,,9730032e66368ed7dc9eae30f04550bd,63.372543,27.629782,907199373,uuuu,FI,FI,1481176877,63.335405,27.511397,0,Lapinlahti,85683131,907/199/373/907199373.geojson,localadmin,85683131,figov,,,FI
"20.3001811247,62.6561838868,21.4129391666,62.9395290302",uuuu,85633143,,c91550231fc6be3b893721098c6334fb,,e2f6618157120b389c09ca41624a938e,62.806283,20.847086,907199033,uuuu,FI,FI,1481176856,62.805105,20.846483,0,Korsnas,85683119,907/199/033/907199033.geojson,localadmin,85683119,figov,,,FI
"23.797652474,61.1019294578,24.2971229313,61.3438249319",uuuu,85633143,,3168abda5aa123191893d4b47eec810d,,992c7df7ed6632ced1aeb2ac13cf5b7d,61.217833,24.056038,907199063,uuuu,FI,FI,1481176857,61.213843,24.039069,0,Valkeakoski,85683099,907/199/063/907199063.geojson,localadmin,85683099,figov,,,FI
"20.6917192805,62.2478014006,21.2723123725,62.3969452402",uuuu,85633143,,483ad6db2f09ecd66ada505ec4f081aa,,b345831b9b15ac12c97492fed5200431,62.303364,20.993878,907199039,uuuu,FI,FI,1481176856,62.296919,20.99324,0,Kaskinen,85683119,907/199/039/907199039.geojson,localadmin,85683119,figov,,,FI
"20.1658189049,62.7356640951,21.7851316576,63.2676447036",uuuu,85633143,,6f87e8b121494979dc6ce15374ab721b,,73844bcee78241834844d0ddba36ba37,63.008992,20.916401,907199043,uuuu,FI,FI,1481176856,63.0625,20.658996,0,Maalahti,85683119,907/199/043/907199043.geojson,localadmin,85683119,figov,,,FI
"23.2803136704,62.9790899404,23.8624866055,63.3789428265",uuuu,85633143,,782c15b48c09e00540a56f509b0436e5,,207613d532038f38801ffc591ac9ec39,63.190419,23.597421,907199255,uuuu,FI,FI,1481176868,63.183523,23.591944,0,Lappajarvi,85683113,907/199/255/907199255.geojson,localadmin,85683113,figov,,,FI
"23.4531218734,60.7795278393,23.8393395893,61.0090335316",uuuu,85633143,,efc3f4b543c9ca0f3dcfd7184d2069cd,,a92e222bf722585694f450b9ed125280,60.916298,23.638841,907199441,uuuu,FI,FI,1481176881,60.939794,23.652001,0,Forssa,85683077,907/199/441/907199441.geojson,localadmin,85683077,figov,,,FI
"23.1400486404,64.2996844967,24.8891751958,64.6287373145",uuuu,85633143,,876db7b16ede9646ea1bf6cb98e33e53,,681b5e57270831323d0344668a37a28b,64.46894,24.018933,907199655,uuuu,FI,FI,1481176892,64.467351,24.032494,0,Pyhajoki,85683143,907/199/655/907199655.geojson,localadmin,85683143,figov,,,FI
