bbox,cessation,country_id,deprecated,file_hash,fullname,geom_hash,geom_latitude,geom_longitude,id,inception,iso,iso_country,lastmodified,lbl_latitude,lbl_longitude,locality_id,name,parent_id,path,placetype,region_id,source,superseded_by,supersedes,wof_country
"24.9639640055,60.201498103,24.9779546278,60.2126584171",uuuu,85633143,,30a71da1ae5ff48b6763eacd62995ebc,,f4cbd9613d80a5af22ae733c74c83314,60.207912,24.971258,85898915,uuuu,FI,FI,1485483076,60.208665,24.971733,101748417,Toukola,1108727357,858/989/15/85898915.geojson,neighbourhood,85683067,hkigis,,,FI
"24.9361491677,60.1889632794,24.9649308546,60.201433103",uuuu,85633143,,8bf77089d78f492a65d6c1e34169a3d5,,ffb8cf15a2edd914374344411b48a6a4,60.195138,24.953849,85898919,uuuu,FI,FI,1485483076,60.195196,24.95385,101748417,Vallila,1108727355,858/989/19/85898919.geojson,neighbourhood,85683067,hkigis,,,FI
"24.9716326924,60.2334994618,25.0026785988,60.2519295295",uuuu,85633143,,dd87c04b9af86ef6a48146d67c4cfda3,,959910cc43132288055c2af702384ab4,60.244779,24.986083,85898881,uuuu,FI,FI,1485483075,60.245,24.986316,101748417,Pukinmaki,1108727363,858/988/81/85898881.geojson,neighbourhood,85683067,hkigis,,,FI
"25.1118756118,60.2041536326,25.1363462126,60.2183688206",uuuu,85633143,,7466620d1a45411b0b8c55b2e5dfc437,,6d36b8c9a07c747222477e186820ca5a,60.20988,25.124896,85898885,uuuu,FI,FI,1485483075,60.210348,25.125082,101748417,Rastila,890537281,858/988/85/85898885.geojson,neighbourhood,85683067,hkigis,,,FI
"24.9609262724,60.176279042,24.9753454361,60.1864746835",uuuu,85633143,,2469d50e626c15c04ca558018b2f9639,,b6e9697eb4e635f4f41adcad06157922,60.182055,24.968057,1108726985,uuuu,FI,FI,1485376899,60.181999,24.968057,101748417,Hanasaari,890537285,110/872/698/5/1108726985.geojson,neighbourhood,85683067,hkigis,,,FI
"24.9400679636,60.1857183291,24.9642108896,60.1904601272",uuuu,85633143,,92f98ca28721102648b5efa40943b7e3,,b2fc8d78524c7aadfadbfa7a5c90eeff,60.18804,24.952636,1108726987,uuuu,FI,FI,1485376899,60.188371,24.949621,101748417,Harju,890537245,110/872/698/7/1108726987.geojson,neighbourhood,85683067,hkigis,,,FI
"24.8979133887,60.2448391389,24.9684024941,60.2785109373",uuuu,85633143,,5d0aa0b329e44691597c693a4b8c7cfd,,7c9a60d0dc15d1c7d997cda1d8dc25e5,60.26518,24.928771,1108726981,uuuu,FI,FI,1485376899,60.26538,24.928771,101748417,Haltiala,890537257,110/872/698/1/1108726981.geojson,neighbourhood,85683067,hkigis,,,FI
"25.0594687291,60.2629401654,25.0842236861,60.2763752885",uuuu,85633143,,df5848fea92bee066e80b948f731116b,,f312fcb9b45ec9ce695e446af1499d48,60.270332,25.071746,1108726989,uuuu,FI,FI,1485376899,60.269146,25.070902,101748417,Heikinlaakso,1108727369,110/872/698/9/1108726989.geojson,neighbourhood,85683067,hkigis,,,FI
"25.1350996117,60.2208901611,25.1595615905,60.2415970806",uuuu,85633143,,56bfa4de207a0eb3e0f6f990ed9291b9,,a7aafd3c8306c8ccdafcc88982a18c36,60.23123,25.144064,1108727135,uuuu,FI,FI,1485376904,60.230593,25.143878,101748417,Mustavuori,890537281,110/872/713/5/1108727135.geojson,neighbourhood,85683067,hkigis,,,FI
"24.9768204445,60.1685581323,25.003712473,60.1860558467",uuuu,85633143,,6be01ccb0913607b7bdecfc3262f6861,,931b43eebc006012e4133a90fd1fa530,60.175974,24.990489,1108727137,uuuu,FI,FI,1485376904,60.176833,24.990233,101748417,Mustikkamaa-Korkeasaari,1108727349,110/872/713/7/1108727137.geojson,neighbourhood,85683067,hkigis,,,FI
"24.8616606807,60.2026984731,24.8822857365,60.2161299514",uuuu,85633143,,7a79b33202cfb90696bb5a5f4190a7fc,,da81faf15124c3955f5ec40a6fbdc4b3,60.208525,24.871174,1108727133,uuuu,FI,FI,1485376904,60.208322,24.871168,101748417,Munkkivuori,890537235,110/872/713/3/1108727133.geojson,neighbourhood,85683067,hkigis,,,FI
"24.9336690615,60.2182153651,24.9448222863,60.2290037703",uuuu,85633143,,eb5d58966f6245e1c508ab849f6c826a,,c3c84ef2d5b0608af7fb8a33b2083c46,60.223129,24.939185,1108727131,uuuu,FI,FI,1485376904,60.223042,24.938521,101748417,Metsala,1108727377,110/872/713/1/1108727131.geojson,neighbourhood,85683067,hkigis,,,FI
"24.8380222426,60.1412990055,24.8766883628,60.1718945588",uuuu,85633143,,6d92f98c18a701513457bf7459cf115d,,8efc1c412353f8900b09501f97476ac6,60.155023,24.858577,1108727139,uuuu,FI,FI,1485376904,60.153197,24.860881,101748417,Myllykallio,890537261,110/872/713/9/1108727139.geojson,neighbourhood,85683067,hkigis,,,FI
"24.8314029763,60.2295833784,24.8660550233,60.2546674503",uuuu,85633143,,31a4aff9fee7fa80d476c3da8f51b212,,60b80c0ba74dbd55b1488920a18638ef,60.239926,24.845162,1108727057,uuuu,FI,FI,1485376902,60.238059,24.844909,101748417,Konala,890537259,110/872/705/7/1108727057.geojson,neighbourhood,85683067,hkigis,,,FI
"24.8413405988,60.157601222,24.8573664463,60.1735654728",uuuu,85633143,,a5c2050bb4356bd40ed36c0ecdffa0aa,,ea8f2d46abf71e5e4a90c7cc131f7fb6,60.165911,24.848846,1108727053,uuuu,FI,FI,1485376902,60.166035,24.848999,101748417,Koivusaari,890537261,110/872/705/3/1108727053.geojson,neighbourhood,85683067,hkigis,,,FI
"24.9320821011,60.1677198794,24.9512441176,60.1800456657",uuuu,85633143,,2390f268c6e0e5510de55d9c473eccfe,,97881ce8e5cc34b9e5cf667ea5b8e4c2,60.173752,24.942149,1108727051,uuuu,FI,FI,1485376901,60.172661,24.942922,101748417,Kluuvi,1108727331,110/872/705/1/1108727051.geojson,neighbourhood,85683067,hkigis,,,FI
"25.0660622539,60.2222499461,25.1098461762,60.2478427961",uuuu,85633143,,da3394c2418300c42f5c88c8c4ec6b57,,0e9566aadb7b2a610c08d9a4a3e020f7,60.234326,25.085074,1108727059,uuuu,FI,FI,1485376902,60.230535,25.086897,101748417,Kontula,890537253,110/872/705/9/1108727059.geojson,neighbourhood,85683067,hkigis,,,FI
"25.1417434461,60.2613146528,25.2263564875,60.2863895539",uuuu,0,,c4a540faebb3e47bba62c453cd07112c,,6a05e28b883209141e4ffa167f76d334,60.272167,25.185994,1108727085,uuuu,FI,FI,1485483072,60.27203,25.18601,0,Landbo,-3,110/872/708/5/1108727085.geojson,neighbourhood,0,hkigis,,,FI
"25.0068041545,60.1900193677,25.0536269708,60.2193429526",uuuu,85633143,,e6d77e6a0232baa7122fbc2f9d5f1663,,80e137a933f1f615da2fabfb5d36800a,60.20495,25.029208,1108727087,uuuu,FI,FI,1485376903,60.203208,25.028855,101748417,Lansi-Herttoniemi,890537227,110/872/708/7/1108727087.geojson,neighbourhood,85683067,hkigis,,,FI
"24.9010622295,60.1895652531,24.9244095968,60.1975032617",uuuu,85633143,,2d0c0b95e6303bfda99ad2c5f3c19949,,a4aa32942ef6b34bc47d87e8403b7798,60.193945,24.913389,1108727083,uuuu,FI,FI,1485376902,60.193966,24.913386,101748417,Laakso,1108727373,110/872/708/3/1108727083.geojson,neighbourhood,85683067,hkigis,,,FI
"24.9654337725,60.1955918034,24.9840767063,60.2012285675",uuuu,85633143,,1b08f5a06af325e2aacb812881ddc153,,d03f89af59eb933b763d578e31f37915,60.198972,24.974622,1108727081,uuuu,FI,FI,1485376902,60.198542,24.974481,101748417,Kylasaari,1108727355,110/872/708/1/1108727081.geojson,neighbourhood,85683067,hkigis,,,FI
"24.9075397193,60.1911399592,24.9299307886,60.2128036588",uuuu,85633143,,f0d4dd9029b95efa893e3a93f203b1c0,,dbcd5b4e8844858997695d51fd49a622,60.201908,24.920465,1108727089,uuuu,FI,FI,1485376903,60.20153,24.921569,101748417,Lansi-Pasila,890537255,110/872/708/9/1108727089.geojson,neighbourhood,85683067,hkigis,,,FI
"25.0803490503,60.2286292067,25.1108075326,60.2496974102",uuuu,85633143,,8eb2b594c9a3c94505ab9d42ebb08f8b,,00bd50dde526d721bccf274f9429a163,60.238698,25.098134,1108727245,uuuu,FI,FI,1485376908,60.236376,25.10216,101748417,Vesala,890537253,110/872/724/5/1108727245.geojson,neighbourhood,85683067,hkigis,,,FI
"25.0013083526,60.2205840256,25.0272258418,60.232404942",uuuu,85633143,,c7f4907d8e1959ca941de4756cac53b0,,c3b3469720f9226c49ef829c34e2e1de,60.226871,25.01612,1108727247,uuuu,FI,FI,1485376908,60.226072,25.017383,101748417,Viikin tiedepuisto,1108727359,110/872/724/7/1108727247.geojson,neighbourhood,85683067,hkigis,,,FI
"24.9768853765,60.2310467643,24.9899233233,60.237868832",uuuu,85633143,,0adf54177f093c01972c04ba79f29f0f,,e5b7cd1e8022f9d8eb4104f014950fe9,60.233759,24.98385,1108727243,uuuu,FI,FI,1485376908,60.234387,24.984373,101748417,Verajalaakso,890537237,110/872/724/3/1108727243.geojson,neighbourhood,85683067,hkigis,,,FI
"24.8674308351,60.1397303362,24.8972207122,60.1576470665",uuuu,85633143,,82467103f1fdf4d52b8f9b10756594f9,,aa0e067a0ae263b55736e147be427381,60.148223,24.884372,1108727241,uuuu,FI,FI,1485376908,60.148531,24.884372,101748417,Vattuniemi,890537261,110/872/724/1/1108727241.geojson,neighbourhood,85683067,hkigis,,,FI
"24.9792905311,60.2201357619,25.0025535784,60.2313774551",uuuu,85633143,,b5caae7648f4730ee2bbb0ab7952eb0d,,1d64c29375478ea9e81ee79b34ab1a8e,60.226845,24.99094,1108727249,uuuu,FI,FI,1485376908,60.227668,24.991735,101748417,Viikinmaki,1108727359,110/872/724/9/1108727249.geojson,neighbourhood,85683067,hkigis,,,FI
"24.8476170705,60.2125786304,24.8839980213,60.2276796539",uuuu,85633143,,86c41a41e3f2d1157042fb6ff0f83a9a,,fe28c2c97f9a89d0cbb29dd2e689498f,60.220237,24.869472,1108727155,uuuu,FI,FI,1485376905,60.220012,24.873739,101748417,Pitajanmaen yritysalue,890537259,110/872/715/5/1108727155.geojson,neighbourhood,85683067,hkigis,,,FI
"24.9105625156,60.2066034581,24.9437504593,60.2202422163",uuuu,85633143,,a56719598b6d3c28f091e9d0b2ce6075,,ffcaade8ab57d4b70ccc20c132686620,60.213679,24.925725,1108727157,uuuu,FI,FI,1485376905,60.212535,24.926041,101748417,Pohjois-Pasila,890537255,110/872/715/7/1108727157.geojson,neighbourhood,85683067,hkigis,,,FI
"24.8994443712,60.2276710353,24.9315123838,60.2386195887",uuuu,85633143,,6a52c08fdc34d5421dc851d190ffff0a,,4fe6fb3a51d6b8c2fcf5f41bbe657f76,60.233249,24.912714,1108727153,uuuu,FI,FI,1485376905,60.233379,24.911136,101748417,Pirkkola,1108727377,110/872/715/3/1108727153.geojson,neighbourhood,85683067,hkigis,,,FI
"24.8506510707,60.2163410597,24.8619303836,60.2216453702",uuuu,85633143,,aba94f829b77606b39ca6e5653c27a70,,e6a348301409ef4a308e68c03f3bca7e,60.219305,24.856098,1108727151,uuuu,FI,FI,1485376905,60.219003,24.855643,101748417,Pajamaki,890537259,110/872/715/1/1108727151.geojson,neighbourhood,85683067,hkigis,,,FI
"25.031709843,60.2631462973,25.0703423974,60.2851942264",uuuu,85633143,,9f8a5cb9b2ee925e545dae55c306df11,,180c48ab25d5ef68bd28ad6da203f9d0,60.271198,25.048334,1108727159,uuuu,FI,FI,1485376905,60.271321,25.048337,101748417,Puistola,1108727369,110/872/715/9/1108727159.geojson,neighbourhood,85683067,hkigis,,,FI
"24.8951666953,60.1587836149,24.9224513164,60.1699183724",uuuu,0,,8d197caea47b69e15d2db676db5f78e4,,7a49f585be68c273791327f99fc95f51,60.163851,24.906152,1108727175,uuuu,FI,FI,1485483069,60.164165,24.902536,0,Ruoholahti,-3,110/872/717/5/1108727175.geojson,neighbourhood,0,hkigis,,,FI
"25.1389867276,60.2269339646,25.1986835997,60.2501912481",uuuu,85633143,,915c3348b402cf57752c6b09cb7cc953,,961afa879672a17c19ade20daca677f6,60.23849,25.169348,1108727177,uuuu,FI,FI,1485483072,60.240784,25.166846,101748417,Salmenkallio,1108727375,110/872/717/7/1108727177.geojson,neighbourhood,85683067,hkigis,,,FI
"25.0440364134,60.1898419063,25.0764833297,60.2077410467",uuuu,85633143,,68d47b2a22a8911f07e7b7a31c6989f7,,253e00a934d48a5cd313ca7440681e54,60.198963,25.058633,1108727173,uuuu,FI,FI,1485376905,60.199323,25.05618,101748417,Roihuvuori,890537227,110/872/717/3/1108727173.geojson,neighbourhood,85683067,hkigis,,,FI
"24.8379633673,60.2211992944,24.868023345,60.2359109148",uuuu,85633143,,0cb7f70e60538c5c93414d239fdb90dd,,cf4bcb6e406861c87f910e1674d65642,60.228591,24.853644,1108727171,uuuu,FI,FI,1485376905,60.228899,24.857628,101748417,Reimarla,890537259,110/872/717/1/1108727171.geojson,neighbourhood,85683067,hkigis,,,FI
"24.833685003,60.2513870832,24.8552283271,60.2591015419",uuuu,85633143,,6a3419e2c7983df4d538f7ec5fab4a3d,,3655e54064b6d67582c58bb1907c6074,60.255383,24.84134,1108727005,uuuu,FI,FI,1485376900,60.255226,24.839384,101748417,Honkasuo,890537241,110/872/700/5/1108727005.geojson,neighbourhood,85683067,hkigis,,,FI
"25.0643185418,60.202402049,25.0944447448,60.2147736715",uuuu,85633143,,dfc32095d6023136c9539acc7e6a8248,,81b54ac5eeda28b398a367b8b9573a84,60.208001,25.078657,1108727007,uuuu,FI,FI,1485376900,60.210249,25.082422,101748417,Itakeskus,890537287,110/872/700/7/1108727007.geojson,neighbourhood,85683067,hkigis,,,FI
"25.0320774633,60.1578310545,25.0585474902,60.1684275313",uuuu,85633143,,6ecefc195debdda70846e587fe41fa32,,aace3929083516fa64c8317a96999b0c,60.162174,25.046078,1108727003,uuuu,FI,FI,1485376900,60.161468,25.045827,101748417,Hevossalmi,890537275,110/872/700/3/1108727003.geojson,neighbourhood,85683067,hkigis,,,FI
"24.9691504799,60.0537270573,25.2195380518,60.2005953252",uuuu,85633143,,2769b4582f812231c8fa200debb8b8f8,,fa373801e5fbc2cc786a447844ffbfae,60.1148,25.103058,1108727009,uuuu,FI,FI,1485376900,60.101,25.04911,101748417,Itasaaret,890537269,110/872/700/9/1108727009.geojson,neighbourhood,85683067,hkigis,,,FI
"24.9337285665,60.2045851652,24.9635392286,60.2235412273",uuuu,85633143,,4d3d79c07bc6557b4a89a4ec00b4912f,,e502efa597a1f702aacfd71a7c6dad90,60.2146,24.94918,1108727035,uuuu,FI,FI,1485376901,60.21532,24.949405,101748417,Kapyla,1108727357,110/872/703/5/1108727035.geojson,neighbourhood,85683067,hkigis,,,FI
"24.8647212508,60.2347061748,24.8989488436,60.2476885969",uuuu,85633143,,4fea4df9d19ea0dbdd259b242e7c5cfc,,ba3821c4413ab57a2c45d00df4d82350,60.240204,24.881177,1108727033,uuuu,FI,FI,1485376901,60.241094,24.881177,101748417,Kannelmaki,890537241,110/872/703/3/1108727033.geojson,neighbourhood,85683067,hkigis,,,FI
"24.9206432802,60.1604717374,24.9434648352,60.1720770713",uuuu,85633143,,4eb8c13ad31f96bd45ede45fd8818a14,,1b5a65f00809c628de7f548aba94da5a,60.166087,24.931108,1108727031,uuuu,FI,FI,1485376900,60.166535,24.930934,101748417,Kamppi,1108727337,110/872/703/1/1108727031.geojson,neighbourhood,85683067,hkigis,,,FI
"25.1997224523,60.2428366507,25.240914851,60.256954458",uuuu,85633143,,b0157fe80025b75e063662bf36f1baec,,eab242ba4616442ec956131390a2018c,60.250761,25.223249,1108727039,uuuu,FI,FI,1485483073,60.249861,25.223639,101748417,Karhusaari,1108727375,110/872/703/9/1108727039.geojson,neighbourhood,85683067,hkigis,,,FI
"25.0875753414,60.2031664607,25.1159645772,60.216962971",uuuu,85633143,,16f508e51688973d1349d3a44b579d9f,,d299bf80e614707b0889584692d0cebb,60.210368,25.101898,1108727165,uuuu,FI,FI,1485376905,60.210036,25.101684,101748417,Puotila,890537287,110/872/716/5/1108727165.geojson,neighbourhood,85683067,hkigis,,,FI
"25.065709922,60.2079316409,25.0968287728,60.2225822531",uuuu,85633143,,a3c3594f94636e094e476913720e4ac4,,094b2c96bbece3e8232497f3ce708dc0,60.215487,25.083288,1108727167,uuuu,FI,FI,1485376905,60.217413,25.088245,101748417,Puotinharju,890537287,110/872/716/7/1108727167.geojson,neighbourhood,85683067,hkigis,,,FI
"24.9271867458,60.1572812298,24.9451089081,60.1651808809",uuuu,85633143,,fa828da6c381e5c5678247d7d0709837,,06f5daa2f9a220d2654680592b3ba4c2,60.160853,24.936679,1108727161,uuuu,FI,FI,1485376905,60.160562,24.937293,101748417,Punavuori,1108727335,110/872/716/1/1108727161.geojson,neighbourhood,85683067,hkigis,,,FI
"25.2015435148,60.2716838965,25.2544966694,60.2978394115",uuuu,0,,4e9f7730c024c0bda1747392fcfca200,,1a216551ab9a77afb4fd904bd1dabcf1,60.285346,25.231737,1108727169,uuuu,FI,FI,1485483073,60.284856,25.232136,0,Puroniitty,-3,110/872/716/9/1108727169.geojson,neighbourhood,0,hkigis,,,FI
"24.9500858334,60.1515733545,25.0051951499,60.1637374263",uuuu,85633143,,ef81f4011e1f26ea66a0a5f44c64008f,,04b2051a0641639a15f6ccb8f736ee86,60.158364,24.975162,1108727025,uuuu,FI,FI,1485376900,60.158179,24.974641,101748417,Kaivopuisto,1108727335,110/872/702/5/1108727025.geojson,neighbourhood,85683067,hkigis,,,FI
"24.9680683062,60.1822357493,24.997972871,60.1982668223",uuuu,85633143,,72c7df10bfc0e01b8b8535beea9a0f2d,,a9c0a626d9c8972de4a286afd8402991,60.188729,24.981866,1108727027,uuuu,FI,FI,1485376900,60.187498,24.980846,101748417,Kalasatama,890537285,110/872/702/7/1108727027.geojson,neighbourhood,85683067,hkigis,,,FI
"24.9412070277,60.1628716374,24.9580479127,60.1681427502",uuuu,85633143,,71c887aa13d2bd111e1e174e5a70b52c,,52c50cabb25d00e11344f34c88be6ea4,60.165767,24.950074,1108727023,uuuu,FI,FI,1485376900,60.165553,24.950075,101748417,Kaartinkaupunki,1108727335,110/872/702/3/1108727023.geojson,neighbourhood,85683067,hkigis,,,FI
"25.0538890174,60.1527771556,25.1061936078,60.1749237336",uuuu,85633143,,6753ef6bb31aa1d5840ca16416060b6d,,49fab131f9b49fb5fc11b78fb07ee5ec,60.163325,25.08099,1108727021,uuuu,FI,FI,1485376900,60.163038,25.083167,101748417,Jollas,890537275,110/872/702/1/1108727021.geojson,neighbourhood,85683067,hkigis,,,FI
"25.1011313255,60.1646032477,25.1801987033,60.20691752",uuuu,85633143,,e70ff74bdb4e6545458be3d1da189e16,,2200a46073a7b5f24684395ad68d7c97,60.181801,25.140505,1108727029,uuuu,FI,FI,1485376900,60.182291,25.140505,101748417,Kallahti,890537281,110/872/702/9/1108727029.geojson,neighbourhood,85683067,hkigis,,,FI
"25.0286877544,60.164730805,25.0773547877,60.1887139879",uuuu,85633143,,efbd046e93d6b2461c9cb83a8073976a,,716cda4acae064ae8b43a39d8feda81e,60.175399,25.053209,1108727261,uuuu,FI,FI,1485376908,60.177264,25.053672,101748417,Yliskyla,890537275,110/872/726/1/1108727261.geojson,neighbourhood,85683067,hkigis,,,FI
"24.87702457,60.2563731863,24.9032220465,60.2689375508",uuuu,85633143,,11ebf1551523fb6c221dd9dc79b64d66,,02ff1a44ccf9b3e79b5992c46470ba3c,60.26178,24.891037,1108727075,uuuu,FI,FI,1485376902,60.261681,24.891235,101748417,Kuninkaantammi,890537241,110/872/707/5/1108727075.geojson,neighbourhood,85683067,hkigis,,,FI
"25.0595761267,60.2269115804,25.080085116,60.2351900482",uuuu,85633143,,37c3392c0c74f6a852e05a6eac82a62a,,4fbb4376d52a0bcbe8b15eddccb1b32c,60.230994,25.070827,1108727077,uuuu,FI,FI,1485376902,60.231251,25.070663,101748417,Kurkimaki,890537253,110/872/707/7/1108727077.geojson,neighbourhood,85683067,hkigis,,,FI
"24.9448485444,60.1997382272,24.9764769949,60.217017597",uuuu,85633143,,82a4d77047b0a65772a1eb51d2df4581,,4bbc0fc5d65fa466c18c1382406a1441,60.207556,24.959557,1108727071,uuuu,FI,FI,1485376902,60.207061,24.960628,101748417,Kumpula,1108727357,110/872/707/1/1108727071.geojson,neighbourhood,85683067,hkigis,,,FI
"24.842796877,60.1776737877,24.8766651399,60.1960233313",uuuu,85633143,,638a7a01647c780c0a4a26a2b5aa0951,,f5ea6bfb1b2ed734987df653ed091c6e,60.187932,24.858595,1108727079,uuuu,FI,FI,1485376902,60.188404,24.858595,101748417,Kuusisaari,890537235,110/872/707/9/1108727079.geojson,neighbourhood,85683067,hkigis,,,FI
"25.0384324704,60.2401039195,25.0619408802,60.2509671196",uuuu,85633143,,944815b0e17ba42aa65c8f4c4f97ae6b,,8823ad0f05edd7a4243d5eeb9acfd84c,60.244617,25.049226,1108727215,uuuu,FI,FI,1485376907,60.244054,25.048424,101748417,Tattariharju,890537239,110/872/721/5/1108727215.geojson,neighbourhood,85683067,hkigis,,,FI
"25.0080260563,60.2667670857,25.0404659574,60.2893181068",uuuu,85633143,,8900997473cc7d8cc96bb701f2febb10,,3e07a61c68f3c567307eb73451a142da,60.278542,25.026499,1108727213,uuuu,FI,FI,1485376907,60.276973,25.027602,101748417,Tapulikaupunki,1108727369,110/872/721/3/1108727213.geojson,neighbourhood,85683067,hkigis,,,FI
"25.0112351094,60.2544625981,25.0354957537,60.2697241654",uuuu,85633143,,44cd1e1e976b6bc52086bec5d15c07ad,,de43f107a69347b9c7b7cfc6b01a30de,60.262806,25.022541,1108727211,uuuu,FI,FI,1485376907,60.264334,25.022774,101748417,Tapanila,890537239,110/872/721/1/1108727211.geojson,neighbourhood,85683067,hkigis,,,FI
"24.9515630515,60.1821406516,24.9619298439,60.1875094233",uuuu,85633143,,6bdd529e82e3e98056d502e29a4eeea1,,af88d7f900b6e58a3041b4de642384ff,60.185192,24.95652,1108727219,uuuu,FI,FI,1485376907,60.18466,24.956422,101748417,Torkkelinmaki,890537285,110/872/721/9/1108727219.geojson,neighbourhood,85683067,hkigis,,,FI
"25.1067865527,60.2216089144,25.1374597655,60.2419943801",uuuu,85633143,,4af311b79a2392639c34f9e80080c667,,0c1301ba88d3eae2d05310c75e963af1,60.232633,25.122365,1108727123,uuuu,FI,FI,1485376904,60.232523,25.123605,101748417,Mellunmaki,890537253,110/872/712/3/1108727123.geojson,neighbourhood,85683067,hkigis,,,FI
"24.868815151,60.1721116939,24.9162623656,60.197453646",uuuu,85633143,,818a237fe089d1d7837d7249cf1262b5,,39a6bf06e90dc5ba5e53c1dc385ec8a9,60.185249,24.890466,1108727121,uuuu,FI,FI,1485376904,60.185865,24.888859,101748417,Meilahti,1108727373,110/872/712/1/1108727121.geojson,neighbourhood,85683067,hkigis,,,FI
"24.9535641012,60.176279042,24.9700655466,60.1892107832",uuuu,85633143,,56626a8e111a27b24d9deefa89237d06,,2515dafade01cb252d8fd9076931e923,60.182403,24.962107,1108727255,uuuu,FI,FI,1485376908,60.179685,24.961299,101748417,Vilhonvuori,890537285,110/872/725/5/1108727255.geojson,neighbourhood,85683067,hkigis,,,FI
"25.0917912315,60.1506130763,25.160859456,60.1676344042",uuuu,85633143,,f773c885ba28cf5231b96728f735f1c3,,ce668a5c82ea30dd558b368182b2bb64,60.158423,25.126671,1108727257,uuuu,FI,FI,1485376908,60.158136,25.126671,101748417,Villinki,890536883,110/872/725/7/1108727257.geojson,neighbourhood,85683067,hkigis,,,FI
"24.9791902393,60.1982668223,25.042267739,60.2278810043",uuuu,85633143,,441062e7cf0bc9bf0785771c4dddd661,,9725f15e850f30015fc482bf3bb2d41d,60.215065,25.005489,1108727251,uuuu,FI,FI,1485376908,60.215325,25.000714,101748417,Viikinranta,1108727359,110/872/725/1/1108727251.geojson,neighbourhood,85683067,hkigis,,,FI
"24.9926091228,60.246968349,25.0158806703,60.25890234",uuuu,85633143,,150999f399e2128247bb0290bbde2654,,ea9f0bf58342325cd98f922fc0fa400c,60.253461,25.004029,1108727259,uuuu,FI,FI,1485376908,60.253158,25.002276,101748417,Yla-Malmi,890537239,110/872/725/9/1108727259.geojson,neighbourhood,85683067,hkigis,,,FI
"24.8496577055,60.2028793979,24.8667658006,60.2108477117",uuuu,85633143,,b0455d2836c9ee28126bae8606677d26,,9a8704275a36a0498958e6035af0b795,60.20652,24.857806,1108727205,uuuu,FI,FI,1485376906,60.206753,24.859102,101748417,Talinranta,890537235,110/872/720/5/1108727205.geojson,neighbourhood,85683067,hkigis,,,FI
"25.180194142,60.2291949409,25.2266305506,60.2471081106",uuuu,85633143,,e59c9b2cefd3919af9defdde03c5bd17,,aee3fa6ce124c3a5c667c02504908aa8,60.23972,25.203453,1108727207,uuuu,FI,FI,1485483073,60.238668,25.203896,101748417,Talosaari,1108727375,110/872/720/7/1108727207.geojson,neighbourhood,85683067,hkigis,,,FI
"24.8459394708,60.2053414497,24.8684774054,60.220668084",uuuu,85633143,,0892b39363fc3d8e4ce4c3d199943ae0,,981575008d9a86f99cfe01215ce88e01,60.213568,24.854963,1108727203,uuuu,FI,FI,1485376906,60.212557,24.854184,101748417,Tali,890537259,110/872/720/3/1108727203.geojson,neighbourhood,85683067,hkigis,,,FI
"24.8989884479,60.1760262715,24.9362482334,60.1927780073",uuuu,85633143,,8949a187098b2c8edbbf3f0d309d0814,,f47283538bc67cfc43e8c90b025cf6d9,60.183605,24.920237,1108727201,uuuu,FI,FI,1485376906,60.183363,24.920237,101748417,Taka-Toolo,1108727339,110/872/720/1/1108727201.geojson,neighbourhood,85683067,hkigis,,,FI
"25.0477123961,60.1864738292,25.076123785,60.1968337345",uuuu,85633143,,f0f74801045ef0a410966af743ff2a8f,,809df73e285fdd9a18b11608511ebb65,60.191045,25.063603,1108727209,uuuu,FI,FI,1485376906,60.191711,25.067155,101748417,Tammisalo,890536883,110/872/720/9/1108727209.geojson,neighbourhood,85683067,hkigis,,,FI
"24.9166471275,60.1426497175,24.9385789921,60.1607332645",uuuu,0,,a6d5c18570f54571423f321d82f623a1,,308e199e6ce09691a22a7bd37ab4667f,60.149519,24.928531,1108726995,uuuu,FI,FI,1485376899,60.149401,24.929418,0,Hernesaari,-3,110/872/699/5/1108726995.geojson,neighbourhood,0,hkigis,,,FI
"25.0320965015,60.1925166354,25.0572528941,60.2077625331",uuuu,85633143,,55eae511572182300f8b0dafcb951e6b,,56c9d50413c20d853330390a780722ae,60.198983,25.043594,1108726997,uuuu,FI,FI,1485376899,60.197371,25.042733,101748417,Herttoniemen yritysalue,890537227,110/872/699/7/1108726997.geojson,neighbourhood,85683067,hkigis,,,FI
"24.9738306137,60.192207105,24.997972871,60.2000300047",uuuu,85633143,,077cb6ac650ac3036524519830f8b6d9,,1e124b92a65b51032a9e8fb0b862e5f6,60.196286,24.984921,1108726993,uuuu,FI,FI,1485376899,60.196502,24.984738,101748417,Hermanninranta,1108727355,110/872/699/3/1108726993.geojson,neighbourhood,85683067,hkigis,,,FI
"24.962273963,60.1886433248,24.9782037414,60.2010258288",uuuu,85633143,,4aef05f78fb241903048384aeca8a6a4,,c9f17c34a785b71386382bf49586aa67,60.194091,24.969168,1108726991,uuuu,FI,FI,1485376899,60.193904,24.969047,101748417,Hermanninmaki,1108727355,110/872/699/1/1108726991.geojson,neighbourhood,85683067,hkigis,,,FI
"25.0178511904,60.1830772386,25.0556478716,60.1942719453",uuuu,85633143,,58ac61e4b9f48fd7e26a26a51e24846c,,7e68186638c7f9d39fef3b6cbaf50aa7,60.188638,25.034121,1108726999,uuuu,FI,FI,1485376899,60.189076,25.033835,101748417,Herttoniemenranta,890537227,110/872/699/9/1108726999.geojson,neighbourhood,85683067,hkigis,,,FI
"25.0871908077,60.2104971487,25.1247052684,60.2285058067",uuuu,85633143,,70d83dbebfdc42eeb887cd0635c53a3c,,f909062a40992e4721c6ce6a8a791b2c,60.220666,25.107727,1108727237,uuuu,FI,FI,1485376907,60.220591,25.108077,101748417,Vartioharju,890537287,110/872/723/7/1108727237.geojson,neighbourhood,85683067,hkigis,,,FI
"24.9708545397,60.2101735888,24.9878198872,60.2175795273",uuuu,85633143,,0c5a429cdaa8957b27260e56a387a41d,,3277fb7095d711af485caa441187abde,60.213993,24.97899,1108727233,uuuu,FI,FI,1485376907,60.214464,24.979119,101748417,Vanhakaupunki,1108727357,110/872/723/3/1108727233.geojson,neighbourhood,85683067,hkigis,,,FI
"24.8993574619,60.196570588,24.9178831453,60.2083033496",uuuu,85633143,,7c65b9b82b71f7e80aef90268ca59eaf,,a9ec06c2751eb6a54fc4f301017d680c,60.202341,24.908193,1108727231,uuuu,FI,FI,1485376907,60.202775,24.908193,101748417,Vanha Ruskeasuo,1108727373,110/872/723/1/1108727231.geojson,neighbourhood,85683067,hkigis,,,FI
"25.0621323145,60.1676344042,25.1125648416,60.1944749656",uuuu,85633143,,fd5cb0bd4f397449c1e2d107c5a132e0,,a45b7f0e558b20315fcfd37c7fb72847,60.180594,25.087042,1108727239,uuuu,FI,FI,1485376907,60.181739,25.081121,101748417,Vartiosaari,890536883,110/872/723/9/1108727239.geojson,neighbourhood,85683067,hkigis,,,FI
"25.1226718929,60.2055614327,25.1585365879,60.2279378644",uuuu,85633143,,b834e74a228a7269fa900622511c4666,,2e3e7f3e866d9ddc515640eb6aa38aa8,60.216387,25.140251,1108727045,uuuu,FI,FI,1485376901,60.217094,25.140251,101748417,Keski-Vuosaari,890537281,110/872/704/5/1108727045.geojson,neighbourhood,85683067,hkigis,,,FI
"24.8995103438,60.2077589733,24.9146377366,60.2184950094",uuuu,85633143,,9411f8f3921ebf9a22a2b0bee7d0908a,,a339c28ed3d92e044a8538c706cc8ae8,60.212947,24.906742,1108727047,uuuu,FI,FI,1485376901,60.212417,24.90662,101748417,Kivihaka,890537273,110/872/704/7/1108727047.geojson,neighbourhood,85683067,hkigis,,,FI
"24.9191090111,60.1922252935,24.9357709861,60.2085273529",uuuu,85633143,,6ac6bd77c65583bd6f5d06f162c7adca,,9288697ad540775c0778a249a8a4596c,60.200702,24.930003,1108727043,uuuu,FI,FI,1485376901,60.20074,24.930128,101748417,Keski-Pasila,890537255,110/872/704/3/1108727043.geojson,neighbourhood,85683067,hkigis,,,FI
"24.9576117579,60.162576985,25.0044758832,60.170574374",uuuu,85633143,,b6d48bff0d617c662502ecf9ca77e164,,22289eba29a7b4734c6d16295a55ea8a,60.166029,24.980015,1108727041,uuuu,FI,FI,1485376901,60.166391,24.975775,101748417,Katajanokka,1108727331,110/872/704/1/1108727041.geojson,neighbourhood,85683067,hkigis,,,FI
"25.0351764467,60.2299016065,25.0824042268,60.2508252232",uuuu,85633143,,f4d39f1640a95c45d32790556a1279d0,,07817f221628e4acea29a7aefc4830e1,60.240705,25.059901,1108727049,uuuu,FI,FI,1485376901,60.238234,25.058296,101748417,Kivikko,890537253,110/872/704/9/1108727049.geojson,neighbourhood,85683067,hkigis,,,FI
"24.8777009909,60.2068055855,24.9074504196,60.2237381662",uuuu,85633143,,1272d6abd976f45e7461765fc50ccab6,,5609d0e9223598a3c470af01daa2ebcd,60.215605,24.891778,1108726975,uuuu,FI,FI,1485376899,60.215661,24.891798,101748417,Etela-Haaga,890537273,110/872/697/5/1108726975.geojson,neighbourhood,85683067,hkigis,,,FI
"24.8822267349,60.1667421278,24.9349772963,60.1817397622",uuuu,85633143,,58a6da8ec97c42b76c04c5c9cf1f16ea,,b11284edf2ae2bf002c1923bb2b83c50,60.17394,24.908388,1108726977,uuuu,FI,FI,1485376899,60.175368,24.899191,101748417,Etu-Toolo,1108727337,110/872/697/7/1108726977.geojson,neighbourhood,85683067,hkigis,,,FI
"24.9333412411,60.1532133061,24.9437070152,60.1579724218",uuuu,85633143,,f9105e134b8155520e8549b37d1738eb,,8dbd380f5fbd254d1aaf47651fd8758d,60.155594,24.938911,1108726973,uuuu,FI,FI,1485376898,60.155538,24.938913,101748417,Eira,1108727335,110/872/697/3/1108726973.geojson,neighbourhood,85683067,hkigis,,,FI
"24.8480890646,59.9224907195,25.1767852816,60.0934942306",uuuu,85633143,,8535813edc072e11046bd767b64a55af,,b1438abe7041298d4eee46b51a6c3677,60.003654,25.035693,1108726971,uuuu,FI,FI,1485376898,60.000454,25.038572,101748417,Aluemeri,890536883,110/872/697/1/1108726971.geojson,neighbourhood,85683067,hkigis,,,FI
"24.867875243,60.2472505142,24.905645736,60.2607408476",uuuu,85633143,,21b0cbb7c3f39015a412db13497e988c,,5995b5f88d97c0bacd503aed42cfe7e8,60.253561,24.887268,1108726979,uuuu,FI,FI,1485376899,60.25263,24.885996,101748417,Hakuninmaa,890537241,110/872/697/9/1108726979.geojson,neighbourhood,85683067,hkigis,,,FI
"24.9664858426,60.1749973165,24.9826935968,60.1833316262",uuuu,85633143,,2bdc27a1a5cf781fffded70ec853a881,,63be19a7318ba21ef932ac6f2b83f58c,60.179014,24.974782,1108727195,uuuu,FI,FI,1485376906,60.17874,24.974905,101748417,Sompasaari,890537285,110/872/719/5/1108727195.geojson,neighbourhood,85683067,hkigis,,,FI
"24.9524214846,60.1175616047,25.0294533614,60.1589863877",uuuu,85633143,,536ef93bbbdb6057e49bf6c55ea21eeb,,bee26ed13d2eb6b4c3af9c7e2af7e1c9,60.140268,24.998438,1108727197,uuuu,FI,FI,1485376906,60.13993,25.003023,101748417,Suomenlinna,1108727335,110/872/719/7/1108727197.geojson,neighbourhood,85683067,hkigis,,,FI
"24.9434427555,60.176359596,24.9586588806,60.1813202235",uuuu,85633143,,a75c37a5b27d83f935ae7d76d61b732e,,c61db9cefe7023cb01981439b5f7c8c0,60.178698,24.950776,1108727193,uuuu,FI,FI,1485376906,60.178725,24.950015,101748417,Siltasaari,890537285,110/872/719/3/1108727193.geojson,neighbourhood,85683067,hkigis,,,FI
"24.975509359,60.2644685631,25.0234502895,60.2870313885",uuuu,85633143,,c3ab21b1ffc7992e4b3d2165de509bda,,2742a75bde682b12145420fd3e984414,60.276425,24.997582,1108727191,uuuu,FI,FI,1485376906,60.281102,25.003566,101748417,Siltamaki,890537277,110/872/719/1/1108727191.geojson,neighbourhood,85683067,hkigis,,,FI
"24.9931972315,60.2306460863,25.04065107,60.2590256511",uuuu,85633143,,04b6847d0c2d2e9d64d830537221d515,,adb0de4a18f36c2102c005c9d6a2d56f,60.245066,25.020463,1108726967,uuuu,FI,FI,1485376898,60.249083,25.02047,101748417,Ala-Malmi,890537239,110/872/696/7/1108726967.geojson,neighbourhood,85683067,hkigis,,,FI
"25.0617131045,60.2518073412,25.0729236691,60.2635339419",uuuu,85633143,,99203947d75deedc8a85a012e9ac2e62,,9e6ce6701be8941a9cfb3462f89062c9,60.259147,25.066643,1108726969,uuuu,FI,FI,1485376898,60.259901,25.067195,101748417,Alppikyla,1108727369,110/872/696/9/1108726969.geojson,neighbourhood,85683067,hkigis,,,FI
"24.9204653407,60.2238905714,24.9474351382,60.2379960925",uuuu,85633143,,9317db4da713134cc4270813e279cbe5,,33cc99379eff1d38014e1fe0c792628a,60.230707,24.93264,1108727115,uuuu,FI,FI,1485376903,60.229438,24.930586,101748417,Maunula,1108727377,110/872/711/5/1108727115.geojson,neighbourhood,85683067,hkigis,,,FI
"24.9069940455,60.2173272456,24.9347742484,60.2309530527",uuuu,85633143,,648f0fc3e650dfac346d679efd912e05,,97b36f29378c25cbd7f50ec6f68b5942,60.223565,24.921046,1108727117,uuuu,FI,FI,1485376904,60.224877,24.916676,101748417,Maunulanpuisto,1108727377,110/872/711/7/1108727117.geojson,neighbourhood,85683067,hkigis,,,FI
"24.8618426826,60.2237489731,24.8736183717,60.2331543646",uuuu,85633143,,8a90439d471dbfd24dd01b09b7a755e6,,87fec07448e66310ac239d9850dd88f7,60.228034,24.867226,1108727113,uuuu,FI,FI,1485376903,60.228024,24.867318,101748417,Marttila,890537259,110/872/711/3/1108727113.geojson,neighbourhood,85683067,hkigis,,,FI
"25.0698249284,60.1915747637,25.1061591775,60.2086726866",uuuu,85633143,,80087cee31abd77cd2e0c9e4450e4fd5,,160dbb98792fcb7d836cd79dbc7d03be,60.200324,25.087816,1108727111,uuuu,FI,FI,1485376903,60.199125,25.089054,101748417,Marjaniemi,890537287,110/872/711/1/1108727111.geojson,neighbourhood,85683067,hkigis,,,FI
"24.8877203737,60.2350028249,24.9142976081,60.2563505907",uuuu,85633143,,707346efbbffc8d4db70da97a8cf38e7,,2ac144499cacf82852ca3b9e4a326535,60.244744,24.902326,1108727119,uuuu,FI,FI,1485376904,60.244521,24.902527,101748417,Maununneva,890537241,110/872/711/9/1108727119.geojson,neighbourhood,85683067,hkigis,,,FI
"25.1471188609,60.2055990773,25.175001234,60.2212945585",uuuu,85633143,,d8f4dd0adaa37c060f19b27ffbee3787,,7a857d2bfc13ae134c5f621f112aee18,60.213095,25.161029,1108727147,uuuu,FI,FI,1485376904,60.214662,25.158706,101748417,Nordsjon kartano,890537281,110/872/714/7/1108727147.geojson,neighbourhood,85683067,hkigis,,,FI
"25.1494829365,60.1979747137,25.2204044875,60.2364312664",uuuu,85633143,,f8aa4550b8dded3d832ecc4cadf03494,,f144718f001fbee069b94ab04fad6195,60.21765,25.184356,1108727143,uuuu,FI,FI,1485376904,60.216483,25.187298,101748417,Niinisaari,890537281,110/872/714/3/1108727143.geojson,neighbourhood,85683067,hkigis,,,FI
"24.8796573512,60.2001834701,24.891393405,60.2101677894",uuuu,85633143,,ad6d543053065929f9815548ebd254b6,,7e508ebab3c2c4cec8f331954b542509,60.204633,24.884668,1108727141,uuuu,FI,FI,1485376904,60.204511,24.884091,101748417,Niemenmaki,890537235,110/872/714/1/1108727141.geojson,neighbourhood,85683067,hkigis,,,FI
"25.1440204493,60.2438118561,25.2521133706,60.275467159",uuuu,85633143,,d5ada7067a466b9ec53a59565e3b283c,,60d877d368a2e0ca31cc14de79325dfe,60.258437,25.193763,1108727149,uuuu,FI,FI,1485483072,60.256034,25.190067,101748417,Ostersundom,1108727375,110/872/714/9/1108727149.geojson,neighbourhood,85683067,hkigis,,,FI
"24.8972194974,60.1426407286,24.9250150388,60.1621463632",uuuu,0,,f88cbcfa58f5c44be8ccbcd76feb5996,,ecd0a5493e79b15b1232f7f74e2ada78,60.152424,24.910005,1108727017,uuuu,FI,FI,1485376900,60.151689,24.90974,0,Jatkasaari,-3,110/872/701/7/1108727017.geojson,neighbourhood,0,hkigis,,,FI
"25.0619408802,60.2496674712,25.0891139784,60.2727001365",uuuu,85633143,,5d2e5a75ce3aa5f50da76defe192212a,,daddeabb56fa9e65749cbcee5a756c15,60.259101,25.078313,1108727013,uuuu,FI,FI,1485376900,60.258074,25.078517,101748417,Jakomaki,1108727371,110/872/701/3/1108727013.geojson,neighbourhood,85683067,hkigis,,,FI
"25.0221729417,60.1188128081,25.1239591892,60.1581801008",uuuu,85633143,,25d6be1f164c2b34adb3a360370d7b48,,3018c78deac73065748841bf27b00e54,60.139715,25.06923,1108727185,uuuu,FI,FI,1485376906,60.13976,25.06511,101748417,Santahamina,890536883,110/872/718/5/1108727185.geojson,neighbourhood,85683067,hkigis,,,FI
"24.950375229,60.1679723117,24.9785984003,60.1773156331",uuuu,85633143,,85c5994f1d5f2668d5fd9e7679cf866a,,1d30d08316fb16670d63417880ade6cb,60.172951,24.962473,1108727065,uuuu,FI,FI,1485376902,60.1733,24.961331,101748417,Kruununhaka,1108727331,110/872/706/5/1108727065.geojson,neighbourhood,85683067,hkigis,,,FI
"25.0020456555,60.1578310545,25.0375335646,60.1782624079",uuuu,85633143,,1d66036dc060d3c95e680b2a0e272df1,,fc8723fec48f41f91573d6a81192c175,60.166829,25.018181,1108727067,uuuu,FI,FI,1485376902,60.1681,25.016069,101748417,Kruunuvuorenranta,890537275,110/872/706/7/1108727067.geojson,neighbourhood,85683067,hkigis,,,FI
"24.8725432652,60.1545355125,24.8972195941,60.1721116939",uuuu,85633143,,468c4a487753c9d90257aada29d66d5f,,74c6edb1c5b19584a42833a6ad4262cb,60.162919,24.884923,1108727063,uuuu,FI,FI,1485376902,60.163877,24.883453,101748417,Kotkavuori,890537261,110/872/706/3/1108727063.geojson,neighbourhood,85683067,hkigis,,,FI
"24.9583884005,60.2147220526,24.9801260621,60.2239981388",uuuu,85633143,,1409c1cee76f1b8a150933c37fbc5adb,,e12cf877cbbed74c8372bee74f9ddbd2,60.219386,24.968505,1108727061,uuuu,FI,FI,1485376902,60.219714,24.967629,101748417,Koskela,1108727357,110/872/706/1/1108727061.geojson,neighbourhood,85683067,hkigis,,,FI
"24.9872114541,60.1742715712,25.022822545,60.2048997739",uuuu,85633143,,e1a6a7af4c9303d51d67103813c15602,,acfa5f553d38bb7e86ad69db37bbd62e,60.189582,25.007474,1108727069,uuuu,FI,FI,1485376902,60.190779,25.004776,101748417,Kulosaari,1108727349,110/872/706/9/1108727069.geojson,neighbourhood,85683067,hkigis,,,FI
"25.0274272566,60.2441358527,25.0596001591,60.265432427",uuuu,85633143,,cf741c2ce0b280908caf7bff7991d423,,ce61202ff767afb6aa63a09b76a75a47,60.253616,25.041001,1108727105,uuuu,FI,FI,1485376903,60.254766,25.038075,101748417,Malmin lentokentta,890537239,110/872/710/5/1108727105.geojson,neighbourhood,85683067,hkigis,,,FI
"24.8386510037,60.2350495565,24.879049563,60.2544456988",uuuu,85633143,,732bd183dbad961e80b0d25b3356a71d,,37634f0aec65cc9984d3af3ef3af505a,60.24742,24.859287,1108727107,uuuu,FI,FI,1485376903,60.246234,24.859594,101748417,Malminkartano,890537241,110/872/710/7/1108727107.geojson,neighbourhood,85683067,hkigis,,,FI
"24.9334540848,60.1797264778,24.9565747169,60.186450215",uuuu,85633143,,59a2c6aa7327ebfcc436ab2af5162b45,,d64a11cab80f204d45254ce00e05cfcf,60.182971,24.944011,1108727103,uuuu,FI,FI,1485376903,60.183018,24.944009,101748417,Linjat,890537285,110/872/710/3/1108727103.geojson,neighbourhood,85683067,hkigis,,,FI
"24.8433862772,60.1688706661,24.8822267349,60.1854253324",uuuu,0,,5563d0a54cb2042e0d2a3ddf42926bed,,69589c0dffc91a6c18c76c5018cbdbf8,60.176217,24.859472,1108727101,uuuu,FI,FI,1485376903,60.176193,24.860796,0,Lehtisaari,-3,110/872/710/1/1108727101.geojson,neighbourhood,0,hkigis,,,FI
"24.9475059134,60.2504891634,24.9783500635,60.2657497532",uuuu,85633143,,fe6486420d6315a0541ebf6eec4fa7a4,,767188a4f92b9a41502d1d526b8b8c54,60.256089,24.96518,1108727225,uuuu,FI,FI,1485376907,60.257338,24.967511,101748417,Tuomarinkartano,1108727383,110/872/722/5/1108727225.geojson,neighbourhood,85683067,hkigis,,,FI
"24.936635612,60.1466235852,24.9603894516,60.1646805179",uuuu,85633143,,8f21edc41db40e93a652044ff54f08de,,4a396b3fc4e0d39ee6bdd7431e70bf71,60.154867,24.94744,1108727227,uuuu,FI,FI,1485376907,60.157455,24.946272,101748417,Ullanlinna,1108727335,110/872/722/7/1108727227.geojson,neighbourhood,85683067,hkigis,,,FI
"25.0182325835,60.1702437069,25.0406026599,60.1850324179",uuuu,85633143,,79ff3bec3d09af6e19dc93bdb77717a0,,3a309194175b3f60a2165a1673cd597a,60.178723,25.030543,1108727223,uuuu,FI,FI,1485376907,60.17847,25.030544,101748417,Tullisaari,890537275,110/872/722/3/1108727223.geojson,neighbourhood,85683067,hkigis,,,FI
"24.9918822957,60.2642123082,25.0165180723,60.2757273457",uuuu,85633143,,e190507acbe8203bfb7694f1d9bca0ec,,11a14252a737b84da13b143c3d4518ba,60.270522,25.003035,1108727221,uuuu,FI,FI,1485376907,60.271067,25.004268,101748417,Toyrynummi,890537277,110/872/722/1/1108727221.geojson,neighbourhood,85683067,hkigis,,,FI
"24.8429309797,60.1859228028,24.8911825015,60.2059387325",uuuu,85633143,,f71c615b73cf5f3a19cf096a4f36dc21,,79222a2f3381d09f7de5acc48d1f5f57,60.1976,24.868357,1108727229,uuuu,FI,FI,1485376907,60.196186,24.874747,101748417,Vanha Munkkiniemi,890537235,110/872/722/9/1108727229.geojson,neighbourhood,85683067,hkigis,,,FI
"24.9006240892,60.1646305023,24.9209602013,60.1732862617",uuuu,0,,1d0a07db649789b104d3a3d4e1f94e90,,e07cdef5842d31827cca642f34d43f63,60.168986,24.911888,1108727095,uuuu,FI,FI,1485483069,60.169293,24.911695,0,Lapinlahti,-3,110/872/709/5/1108727095.geojson,neighbourhood,0,hkigis,,,FI
"24.8666375156,60.2232837868,24.8900111061,60.2350495568",uuuu,85633143,,6dab968d3a3fee095b31affcd9533d53,,1f837fceaf149fa9e4fe985ef6d84008,60.23013,24.879054,1108727097,uuuu,FI,FI,1485376903,60.229109,24.880003,101748417,Lassila,890537273,110/872/709/7/1108727097.geojson,neighbourhood,85683067,hkigis,,,FI
"24.7828044421,60.0275584506,25.0103583631,60.14662619",uuuu,0,,88c30bef58f9c26227754c35e198fd43,,f8aab81c121592a827c59f0545144ee2,60.091899,24.89696,1108727093,uuuu,FI,FI,1485376903,60.09995,24.91555,0,Lansisaaret,-3,110/872/709/3/1108727093.geojson,neighbourhood,0,hkigis,,,FI
"25.0210222597,60.218926204,25.0505698346,60.2362753433",uuuu,85633143,,a78b8c6d367f9e4d151ff9b791662e5a,,e55e15ab1e388d6b7224417f59e14eb2,60.22813,25.036637,1108727099,uuuu,FI,FI,1485376903,60.228089,25.036637,101748417,Latokartano,1108727359,110/872/709/9/1108727099.geojson,neighbourhood,85683067,hkigis,,,FI
"24.8850848582,60.2184396409,24.9146377366,60.2355415076",uuuu,85633143,,ce71e8f9b94573c7fc010f3d5074db6f,,fb42bcaaee95067f6f240d987a9c74b4,60.226896,24.898263,85907969,uuuu,FI,FI,1485483078,60.22849,24.89681,101748417,Pohjois-Haaga,890537273,859/079/69/85907969.geojson,neighbourhood,85683067,hkigis,,,FI
"24.915484881,60.2453259006,24.9509455932,60.2571438908",uuuu,85633143,,f92dc67618a7186db10833e09125be7f,,5b1c97ef8e47fd361c3aa96ff420f568,60.25148,24.931851,85907965,uuuu,FI,FI,1485483077,60.251425,24.931857,101748417,Paloheina,890537257,859/079/65/85907965.geojson,neighbourhood,85683067,hkigis,,,FI
"24.9364989268,60.2554432569,24.9637432166,60.2661370301",uuuu,85633143,,2d0fa5d6f41871f057004f99deddbf90,,adb6d1fa1088d8eda74ace953095a254,60.260679,24.951123,85907993,uuuu,FI,FI,1485483084,60.261032,24.95205,101748417,Torpparinmaki,890537257,859/079/93/85907993.geojson,neighbourhood,85683067,hkigis,,,FI
"24.9326286712,60.1851625237,24.949343077,60.1957773712",uuuu,85633143,,6ef70d8fab586bf67876dc5dc60b9a1d,,ae6821ea2520faeeef4f669b2ff07a89,60.190408,24.939674,85907981,uuuu,FI,FI,1485483080,60.190165,24.939108,101748417,Alppila,890537245,859/079/81/85907981.geojson,neighbourhood,85683067,hkigis,,,FI
"24.8843415535,60.1938057104,24.9017101637,60.2087840435",uuuu,85633143,,32323f285427c20ae8a6fd66e346deeb,,c40b1d0dd6c9e2a98e18aae1c5d78cc8,60.201924,24.894338,85907967,uuuu,FI,FI,1485483077,60.20343,24.895191,101748417,Pikku Huopalahti,1108727373,859/079/67/85907967.geojson,neighbourhood,85683067,hkigis,,,FI
"24.9122220862,60.2344943888,24.9479650731,60.249030247",uuuu,85633143,,352239706113f03d73b9ba678c84b4c2,,07a56cc743f9f6d34dbf69d86a5d1935,60.241477,24.930999,85907985,uuuu,FI,FI,1485483080,60.241531,24.930991,101748417,Lansi-Pakila,1108727381,859/079/85/85907985.geojson,neighbourhood,85683067,hkigis,,,FI
"24.9423346521,60.2199065382,24.9839808086,60.2413814625",uuuu,85633143,,20958bfcfa7ab7dc1ef05f97089e62ef,,3b68d0721f28c75797a1e0bcec16bb8b,60.232363,24.959081,85907987,uuuu,FI,FI,1485483081,60.231865,24.957349,101748417,Patola,890537237,859/079/87/85907987.geojson,neighbourhood,85683067,hkigis,,,FI
"24.9635548255,60.1982668232,24.997972871,60.2119908223",uuuu,85633143,,f1c1dcb2d316797e48c10ec7c964dbd6,,fed636c89dbf35d004feba90a23ac4fe,60.204464,24.980452,85907983,uuuu,FI,FI,1485483080,60.206104,24.980196,101748417,Arabianranta,1108727357,859/079/83/85907983.geojson,neighbourhood,85683067,hkigis,,,FI
"24.997369453,60.2291082081,25.0222077414,60.2414985128",uuuu,85633143,,5ca1fe9b296f2bf2bc98ec9f933d8a55,,6c0e4d27b524d2cc769a6d80dbf63408,60.236145,25.010734,85907995,uuuu,FI,FI,1485483084,60.235199,25.012212,101748417,Pihlajamaki,1108727359,859/079/95/85907995.geojson,neighbourhood,85683067,hkigis,,,FI
"24.9326264941,60.1956388049,24.9477200191,60.2088504959",uuuu,85633143,,e8d436b1ba77b6a2f84bdbcc1d2322bb,,2bedb9c67b96b9c9d1ca84fb3e3776d9,60.202293,24.93966,85907977,uuuu,FI,FI,1485483079,60.201953,24.939517,101748417,Ita-Pasila,890537255,859/079/77/85907977.geojson,neighbourhood,85683067,hkigis,,,FI
"24.9528812456,60.2210006642,24.9898382345,60.2342422602",uuuu,85633143,,9a1f84e8447261f083036ab3306eec01,,2eeed06a70e9efc19c150f033cffcf58,60.226936,24.974552,85907989,uuuu,FI,FI,1485483082,60.227353,24.974269,101748417,Verajamaki,890537237,859/079/89/85907989.geojson,neighbourhood,85683067,hkigis,,,FI
"25.1532690905,60.1819959558,25.2012550882,60.2075683562",uuuu,85633143,,04f232f2dad5fcbfebfe11c8bf1c947c,,3e8ae563b2342cf4d910c4b50b93fbbf,60.196634,25.178385,85907999,uuuu,FI,FI,1485483084,60.196239,25.178016,101748417,Uutela,890537281,859/079/99/85907999.geojson,neighbourhood,85683067,hkigis,,,FI
"24.9470803334,60.2379690031,24.9759573227,60.251394638",uuuu,85633143,,c84b6895cf45398eb86b265e1e3a47be,,1a0ec993b8b3ff8c1d1e895f581d0fde,60.245323,24.959926,85907991,uuuu,FI,FI,1485483082,60.245161,24.955868,101748417,Ita-Pakila,1108727383,859/079/91/85907991.geojson,neighbourhood,85683067,hkigis,,,FI
"24.9728692769,60.2515797988,25.0155416174,60.2678215129",uuuu,85633143,,e0049f67254c92906f5656f014c49a28,,1ca33c58b696fc09ca83c702477ba08e,60.260005,24.992645,85908017,uuuu,FI,FI,1485483087,60.258251,24.989409,101748417,Tapaninvainio,890537239,859/080/17/85908017.geojson,neighbourhood,85683067,hkigis,,,FI
"24.9894540714,60.228474731,25.0062815345,60.2401605026",uuuu,85633143,,fd2eec590f1077476e81a27779be419c,,4c2eed347a167e76f7be8864e0aaafe3,60.233727,24.997205,85908013,uuuu,FI,FI,1485483086,60.234506,24.995929,101748417,Pihlajisto,1108727359,859/080/13/85908013.geojson,neighbourhood,85683067,hkigis,,,FI
"25.0429675168,60.2088988862,25.0862626875,60.2319032391",uuuu,85633143,,f2dc2e838be150a05f7870c3e372b0fd,,a43a70bcc0f3326757badd26d877d26c,60.221196,25.062962,85908003,uuuu,FI,FI,1485483084,60.222653,25.061174,101748417,Myllypuro,1108727347,859/080/03/85908003.geojson,neighbourhood,85683067,hkigis,,,FI
"25.0871825372,60.1808130676,25.1326498268,60.2067214341",uuuu,85633143,,f38c05c897230a8392acfc111b082c59,,dabbfda89c9fe05f44f868f962047bd9,60.194437,25.109113,85908005,uuuu,FI,FI,1485483085,60.195516,25.109456,101748417,Meri-Rastila,890537281,859/080/05/85908005.geojson,neighbourhood,85683067,hkigis,,,FI
"25.0450598897,60.2074865887,25.0676261915,60.2158380146",uuuu,85633143,,daa2d5087673d74974678709d1262406,,0f1a2bfb8e2fc7b97e0c4203ff0b40d6,60.21122,25.057446,85908011,uuuu,FI,FI,1485483085,60.21107,25.057659,101748417,Roihupelto,890537287,859/080/11/85908011.geojson,neighbourhood,85683067,hkigis,,,FI
"25.0415618315,60.250825225,25.0646103196,60.2657450985",uuuu,85633143,,b6d8d6bdf7fabda2e0389d05f2017e09,,4d1ac4e46759ca6336ec06890f9ec997,60.258512,25.054436,85908019,uuuu,FI,FI,1485483089,60.258037,25.054649,101748417,Tattarisuo,1108727369,859/080/19/85908019.geojson,neighbourhood,85683067,hkigis,,,FI
"25.1440331138,60.196595313,25.1656189932,60.2086518992",uuuu,85633143,,c26f534e63aa449820c768d72e767e54,,21970bdeb1f6ccfd7b40b3a50a20aec2,60.203296,25.15554,85908025,uuuu,FI,FI,1485483089,60.202678,25.155333,101748417,Aurinkolahti,890537281,859/080/25/85908025.geojson,neighbourhood,85683067,hkigis,,,FI
